{"type":"FeatureCollection","features":[{"type":"Feature","properties":{"layer":"Athletic Facilities","symbol":2,"_tile":"6/26/32"},"geometry":{"type":"Polygon","coordinates":[[[-76.6252742,39.3289697],[-76.6252691,39.3289472],[-76.6252743,39.3289472],[-76.6252742,39.3289697]]]}},{"type":"Feature","properties":{"layer":"Athletic Facilities","symbol":2,"_tile":"6/26/33"},"geometry":{"type":"Polygon","coordinates":[[[-76.6252726,39.3289624],[-76.6252574,39.3288962],[-76.6252212,39.328723],[-76.6251783,39.3285955],[-76.6251099,39.3284999],[-76.6250696,39.3284584],[-76.6252769,39.3284591],[-76.6252742,39.3289624],[-76.6252726,39.3289624]]]}},{"type":"Feature","properties":{"layer":"Athletic Facilities","symbol":2,"_tile":"6/26/34"},"geometry":{"type":"Polygon","coordinates":[[[-76.6250844,39.3284737],[-76.6250173,39.3284045],[-76.6249488,39.3282635],[-76.6249087,39.3281429],[-76.6249046,39.3280205],[-76.6249195,39.3279699],[-76.6252795,39.327971],[-76.6252768,39.3284743],[-76.6250844,39.3284737]]]}},{"type":"Feature","properties":{"layer":"Athletic Facilities","symbol":2,"_tile":"6/26/35"},"geometry":{"type":"Polygon","coordinates":[[[-76.624915,39.3279851],[-76.6249341,39.3279209],[-76.6251098,39.3276802],[-76.6251366,39.3275703],[-76.6251457,39.3274825],[-76.6252821,39.3274829],[-76.6252794,39.3279863],[-76.624915,39.3279851]]]}},{"type":"Feature","properties":{"layer":"Athletic Facilities","symbol":2,"_tile":"6/26/36"},"geometry":{"type":"Polygon","coordinates":[[[-76.6251442,39.3274977],[-76.6251549,39.3273934],[-76.6251313,39.3271565],[-76.6251504,39.3269944],[-76.6252846,39.3269949],[-76.625282,39.3274982],[-76.6251442,39.3274977]]]}},{"type":"Feature","properties":{"layer":"Athletic Facilities","symbol":2,"_tile":"6/26/37"},"geometry":{"type":"Polygon","coordinates":[[[-76.6251485,39.3270097],[-76.6251541,39.3269625],[-76.6251792,39.3268199],[-76.6251226,39.3267327],[-76.6250816,39.3266243],[-76.6251127,39.3265579],[-76.6251565,39.3265064],[-76.6252872,39.3265068],[-76.6252846,39.3270101],[-76.6251485,39.3270097]]]}},{"type":"Feature","properties":{"layer":"Athletic Facilities","symbol":3,"_tile":"6/26/38"},"geometry":{"type":"Polygon","coordinates":[[[-76.6249645,39.3262498],[-76.6249627,39.3262507],[-76.6249175,39.3262712],[-76.6249169,39.3262716],[-76.624883,39.3262276],[-76.624857,39.3261934],[-76.6248323,39.3261613],[-76.6248073,39.3261287],[-76.6247018,39.3261775],[-76.6246975,39.3261795],[-76.624675,39.3261898],[-76.6246717,39.3261914],[-76.62467,39.3261921],[-76.6246407,39.3262056],[-76.6246416,39.3260361],[-76.6246827,39.3260168],[-76.6250632,39.326018],[-76.6250094,39.3260407],[-76.6251162,39.3261808],[-76.6249645,39.3262498]]]}},{"type":"Feature","properties":{"layer":"Athletic Facilities","symbol":2,"_tile":"6/26/38"},"geometry":{"type":"Polygon","coordinates":[[[-76.6251435,39.3265216],[-76.6251761,39.3264833],[-76.6252809,39.3264036],[-76.6252878,39.3263982],[-76.6252871,39.326522],[-76.6251435,39.3265216]]]}},{"type":"Feature","properties":{"layer":"Athletic Facilities","symbol":3,"_tile":"6/26/39"},"geometry":{"type":"Polygon","coordinates":[[[-76.6246506,39.3260319],[-76.6248008,39.3259612],[-76.6249037,39.3259157],[-76.6249334,39.3259556],[-76.6249939,39.3259267],[-76.6250652,39.3260171],[-76.6250274,39.3260331],[-76.6246506,39.3260319]]]}},{"type":"Feature","properties":{"layer":"Athletic Facilities","symbol":2,"_tile":"6/26/39"},"geometry":{"type":"Polygon","coordinates":[[[-76.6252899,39.325997],[-76.6249928,39.3256097],[-76.6251557,39.3255302],[-76.6252924,39.3255306],[-76.6252899,39.325997]]]}},{"type":"Feature","properties":{"layer":"Athletic Facilities","symbol":2,"_tile":"6/26/40"},"geometry":{"type":"Polygon","coordinates":[[[-76.6251248,39.3255453],[-76.6252927,39.3254633],[-76.6252923,39.3255459],[-76.6251248,39.3255453]],[[-76.6252509,39.3250424],[-76.625295,39.3250425],[-76.6252947,39.3250982],[-76.6252509,39.3250424]]]}},{"type":"Feature","properties":{"layer":"Athletic Facilities","symbol":2,"_tile":"6/26/41"},"geometry":{"type":"Polygon","coordinates":[[[-76.625263,39.3250577],[-76.6248683,39.3245531],[-76.6252975,39.3245545],[-76.6252949,39.3250578],[-76.625263,39.3250577]]]}},{"type":"Feature","properties":{"layer":"Athletic Facilities","symbol":2,"_tile":"6/26/42"},"geometry":{"type":"Polygon","coordinates":[[[-76.6248802,39.3245684],[-76.624651,39.3242753],[-76.6246521,39.3240643],[-76.6253001,39.3240664],[-76.6252975,39.3245697],[-76.6248802,39.3245684]]]}},{"type":"Feature","properties":{"layer":"Athletic Facilities","symbol":2,"_tile":"6/26/43"},"geometry":{"type":"Polygon","coordinates":[[[-76.624652,39.3240796],[-76.6246528,39.3239295],[-76.6246699,39.3239215],[-76.6247733,39.3240528],[-76.6250593,39.3239173],[-76.6250773,39.323755],[-76.6251053,39.3237344],[-76.6249837,39.3235773],[-76.6253027,39.3235783],[-76.6253,39.3240816],[-76.624652,39.3240796]]]}},{"type":"Feature","properties":{"layer":"Athletic Facilities","symbol":3,"_tile":"6/27/37"},"geometry":{"type":"Polygon","coordinates":[[[-76.6243141,39.3265037],[-76.6243186,39.3265095],[-76.6243436,39.3265423],[-76.624351,39.3265388],[-76.6243658,39.3265607],[-76.6243445,39.3265704],[-76.62424,39.3266187],[-76.6242137,39.3266313],[-76.624205,39.3266345],[-76.6241128,39.3266626],[-76.6240385,39.3265028],[-76.6243141,39.3265037]]]}},{"type":"Feature","properties":{"layer":"Athletic Facilities","symbol":3,"_tile":"6/27/38"},"geometry":{"type":"Polygon","coordinates":[[[-76.6246604,39.3261965],[-76.6246149,39.3262176],[-76.6246044,39.3262038],[-76.6245958,39.3262079],[-76.6245673,39.3262209],[-76.6245786,39.3262356],[-76.6245731,39.3262382],[-76.6244079,39.3263144],[-76.6243853,39.3263249],[-76.624382,39.3263263],[-76.6243582,39.3263375],[-76.6243562,39.3263383],[-76.624349,39.3263417],[-76.6242681,39.3263791],[-76.6242315,39.3263959],[-76.6242659,39.326441],[-76.6243186,39.3265095],[-76.6243258,39.326519],[-76.6240456,39.3265181],[-76.624027,39.3264781],[-76.6240111,39.326443],[-76.6240116,39.3263315],[-76.6240816,39.3262974],[-76.6241676,39.3262561],[-76.6242384,39.3262236],[-76.6242839,39.3262022],[-76.6243942,39.3261507],[-76.624564,39.3260726],[-76.6246613,39.3260268],[-76.6246604,39.3261965]]]}},{"type":"Feature","properties":{"layer":"Athletic Facilities","symbol":3,"_tile":"6/27/39"},"geometry":{"type":"Polygon","coordinates":[[[-76.6246506,39.3260319],[-76.6246613,39.3260268],[-76.6246613,39.3260319],[-76.6246506,39.3260319]]]}},{"type":"Feature","properties":{"layer":"Athletic Facilities","symbol":2,"_tile":"6/27/42"},"geometry":{"type":"Polygon","coordinates":[[[-76.6246705,39.3243003],[-76.6244855,39.3240638],[-76.6246717,39.3240644],[-76.6246705,39.3243003]]]}},{"type":"Feature","properties":{"layer":"Athletic Facilities","symbol":2,"_tile":"6/27/43"},"geometry":{"type":"Polygon","coordinates":[[[-76.6244974,39.3240791],[-76.6244538,39.3240233],[-76.6246699,39.3239215],[-76.6246725,39.3239248],[-76.6246716,39.3240796],[-76.6244974,39.3240791]]]}},{"type":"Feature","properties":{"layer":"Athletic Facilities","symbol":3,"_tile":"6/28/38"},"geometry":{"type":"Polygon","coordinates":[[[-76.6240305,39.3264856],[-76.624027,39.3264781],[-76.6239825,39.3263799],[-76.6239698,39.3263519],[-76.6240313,39.326322],[-76.6240305,39.3264856]]]}},{"type":"Feature","properties":{"layer":"Athletic Facilities","symbol":2,"_tile":"6/31/41"},"geometry":{"type":"Polygon","coordinates":[[[-76.6216879,39.3248795],[-76.6216802,39.3248923],[-76.6215051,39.324977],[-76.6215064,39.3247468],[-76.6216723,39.3248531],[-76.6216838,39.3248659],[-76.6216879,39.3248795]]]}},{"type":"Feature","properties":{"layer":"Athletic Facilities","symbol":2,"_tile":"6/32/41"},"geometry":{"type":"Polygon","coordinates":[[[-76.6211841,39.3248736],[-76.6211779,39.3248941],[-76.6211617,39.3249098],[-76.6211256,39.3249062],[-76.6208776,39.3248009],[-76.620879,39.3245403],[-76.6211383,39.3245411],[-76.6211446,39.3245718],[-76.6211501,39.3246333],[-76.6211517,39.3247323],[-76.621165,39.3247968],[-76.6211807,39.3248446],[-76.6211841,39.3248736]],[[-76.6215248,39.3249675],[-76.6214371,39.3250099],[-76.6214173,39.3250125],[-76.621353,39.3249897],[-76.6213046,39.3249395],[-76.6212747,39.3248811],[-76.621253,39.3248216],[-76.6212331,39.3247434],[-76.6212271,39.3246671],[-76.6212264,39.3245925],[-76.6212387,39.3245814],[-76.6212611,39.3245867],[-76.621408,39.3246838],[-76.6215259,39.3247595],[-76.6215248,39.3249675]]]}},{"type":"Feature","properties":{"layer":"Athletic Facilities","symbol":2,"_tile":"6/32/42"},"geometry":{"type":"Polygon","coordinates":[[[-76.620879,39.3245555],[-76.6208809,39.3241878],[-76.6211211,39.3244947],[-76.6211358,39.3245282],[-76.6211415,39.3245564],[-76.620879,39.3245555]]]}},{"type":"Feature","properties":{"layer":"Athletic Facilities","symbol":2,"_tile":"6/33/41"},"geometry":{"type":"Polygon","coordinates":[[[-76.6208972,39.3248093],[-76.6208184,39.3247758],[-76.620756,39.3247443],[-76.6206498,39.3246796],[-76.6205323,39.3245886],[-76.6204811,39.324539],[-76.6208987,39.3245404],[-76.6208972,39.3248093]]]}},{"type":"Feature","properties":{"layer":"Athletic Facilities","symbol":2,"_tile":"6/33/42"},"geometry":{"type":"Polygon","coordinates":[[[-76.6204969,39.3245543],[-76.6203999,39.3244605],[-76.6203403,39.3243815],[-76.6203313,39.3243678],[-76.6202746,39.3242649],[-76.6202524,39.3242144],[-76.6202532,39.3240502],[-76.6207746,39.3240519],[-76.6209004,39.3242127],[-76.6208986,39.3245556],[-76.6204969,39.3245543]]]}},{"type":"Feature","properties":{"layer":"Athletic Facilities","symbol":2,"_tile":"6/33/43"},"geometry":{"type":"Polygon","coordinates":[[[-76.6202532,39.3240654],[-76.6202559,39.3235621],[-76.6203918,39.3235625],[-76.6207866,39.3240672],[-76.6202532,39.3240654]]]}},{"type":"Feature","properties":{"layer":"Athletic Facilities","symbol":2,"_tile":"6/34/41"},"geometry":{"type":"Polygon","coordinates":[[[-76.619876,39.324537],[-76.6198729,39.3245409],[-76.6198587,39.324557],[-76.6198459,39.3245709],[-76.6198375,39.3245797],[-76.61983,39.3245874],[-76.619823,39.3245942],[-76.6198089,39.3246071],[-76.6197934,39.3246209],[-76.6197805,39.3246321],[-76.6197637,39.3246457],[-76.6197324,39.3246699],[-76.619709,39.3246877],[-76.6196796,39.3247098],[-76.619621,39.3247545],[-76.6196222,39.3245362],[-76.619876,39.324537]]]}},{"type":"Feature","properties":{"layer":"Athletic Facilities","symbol":2,"_tile":"6/34/41"},"geometry":{"type":"Polygon","coordinates":[[[-76.6199307,39.3245372],[-76.6198962,39.3245766],[-76.6197876,39.3246762],[-76.6196208,39.3247978],[-76.6196222,39.3245362],[-76.6199307,39.3245372]]]}},{"type":"Feature","properties":{"layer":"Athletic Facilities","symbol":2,"_tile":"6/34/42"},"geometry":{"type":"Polygon","coordinates":[[[-76.6200309,39.3240495],[-76.6200321,39.3240547],[-76.6200347,39.3240695],[-76.6200348,39.3240696],[-76.6200362,39.3240781],[-76.6200381,39.3240918],[-76.6200398,39.3241059],[-76.6200403,39.3241105],[-76.6200409,39.324115],[-76.6200422,39.3241311],[-76.6200426,39.3241419],[-76.6200425,39.3241441],[-76.6200428,39.324149],[-76.6200429,39.3241677],[-76.6200425,39.3241752],[-76.6200419,39.3241827],[-76.6200419,39.3241839],[-76.6200404,39.3241983],[-76.6200391,39.3242076],[-76.6200379,39.3242156],[-76.6200353,39.324228],[-76.6200332,39.3242374],[-76.6200308,39.3242464],[-76.6200303,39.3242479],[-76.6200297,39.3242505],[-76.6200274,39.3242577],[-76.6200225,39.3242705],[-76.6200183,39.3242812],[-76.6200148,39.3242899],[-76.6200126,39.324295],[-76.62001,39.3242995],[-76.6200059,39.3243033],[-76.6199992,39.3243068],[-76.6199929,39.3243088],[-76.6199849,39.3243102],[-76.6199599,39.3243695],[-76.6199652,39.3243729],[-76.6199681,39.3243765],[-76.6199705,39.3243813],[-76.6199718,39.3243857],[-76.619972,39.3243889],[-76.6199722,39.3243895],[-76.6199711,39.3243935],[-76.6199686,39.3243994],[-76.6199585,39.3244168],[-76.619951,39.3244308],[-76.619946,39.3244396],[-76.6199345,39.3244586],[-76.6199267,39.3244701],[-76.6199234,39.3244745],[-76.6199214,39.3244775],[-76.6199137,39.3244883],[-76.6199076,39.3244965],[-76.6198959,39.3245119],[-76.6198818,39.3245298],[-76.6198729,39.3245409],[-76.6198629,39.3245523],[-76.6196221,39.3245515],[-76.6196248,39.3240481],[-76.6200309,39.3240495]]]}},{"type":"Feature","properties":{"layer":"Athletic Facilities","symbol":2,"_tile":"6/34/42"},"geometry":{"type":"Polygon","coordinates":[[[-76.6202718,39.3242583],[-76.6202442,39.3241959],[-76.6202246,39.3241334],[-76.620212,39.3240716],[-76.6202104,39.32405],[-76.6202729,39.3240502],[-76.6202718,39.3242583]],[[-76.6200668,39.3240496],[-76.6200705,39.3240807],[-76.6200693,39.324228],[-76.6200182,39.3243867],[-76.61997,39.3244842],[-76.6199446,39.3245213],[-76.6199173,39.3245524],[-76.6196221,39.3245515],[-76.6196248,39.3240481],[-76.6200668,39.3240496]]]}},{"type":"Feature","properties":{"layer":"Athletic Facilities","symbol":2,"_tile":"6/34/43"},"geometry":{"type":"Polygon","coordinates":[[[-76.6196643,39.3235602],[-76.6196658,39.3235611],[-76.6196764,39.3235674],[-76.6196912,39.3235771],[-76.619697,39.323581],[-76.6197153,39.3235937],[-76.6197373,39.3236092],[-76.6197543,39.3236208],[-76.6197577,39.3236229],[-76.6197667,39.3236292],[-76.6197769,39.3236366],[-76.6197863,39.3236438],[-76.6197968,39.3236524],[-76.6198183,39.323671],[-76.6198308,39.3236824],[-76.619845,39.3236963],[-76.619864,39.3237155],[-76.6198753,39.3237273],[-76.619887,39.3237401],[-76.6198907,39.323744],[-76.6198913,39.3237448],[-76.6198995,39.323754],[-76.6199067,39.3237625],[-76.6199125,39.32377],[-76.6199155,39.3237742],[-76.6199221,39.3237836],[-76.6199315,39.3237978],[-76.6199365,39.3238059],[-76.6199408,39.3238132],[-76.6199481,39.3238261],[-76.6199531,39.3238353],[-76.6199581,39.3238446],[-76.6199648,39.3238578],[-76.6199666,39.3238617],[-76.6199684,39.3238653],[-76.6199717,39.3238726],[-76.6199734,39.3238766],[-76.6199772,39.3238852],[-76.6199886,39.3239126],[-76.6199936,39.3239254],[-76.6199976,39.3239364],[-76.6200053,39.323958],[-76.6200069,39.3239626],[-76.6200102,39.3239721],[-76.6200111,39.3239752],[-76.6200132,39.3239812],[-76.6200159,39.3239898],[-76.6200182,39.3239973],[-76.6200213,39.324009],[-76.620026,39.3240274],[-76.6200282,39.3240368],[-76.6200321,39.3240547],[-76.6200339,39.3240647],[-76.6196248,39.3240634],[-76.6196275,39.3235601],[-76.6196643,39.3235602]]]}},{"type":"Feature","properties":{"layer":"Athletic Facilities","symbol":2,"_tile":"6/34/43"},"geometry":{"type":"Polygon","coordinates":[[[-76.6202116,39.3240653],[-76.6201764,39.3235618],[-76.6202755,39.3235622],[-76.6202728,39.3240655],[-76.6202116,39.3240653]],[[-76.6197669,39.3235605],[-76.619852,39.3236218],[-76.6199098,39.3236734],[-76.6200075,39.3237891],[-76.6200504,39.3239095],[-76.6200686,39.3240648],[-76.6196248,39.3240634],[-76.6196275,39.3235601],[-76.6197669,39.3235605]]]}},{"type":"Feature","properties":{"layer":"Athletic Facilities","symbol":2,"_tile":"6/35/40"},"geometry":{"type":"Polygon","coordinates":[[[-76.6192673,39.3250232],[-76.6192425,39.325042],[-76.6190487,39.3251899],[-76.61899,39.3252347],[-76.6189912,39.3250223],[-76.6192673,39.3250232]]]}},{"type":"Feature","properties":{"layer":"Athletic Facilities","symbol":2,"_tile":"6/35/40"},"geometry":{"type":"Polygon","coordinates":[[[-76.6193189,39.3250233],[-76.6189898,39.3252741],[-76.6189912,39.3250223],[-76.6193189,39.3250233]]]}},{"type":"Feature","properties":{"layer":"Athletic Facilities","symbol":2,"_tile":"6/35/41"},"geometry":{"type":"Polygon","coordinates":[[[-76.6196419,39.3245363],[-76.6196408,39.3247395],[-76.619546,39.3248118],[-76.6194611,39.3248762],[-76.6194448,39.3248885],[-76.6192473,39.3250384],[-76.6189911,39.3250375],[-76.6189938,39.3245342],[-76.6196419,39.3245363]]]}},{"type":"Feature","properties":{"layer":"Athletic Facilities","symbol":2,"_tile":"6/35/41"},"geometry":{"type":"Polygon","coordinates":[[[-76.6196419,39.3245363],[-76.6196405,39.3247834],[-76.6194817,39.3248992],[-76.6192989,39.3250385],[-76.6189911,39.3250375],[-76.6189938,39.3245342],[-76.6196419,39.3245363]]]}},{"type":"Feature","properties":{"layer":"Athletic Facilities","symbol":2,"_tile":"6/35/42"},"geometry":{"type":"Polygon","coordinates":[[[-76.6196445,39.3240482],[-76.6196418,39.3245515],[-76.6189937,39.3245494],[-76.6189964,39.3240461],[-76.6196445,39.3240482]]]}},{"type":"Feature","properties":{"layer":"Athletic Facilities","symbol":2,"_tile":"6/35/43"},"geometry":{"type":"Polygon","coordinates":[[[-76.6196471,39.3235601],[-76.6196444,39.3240635],[-76.6189963,39.3240614],[-76.6189991,39.323558],[-76.6196471,39.3235601]]]}},{"type":"Feature","properties":{"layer":"Athletic Facilities","symbol":2,"_tile":"6/36/39"},"geometry":{"type":"Polygon","coordinates":[[[-76.61863,39.3255092],[-76.6186031,39.3255298],[-76.6185635,39.32556],[-76.6185519,39.3255686],[-76.6185346,39.3255544],[-76.618533,39.325553],[-76.618528,39.3255568],[-76.6184718,39.3255989],[-76.618486,39.3256101],[-76.6184851,39.3256124],[-76.618484,39.3256156],[-76.6184799,39.3256257],[-76.6184619,39.3256396],[-76.6184545,39.3256452],[-76.6184459,39.3256519],[-76.6183944,39.3256911],[-76.6183891,39.3256954],[-76.618359,39.3257183],[-76.6183601,39.3255083],[-76.61863,39.3255092]]]}},{"type":"Feature","properties":{"layer":"Athletic Facilities","symbol":2,"_tile":"6/36/39"},"geometry":{"type":"Polygon","coordinates":[[[-76.6186809,39.3255094],[-76.6183588,39.3257547],[-76.6183601,39.3255083],[-76.6186809,39.3255094]]]}},{"type":"Feature","properties":{"layer":"Athletic Facilities","symbol":2,"_tile":"6/36/40"},"geometry":{"type":"Polygon","coordinates":[[[-76.6183628,39.3250202],[-76.6190108,39.3250223],[-76.6190098,39.3252198],[-76.6188693,39.3253272],[-76.6187745,39.3253992],[-76.6186728,39.3254766],[-76.618632,39.3255076],[-76.6186101,39.3255244],[-76.6183601,39.3255236],[-76.6183628,39.3250202]]]}},{"type":"Feature","properties":{"layer":"Athletic Facilities","symbol":2,"_tile":"6/36/40"},"geometry":{"type":"Polygon","coordinates":[[[-76.6190095,39.325259],[-76.6186609,39.3255245],[-76.6183601,39.3255236],[-76.6183628,39.3250202],[-76.6190108,39.3250223],[-76.6190095,39.325259]]]}},{"type":"Feature","properties":{"layer":"Athletic Facilities","symbol":2,"_tile":"6/36/41"},"geometry":{"type":"Polygon","coordinates":[[[-76.6183654,39.3245322],[-76.6190134,39.3245343],[-76.6190107,39.3250376],[-76.6183627,39.3250355],[-76.6183654,39.3245322]]]}},{"type":"Feature","properties":{"layer":"Athletic Facilities","symbol":2,"_tile":"6/36/41"},"geometry":{"type":"Polygon","coordinates":[[[-76.6183627,39.3250355],[-76.6183654,39.3245322],[-76.6190134,39.3245343],[-76.6190107,39.3250376],[-76.6183627,39.3250355]]]}},{"type":"Feature","properties":{"layer":"Athletic Facilities","symbol":2,"_tile":"6/36/42"},"geometry":{"type":"Polygon","coordinates":[[[-76.618368,39.3240441],[-76.6190161,39.3240462],[-76.6190134,39.3245495],[-76.6183653,39.3245474],[-76.618368,39.3240441]]]}},{"type":"Feature","properties":{"layer":"Athletic Facilities","symbol":2,"_tile":"6/36/42"},"geometry":{"type":"Polygon","coordinates":[[[-76.6183653,39.3245474],[-76.618368,39.3240441],[-76.6190161,39.3240462],[-76.6190134,39.3245495],[-76.6183653,39.3245474]]]}},{"type":"Feature","properties":{"layer":"Athletic Facilities","symbol":2,"_tile":"6/36/43"},"geometry":{"type":"Polygon","coordinates":[[[-76.6183706,39.323556],[-76.6190187,39.3235581],[-76.619016,39.3240614],[-76.6183679,39.3240593],[-76.6183706,39.323556]]]}},{"type":"Feature","properties":{"layer":"Athletic Facilities","symbol":2,"_tile":"6/36/43"},"geometry":{"type":"Polygon","coordinates":[[[-76.6183679,39.3240593],[-76.6183706,39.323556],[-76.6190187,39.3235581],[-76.619016,39.3240614],[-76.6183679,39.3240593]]]}},{"type":"Feature","properties":{"layer":"Athletic Facilities","symbol":2,"_tile":"6/37/38"},"geometry":{"type":"Polygon","coordinates":[[[-76.6179953,39.3259952],[-76.6179867,39.3260016],[-76.6179848,39.3260028],[-76.6179834,39.326004],[-76.6179748,39.3260104],[-76.6179711,39.326013],[-76.6179702,39.3260138],[-76.6179692,39.3260144],[-76.6179608,39.3260208],[-76.6179605,39.326021],[-76.6179341,39.3260407],[-76.617931,39.3260428],[-76.6179278,39.3260453],[-76.6179213,39.3260499],[-76.6179153,39.3260544],[-76.6179078,39.3260589],[-76.6179073,39.3260593],[-76.6178978,39.3260632],[-76.6178903,39.3260654],[-76.617889,39.3260659],[-76.6178863,39.3260667],[-76.6178778,39.3260682],[-76.6178726,39.3260693],[-76.6178574,39.3260706],[-76.6178479,39.32607],[-76.6178362,39.3260683],[-76.6178358,39.3260683],[-76.6178286,39.3260664],[-76.6178252,39.3260653],[-76.6178231,39.3260645],[-76.6178211,39.3260639],[-76.6178114,39.3260598],[-76.6178029,39.3260557],[-76.6177948,39.3260506],[-76.6177926,39.3260489],[-76.6177923,39.3260488],[-76.6177864,39.3260441],[-76.6177861,39.326044],[-76.6177853,39.326043],[-76.6177807,39.3260384],[-76.617779,39.326036],[-76.6177787,39.3260357],[-76.6177742,39.3260295],[-76.6177711,39.3260256],[-76.6177704,39.3260245],[-76.617769,39.3260184],[-76.6177689,39.3260183],[-76.6177686,39.3260164],[-76.6177659,39.3260045],[-76.6177653,39.3259977],[-76.617765,39.3259945],[-76.6179953,39.3259952]]]}},{"type":"Feature","properties":{"layer":"Athletic Facilities","symbol":2,"_tile":"6/37/38"},"geometry":{"type":"Polygon","coordinates":[[[-76.618043,39.3259954],[-76.6179806,39.326043],[-76.6179218,39.3260782],[-76.6178934,39.3260884],[-76.6178468,39.3260949],[-76.6177806,39.3260943],[-76.6177737,39.3260946],[-76.617747,39.3260809],[-76.6177288,39.3260574],[-76.6177291,39.3259943],[-76.618043,39.3259954]]]}},{"type":"Feature","properties":{"layer":"Athletic Facilities","symbol":2,"_tile":"6/37/39"},"geometry":{"type":"Polygon","coordinates":[[[-76.6183798,39.3255084],[-76.6183787,39.3257032],[-76.6183505,39.3257248],[-76.6183502,39.3257249],[-76.6183498,39.3257254],[-76.6183476,39.3257269],[-76.6183316,39.3257393],[-76.6183294,39.3257408],[-76.618328,39.325742],[-76.6183102,39.3257556],[-76.6183079,39.3257573],[-76.6183022,39.3257617],[-76.6183014,39.3257624],[-76.6182811,39.325778],[-76.6182664,39.325789],[-76.6182655,39.3257898],[-76.6182635,39.3257912],[-76.6182499,39.3258017],[-76.6182481,39.325803],[-76.6182361,39.3258121],[-76.6182162,39.3258274],[-76.6182156,39.3258278],[-76.6182073,39.3258343],[-76.6181999,39.3258399],[-76.6181957,39.325843],[-76.6181862,39.3258505],[-76.6181774,39.325857],[-76.618174,39.3258597],[-76.6181691,39.3258634],[-76.6181677,39.3258646],[-76.6181671,39.3258649],[-76.6181473,39.32588],[-76.6181447,39.3258819],[-76.6181444,39.3258823],[-76.6181131,39.3259061],[-76.6180923,39.325922],[-76.6180919,39.3259224],[-76.6180891,39.3259245],[-76.6180886,39.3259247],[-76.6180871,39.325926],[-76.6180869,39.325926],[-76.6180589,39.3259475],[-76.618041,39.3259612],[-76.6180335,39.3259667],[-76.6180233,39.3259743],[-76.618023,39.3259745],[-76.6180144,39.325981],[-76.6180138,39.3259813],[-76.6179867,39.3260016],[-76.6179848,39.3260028],[-76.6179834,39.326004],[-76.6179748,39.3260104],[-76.6177671,39.3260097],[-76.6177659,39.3260045],[-76.6177653,39.3259977],[-76.6177638,39.3259821],[-76.6177638,39.3259812],[-76.6177637,39.3259804],[-76.6177634,39.3259769],[-76.617747,39.3259676],[-76.617747,39.3259658],[-76.6177459,39.3259508],[-76.6177449,39.3259342],[-76.6177402,39.3258655],[-76.617735,39.3258585],[-76.6177346,39.3258509],[-76.6177343,39.3258482],[-76.6177336,39.3258362],[-76.6177333,39.325833],[-76.6177316,39.3258045],[-76.6177315,39.3258038],[-76.6177302,39.3257837],[-76.6177317,39.3255063],[-76.6183798,39.3255084]]]}},{"type":"Feature","properties":{"layer":"Athletic Facilities","symbol":2,"_tile":"6/37/39"},"geometry":{"type":"Polygon","coordinates":[[[-76.6183785,39.3257398],[-76.6180231,39.3260106],[-76.617729,39.3260096],[-76.6177317,39.3255063],[-76.6183798,39.3255084],[-76.6183785,39.3257398]]]}},{"type":"Feature","properties":{"layer":"Athletic Facilities","symbol":2,"_tile":"6/37/40"},"geometry":{"type":"Polygon","coordinates":[[[-76.6177344,39.3250182],[-76.6183824,39.3250203],[-76.6183797,39.3255236],[-76.6177316,39.3255215],[-76.6177344,39.3250182]]]}},{"type":"Feature","properties":{"layer":"Athletic Facilities","symbol":2,"_tile":"6/37/40"},"geometry":{"type":"Polygon","coordinates":[[[-76.6177316,39.3255215],[-76.6177344,39.3250182],[-76.6183824,39.3250203],[-76.6183797,39.3255236],[-76.6177316,39.3255215]]]}},{"type":"Feature","properties":{"layer":"Athletic Facilities","symbol":2,"_tile":"6/37/41"},"geometry":{"type":"Polygon","coordinates":[[[-76.617737,39.3245301],[-76.618385,39.3245322],[-76.6183823,39.3250355],[-76.6177343,39.3250334],[-76.617737,39.3245301]]]}},{"type":"Feature","properties":{"layer":"Athletic Facilities","symbol":2,"_tile":"6/37/41"},"geometry":{"type":"Polygon","coordinates":[[[-76.6177343,39.3250334],[-76.617737,39.3245301],[-76.618385,39.3245322],[-76.6183823,39.3250355],[-76.6177343,39.3250334]]]}},{"type":"Feature","properties":{"layer":"Athletic Facilities","symbol":2,"_tile":"6/37/42"},"geometry":{"type":"Polygon","coordinates":[[[-76.6177396,39.324042],[-76.6183877,39.3240441],[-76.618385,39.3245475],[-76.6177369,39.3245454],[-76.6177396,39.324042]]]}},{"type":"Feature","properties":{"layer":"Athletic Facilities","symbol":2,"_tile":"6/37/42"},"geometry":{"type":"Polygon","coordinates":[[[-76.6177369,39.3245454],[-76.6177396,39.324042],[-76.6183877,39.3240441],[-76.618385,39.3245475],[-76.6177369,39.3245454]]]}},{"type":"Feature","properties":{"layer":"Athletic Facilities","symbol":2,"_tile":"6/37/43"},"geometry":{"type":"Polygon","coordinates":[[[-76.6177422,39.323554],[-76.6183903,39.3235561],[-76.6183876,39.3240594],[-76.6177395,39.3240573],[-76.6177422,39.323554]]]}},{"type":"Feature","properties":{"layer":"Athletic Facilities","symbol":2,"_tile":"6/37/43"},"geometry":{"type":"Polygon","coordinates":[[[-76.6177395,39.3240573],[-76.6177422,39.323554],[-76.6183903,39.3235561],[-76.6183876,39.3240594],[-76.6177395,39.3240573]]]}},{"type":"Feature","properties":{"layer":"Athletic Facilities","symbol":3,"_tile":"6/37/43"},"geometry":{"type":"Polygon","coordinates":[[[-76.6182621,39.3238242],[-76.6182616,39.3238309],[-76.618258,39.3238498],[-76.6182551,39.323865],[-76.6182506,39.3238788],[-76.6182432,39.3238808],[-76.6182386,39.3238839],[-76.6182348,39.3238877],[-76.6182321,39.3238924],[-76.6182309,39.3238962],[-76.6182309,39.3239014],[-76.6182337,39.3239091],[-76.6182211,39.3239212],[-76.6182129,39.3239275],[-76.6182014,39.3239332],[-76.6181874,39.3239379],[-76.6181817,39.3239391],[-76.6181737,39.3239399],[-76.6181727,39.3239399],[-76.6181562,39.3239401],[-76.6181492,39.3239393],[-76.6181444,39.3239384],[-76.6181431,39.323938],[-76.61814,39.3239375],[-76.6181285,39.3239344],[-76.618121,39.323932],[-76.6181129,39.3239284],[-76.6181068,39.323925],[-76.6181033,39.3239224],[-76.6180997,39.3239192],[-76.6180932,39.3239137],[-76.6180935,39.3239133],[-76.6180938,39.3239126],[-76.6180949,39.3239108],[-76.6180975,39.3239058],[-76.6181009,39.3238978],[-76.6181044,39.3238903],[-76.6181061,39.3238862],[-76.6181067,39.323884],[-76.6181073,39.3238826],[-76.6181073,39.3238821],[-76.6181075,39.323882],[-76.6181101,39.3238741],[-76.6181103,39.3238732],[-76.6181106,39.3238724],[-76.6181106,39.3238718],[-76.6181122,39.3238641],[-76.6181122,39.3238632],[-76.6181135,39.3238525],[-76.618114,39.3238403],[-76.6181137,39.3238365],[-76.6181136,39.3238317],[-76.6181134,39.3238305],[-76.6181131,39.3238292],[-76.6181119,39.3238214],[-76.6181101,39.3238113],[-76.61811,39.3238098],[-76.618109,39.3238036],[-76.6181089,39.3237883],[-76.6181186,39.3237817],[-76.6181197,39.3237803],[-76.6181226,39.3237768],[-76.6181232,39.3237759],[-76.6181297,39.323768],[-76.6181363,39.3237623],[-76.6181382,39.323761],[-76.618146,39.3237561],[-76.6181494,39.3237544],[-76.6181511,39.3237537],[-76.6181586,39.3237513],[-76.6181728,39.3237488],[-76.6181806,39.3237478],[-76.6181935,39.3237485],[-76.6182074,39.3237509],[-76.6182139,39.3237528],[-76.6182209,39.3237558],[-76.6182341,39.3237631],[-76.6182396,39.3237678],[-76.6182447,39.3237739],[-76.6182508,39.3237824],[-76.6182551,39.32379],[-76.6182589,39.3238006],[-76.6182619,39.3238147],[-76.6182623,39.3238222],[-76.6182621,39.3238242]]]}}]}