{"type":"FeatureCollection","features":[{"type":"Feature","properties":{"layer":"Breezeway & Skywalk","_tile":"6/31/39"},"geometry":{"type":"Polygon","coordinates":[[[-76.6218251,39.3259733],[-76.6218039,39.3259742],[-76.6217058,39.3259781],[-76.6217031,39.3259382],[-76.6217628,39.3259358],[-76.6217974,39.3259343],[-76.6218426,39.3259325],[-76.6218422,39.3259264],[-76.6219518,39.3259219],[-76.6219549,39.3259673],[-76.6219562,39.325986],[-76.6218477,39.3259905],[-76.6218464,39.3259724],[-76.6218251,39.3259733]]]}},{"type":"Feature","properties":{"layer":"Breezeway & Skywalk","_tile":"6/32/32"},"geometry":{"type":"Polygon","coordinates":[[[-76.621382,39.3293908],[-76.6213662,39.3293914],[-76.6213513,39.3293921],[-76.621339,39.3293925],[-76.6213387,39.3293892],[-76.6213355,39.3293894],[-76.6213354,39.3293864],[-76.6213352,39.3293864],[-76.6212371,39.3293904],[-76.6212272,39.3293907],[-76.6212072,39.3293916],[-76.6211774,39.3293927],[-76.621175,39.3293565],[-76.6213329,39.3293502],[-76.6213325,39.3293437],[-76.621342,39.3293433],[-76.6213376,39.3292756],[-76.6213852,39.3292737],[-76.6213858,39.3292812],[-76.6213862,39.3292893],[-76.6213875,39.3293073],[-76.6213896,39.3293407],[-76.6213928,39.3293406],[-76.621393,39.3293426],[-76.6213954,39.3293425],[-76.6213984,39.3293876],[-76.6213967,39.3293876],[-76.6213969,39.3293902],[-76.621382,39.3293908]]]}},{"type":"Feature","properties":{"layer":"Breezeway & Skywalk","_tile":"6/32/33"},"geometry":{"type":"Polygon","coordinates":[[[-76.6212942,39.3285881],[-76.621332,39.3285867],[-76.6213465,39.328586],[-76.6213497,39.3286322],[-76.6213475,39.3286323],[-76.6213477,39.3286353],[-76.6213412,39.3286356],[-76.6213458,39.3287033],[-76.6213026,39.3287051],[-76.621298,39.3286343],[-76.6212901,39.3286345],[-76.6212897,39.3286346],[-76.6212895,39.3286324],[-76.6212869,39.3286326],[-76.6212868,39.3286299],[-76.6212857,39.32863],[-76.6212114,39.328633],[-76.6211295,39.3286362],[-76.6211271,39.3285997],[-76.6212836,39.3285936],[-76.6212833,39.3285886],[-76.6212881,39.3285885],[-76.6212942,39.3285881]]]}},{"type":"Feature","properties":{"layer":"Breezeway & Skywalk","_tile":"6/32/37"},"geometry":{"type":"Polygon","coordinates":[[[-76.6208988,39.3264927],[-76.620901,39.3265212],[-76.6209028,39.326546],[-76.6208683,39.3265473],[-76.6208686,39.3264926],[-76.6208988,39.3264927]]]}},{"type":"Feature","properties":{"layer":"Breezeway & Skywalk","_tile":"6/32/38"},"geometry":{"type":"Polygon","coordinates":[[[-76.6210389,39.3260051],[-76.621001,39.3260066],[-76.6210008,39.3260049],[-76.6210389,39.3260051]],[[-76.6211926,39.3260056],[-76.6211935,39.326018],[-76.6210864,39.3260224],[-76.6210852,39.3260052],[-76.6211926,39.3260056]]]}},{"type":"Feature","properties":{"layer":"Breezeway & Skywalk","_tile":"6/32/38"},"geometry":{"type":"Polygon","coordinates":[[[-76.6208689,39.326442],[-76.620895,39.3264409],[-76.6208958,39.326454],[-76.6208968,39.3264658],[-76.620898,39.3264826],[-76.6208982,39.3264848],[-76.6209,39.326508],[-76.6208685,39.3265079],[-76.6208689,39.326442]]]}},{"type":"Feature","properties":{"layer":"Breezeway & Skywalk","_tile":"6/32/39"},"geometry":{"type":"Polygon","coordinates":[[[-76.6210851,39.3260032],[-76.621001,39.3260066],[-76.6209983,39.3259676],[-76.6210819,39.3259642],[-76.621082,39.3259578],[-76.6211897,39.3259534],[-76.6211903,39.3259604],[-76.6213301,39.3259545],[-76.6213328,39.3259943],[-76.6211924,39.3260001],[-76.6211935,39.326018],[-76.6211292,39.3260206],[-76.6210862,39.3260205],[-76.6210851,39.3260032]]]}},{"type":"Feature","properties":{"layer":"Breezeway & Skywalk","_tile":"6/33/32"},"geometry":{"type":"Polygon","coordinates":[[[-76.6203869,39.3294348],[-76.6203838,39.329388],[-76.6205385,39.3293818],[-76.6205417,39.3294314],[-76.6205106,39.3294327],[-76.6204914,39.3294334],[-76.6204662,39.3294345],[-76.6204524,39.329435],[-76.6203869,39.3294348]]]}},{"type":"Feature","properties":{"layer":"Breezeway & Skywalk","_tile":"6/33/33"},"geometry":{"type":"Polygon","coordinates":[[[-76.6203299,39.3286183],[-76.6204875,39.328612],[-76.6204908,39.3286612],[-76.620333,39.3286676],[-76.6203319,39.3286485],[-76.6203299,39.3286183]]]}},{"type":"Feature","properties":{"layer":"Breezeway & Skywalk","_tile":"6/33/37"},"geometry":{"type":"Polygon","coordinates":[[[-76.6208882,39.3264927],[-76.6208879,39.3265465],[-76.6208391,39.3265485],[-76.620838,39.3265324],[-76.6208379,39.3265302],[-76.6208362,39.3265047],[-76.6208353,39.3264925],[-76.6208882,39.3264927]]]}},{"type":"Feature","properties":{"layer":"Breezeway & Skywalk","_tile":"6/33/38"},"geometry":{"type":"Polygon","coordinates":[[[-76.6208322,39.3264435],[-76.6208885,39.3264411],[-76.6208882,39.3265079],[-76.6208363,39.3265078],[-76.6208362,39.3265047],[-76.6208349,39.3264858],[-76.620834,39.3264726],[-76.6208322,39.3264435]]]}}]}