{"type":"FeatureCollection","features":[{"type":"Feature","properties":{"layer":"Bridge","_tile":"6/28/33"},"geometry":{"type":"Polygon","coordinates":[[[-76.6233714,39.3285568],[-76.6233763,39.3285628],[-76.6233882,39.328576],[-76.6234042,39.328592],[-76.6234216,39.3286083],[-76.6234369,39.3286212],[-76.6234448,39.3286272],[-76.6234554,39.3286345],[-76.623502,39.3286654],[-76.6235161,39.3286755],[-76.623529,39.3286854],[-76.6235425,39.328696],[-76.6235527,39.3287045],[-76.6235591,39.3287103],[-76.6235669,39.3287179],[-76.6235822,39.3287341],[-76.6235903,39.3287434],[-76.6235997,39.328754],[-76.6236038,39.3287593],[-76.6236153,39.3287733],[-76.6236241,39.3287856],[-76.6236348,39.3288017],[-76.6236469,39.3288213],[-76.6236475,39.3288225],[-76.6236586,39.3288412],[-76.6236831,39.3288861],[-76.6236858,39.3288911],[-76.6237001,39.3289144],[-76.6236732,39.3289243],[-76.6236586,39.3289007],[-76.623657,39.3288974],[-76.6236545,39.3288931],[-76.6236472,39.3288795],[-76.623643,39.328872],[-76.6236392,39.3288648],[-76.6236352,39.3288578],[-76.6236314,39.3288505],[-76.6236182,39.3288283],[-76.623608,39.328812],[-76.6236036,39.3288052],[-76.6235978,39.3287966],[-76.6235934,39.3287902],[-76.6235896,39.3287851],[-76.6235821,39.3287758],[-76.6235748,39.3287669],[-76.6235748,39.3287667],[-76.6235579,39.3287475],[-76.6235435,39.3287323],[-76.6235362,39.3287251],[-76.6235304,39.32872],[-76.6235209,39.3287121],[-76.6235087,39.3287024],[-76.6234954,39.3286922],[-76.6234841,39.3286839],[-76.6234824,39.328683],[-76.6234358,39.328652],[-76.6234245,39.3286442],[-76.6234155,39.3286374],[-76.6234003,39.3286244],[-76.6233809,39.3286065],[-76.6233712,39.3285967],[-76.6233714,39.3285568]]]}},{"type":"Feature","properties":{"layer":"Bridge","_tile":"6/29/33"},"geometry":{"type":"Polygon","coordinates":[[[-76.6233026,39.3284528],[-76.6233263,39.3284907],[-76.6233476,39.3285235],[-76.6233633,39.328546],[-76.62337,39.3285551],[-76.6233763,39.3285628],[-76.6233882,39.328576],[-76.6233909,39.3285788],[-76.6233907,39.3286156],[-76.6233809,39.3286065],[-76.6233643,39.3285898],[-76.6233513,39.3285756],[-76.6233446,39.3285672],[-76.6233373,39.3285574],[-76.6233212,39.3285342],[-76.6233087,39.328515],[-76.6233043,39.3285084],[-76.6233011,39.3285032],[-76.6232977,39.328498],[-76.6232895,39.3284848],[-76.6232877,39.328482],[-76.6232822,39.3284731],[-76.6232694,39.3284527],[-76.6233026,39.3284528]]]}},{"type":"Feature","properties":{"layer":"Bridge","_tile":"6/29/34"},"geometry":{"type":"Polygon","coordinates":[[[-76.62323,39.3280833],[-76.6232585,39.3280901],[-76.6232513,39.3281076],[-76.623247,39.3281188],[-76.6232454,39.3281224],[-76.6232392,39.3281404],[-76.6232336,39.3281586],[-76.6232326,39.3281612],[-76.6232314,39.3281663],[-76.6232286,39.3281762],[-76.6232243,39.328195],[-76.6232229,39.3282061],[-76.6232217,39.3282205],[-76.623221,39.3282368],[-76.6232212,39.3282391],[-76.6232211,39.3282509],[-76.6232218,39.3282603],[-76.6232226,39.328267],[-76.623226,39.3282869],[-76.623226,39.3282874],[-76.623229,39.3283],[-76.6232311,39.3283097],[-76.6232365,39.3283285],[-76.6232413,39.3283415],[-76.6232488,39.3283579],[-76.6232583,39.3283773],[-76.6232693,39.328398],[-76.6232816,39.328419],[-76.6233122,39.3284681],[-76.623279,39.328468],[-76.6232571,39.328433],[-76.6232547,39.3284289],[-76.6232418,39.3284071],[-76.6232307,39.3283859],[-76.6232251,39.3283747],[-76.6232208,39.3283659],[-76.6232131,39.3283486],[-76.6232072,39.328333],[-76.6232018,39.3283141],[-76.6231965,39.3282909],[-76.6231929,39.3282695],[-76.6231919,39.32826],[-76.6231913,39.3282515],[-76.6231913,39.3282366],[-76.623192,39.3282197],[-76.6231925,39.3282117],[-76.6231931,39.3282042],[-76.6231947,39.3281918],[-76.623198,39.3281771],[-76.6232032,39.3281577],[-76.6232063,39.3281475],[-76.6232073,39.3281441],[-76.6232102,39.3281346],[-76.6232158,39.3281187],[-76.62323,39.3280833]]]}},{"type":"Feature","properties":{"layer":"Bridge","_tile":"6/37/37"},"geometry":{"type":"Polygon","coordinates":[[[-76.6180077,39.3264833],[-76.6180078,39.326485],[-76.6180078,39.3264878],[-76.6180081,39.3264914],[-76.6180082,39.3264953],[-76.6179941,39.3264958],[-76.6179934,39.3264833],[-76.6180077,39.3264833]]]}},{"type":"Feature","properties":{"layer":"Bridge","_tile":"6/37/38"},"geometry":{"type":"Polygon","coordinates":[[[-76.6180063,39.3264513],[-76.6180067,39.3264625],[-76.6180069,39.3264632],[-76.6180075,39.3264807],[-76.6180078,39.326485],[-76.6180078,39.3264878],[-76.6180081,39.3264914],[-76.6180082,39.3264953],[-76.6179941,39.3264958],[-76.6179934,39.3264822],[-76.6179933,39.326481],[-76.6179933,39.3264792],[-76.6179929,39.3264722],[-76.6179926,39.3264692],[-76.6179926,39.3264676],[-76.6179924,39.3264666],[-76.6179924,39.3264649],[-76.617992,39.3264571],[-76.6179919,39.3264565],[-76.6179916,39.3264515],[-76.617993,39.3264514],[-76.6180063,39.3264513]]]}}]}