{"type":"FeatureCollection","features":[{"type":"Feature","properties":{"layer":"Campus Area","_tile":"6/26/32"},"geometry":{"type":"Polygon","coordinates":[[[-76.6246262,39.3289451],[-76.6252277,39.328947],[-76.6252286,39.3289492],[-76.6252307,39.3289547],[-76.6252737,39.3290586],[-76.6252717,39.3294505],[-76.6246236,39.3294484],[-76.6246262,39.3289451]]]}},{"type":"Feature","properties":{"layer":"Campus Area","_tile":"6/26/33"},"geometry":{"type":"Polygon","coordinates":[[[-76.6246288,39.328457],[-76.6249691,39.3284581],[-76.6250027,39.3284927],[-76.6250689,39.3285627],[-76.6252286,39.3289492],[-76.6252307,39.3289547],[-76.6252339,39.3289623],[-76.6246262,39.3289604],[-76.6246288,39.328457]]]}},{"type":"Feature","properties":{"layer":"Campus Area","_tile":"6/26/34"},"geometry":{"type":"Polygon","coordinates":[[[-76.6246314,39.3279689],[-76.6249605,39.32797],[-76.624938,39.3284261],[-76.6249839,39.3284734],[-76.6246287,39.3284723],[-76.6246314,39.3279689]]]}},{"type":"Feature","properties":{"layer":"Campus Area","_tile":"6/26/35"},"geometry":{"type":"Polygon","coordinates":[[[-76.624634,39.3274809],[-76.6249846,39.327482],[-76.6249598,39.3279852],[-76.6246313,39.3279842],[-76.624634,39.3274809]]]}},{"type":"Feature","properties":{"layer":"Campus Area","_tile":"6/26/36"},"geometry":{"type":"Polygon","coordinates":[[[-76.6246366,39.3269928],[-76.6250117,39.326994],[-76.6250024,39.3271232],[-76.624984,39.3274972],[-76.6246339,39.3274961],[-76.6246366,39.3269928]]]}},{"type":"Feature","properties":{"layer":"Campus Area","_tile":"6/26/37"},"geometry":{"type":"Polygon","coordinates":[[[-76.6246392,39.3265047],[-76.6250471,39.326506],[-76.6250448,39.3265359],[-76.6250107,39.3270092],[-76.6246365,39.327008],[-76.6246392,39.3265047]]]}},{"type":"Feature","properties":{"layer":"Campus Area","_tile":"6/26/38"},"geometry":{"type":"Polygon","coordinates":[[[-76.6246417,39.3260166],[-76.6250664,39.326018],[-76.6252831,39.3262955],[-76.6250499,39.3264712],[-76.625046,39.3265213],[-76.6246391,39.32652],[-76.6246417,39.3260166]]]}},{"type":"Feature","properties":{"layer":"Campus Area","_tile":"6/26/39"},"geometry":{"type":"Polygon","coordinates":[[[-76.6246443,39.3255285],[-76.6246733,39.3255286],[-76.6248426,39.3257437],[-76.6250021,39.3259357],[-76.6250783,39.3260333],[-76.6246417,39.3260319],[-76.6246443,39.3255285]]]}},{"type":"Feature","properties":{"layer":"Campus Area","_tile":"6/26/40"},"geometry":{"type":"Polygon","coordinates":[[[-76.6246445,39.3254922],[-76.6246852,39.3255439],[-76.6246442,39.3255438],[-76.6246445,39.3254922]]]}},{"type":"Feature","properties":{"layer":"Campus Area","_tile":"6/27/32"},"geometry":{"type":"Polygon","coordinates":[[[-76.6239978,39.3289431],[-76.6246459,39.3289452],[-76.6246432,39.3294485],[-76.6239951,39.3294464],[-76.6239978,39.3289431]]]}},{"type":"Feature","properties":{"layer":"Campus Area","_tile":"6/27/33"},"geometry":{"type":"Polygon","coordinates":[[[-76.6240004,39.328455],[-76.6246485,39.3284571],[-76.6246458,39.3289604],[-76.6239977,39.3289583],[-76.6240004,39.328455]]]}},{"type":"Feature","properties":{"layer":"Campus Area","_tile":"6/27/34"},"geometry":{"type":"Polygon","coordinates":[[[-76.624003,39.3279669],[-76.624651,39.327969],[-76.6246484,39.3284723],[-76.6240003,39.3284703],[-76.624003,39.3279669]]]}},{"type":"Feature","properties":{"layer":"Campus Area","_tile":"6/27/35"},"geometry":{"type":"Polygon","coordinates":[[[-76.6240056,39.3274789],[-76.6246536,39.3274809],[-76.624651,39.3279843],[-76.6240029,39.3279822],[-76.6240056,39.3274789]]]}},{"type":"Feature","properties":{"layer":"Campus Area","_tile":"6/27/36"},"geometry":{"type":"Polygon","coordinates":[[[-76.6240081,39.3269908],[-76.6246562,39.3269928],[-76.6246536,39.3274962],[-76.6240055,39.3274941],[-76.6240081,39.3269908]]]}},{"type":"Feature","properties":{"layer":"Campus Area","_tile":"6/27/37"},"geometry":{"type":"Polygon","coordinates":[[[-76.6240107,39.3265027],[-76.6246588,39.3265048],[-76.6246561,39.3270081],[-76.6240081,39.327006],[-76.6240107,39.3265027]]]}},{"type":"Feature","properties":{"layer":"Campus Area","_tile":"6/27/38"},"geometry":{"type":"Polygon","coordinates":[[[-76.6240133,39.3260146],[-76.6246614,39.3260167],[-76.6246587,39.32652],[-76.6240107,39.326518],[-76.6240133,39.3260146]]]}},{"type":"Feature","properties":{"layer":"Campus Area","_tile":"6/27/39"},"geometry":{"type":"Polygon","coordinates":[[[-76.6240159,39.3255265],[-76.624664,39.3255286],[-76.6246613,39.3260319],[-76.6240132,39.3260299],[-76.6240159,39.3255265]]]}},{"type":"Feature","properties":{"layer":"Campus Area","_tile":"6/27/40"},"geometry":{"type":"Polygon","coordinates":[[[-76.6240185,39.3250385],[-76.6242879,39.3250393],[-76.624664,39.3255169],[-76.6246639,39.3255439],[-76.6240158,39.3255418],[-76.6240185,39.3250385]]]}},{"type":"Feature","properties":{"layer":"Campus Area","_tile":"6/27/41"},"geometry":{"type":"Polygon","coordinates":[[[-76.6240203,39.3246996],[-76.6242999,39.3250546],[-76.6240184,39.3250537],[-76.6240203,39.3246996]]]}},{"type":"Feature","properties":{"layer":"Campus Area","_tile":"6/28/32"},"geometry":{"type":"Polygon","coordinates":[[[-76.6233667,39.3294444],[-76.6233693,39.3289411],[-76.6240174,39.3289432],[-76.6240148,39.3294465],[-76.6233667,39.3294444]]]}},{"type":"Feature","properties":{"layer":"Campus Area","_tile":"6/28/33"},"geometry":{"type":"Polygon","coordinates":[[[-76.6233693,39.3289563],[-76.6233719,39.328453],[-76.62402,39.3284551],[-76.6240174,39.3289584],[-76.6233693,39.3289563]]]}},{"type":"Feature","properties":{"layer":"Campus Area","_tile":"6/28/34"},"geometry":{"type":"Polygon","coordinates":[[[-76.6233719,39.3284683],[-76.6233745,39.3279649],[-76.6240226,39.327967],[-76.6240199,39.3284703],[-76.6233719,39.3284683]]]}},{"type":"Feature","properties":{"layer":"Campus Area","_tile":"6/28/35"},"geometry":{"type":"Polygon","coordinates":[[[-76.6233744,39.3279802],[-76.6233771,39.3274768],[-76.6240252,39.3274789],[-76.6240225,39.3279823],[-76.6233744,39.3279802]]]}},{"type":"Feature","properties":{"layer":"Campus Area","_tile":"6/28/36"},"geometry":{"type":"Polygon","coordinates":[[[-76.623377,39.3274921],[-76.6233797,39.3269888],[-76.6240278,39.3269908],[-76.6240251,39.3274942],[-76.623377,39.3274921]]]}},{"type":"Feature","properties":{"layer":"Campus Area","_tile":"6/28/37"},"geometry":{"type":"Polygon","coordinates":[[[-76.6233796,39.327004],[-76.6233823,39.3265007],[-76.6240304,39.3265028],[-76.6240277,39.3270061],[-76.6233796,39.327004]]]}},{"type":"Feature","properties":{"layer":"Campus Area","_tile":"6/28/38"},"geometry":{"type":"Polygon","coordinates":[[[-76.6233822,39.3265159],[-76.6233849,39.3260126],[-76.624033,39.3260147],[-76.6240303,39.326518],[-76.6233822,39.3265159]]]}},{"type":"Feature","properties":{"layer":"Campus Area","_tile":"6/28/39"},"geometry":{"type":"Polygon","coordinates":[[[-76.6233848,39.3260279],[-76.6233875,39.3255245],[-76.6240355,39.3255266],[-76.6240329,39.3260299],[-76.6233848,39.3260279]]]}},{"type":"Feature","properties":{"layer":"Campus Area","_tile":"6/28/40"},"geometry":{"type":"Polygon","coordinates":[[[-76.6233874,39.3255398],[-76.6233901,39.3250364],[-76.6240381,39.3250385],[-76.6240355,39.3255419],[-76.6233874,39.3255398]]]}},{"type":"Feature","properties":{"layer":"Campus Area","_tile":"6/28/41"},"geometry":{"type":"Polygon","coordinates":[[[-76.62339,39.3250517],[-76.6233927,39.3245484],[-76.6239025,39.32455],[-76.6240398,39.3247243],[-76.6240381,39.3250538],[-76.62339,39.3250517]]]}},{"type":"Feature","properties":{"layer":"Campus Area","_tile":"6/28/42"},"geometry":{"type":"Polygon","coordinates":[[[-76.6233926,39.3245636],[-76.6233942,39.3242599],[-76.6235986,39.324164],[-76.6239145,39.3245653],[-76.6233926,39.3245636]]]}},{"type":"Feature","properties":{"layer":"Campus Area","_tile":"6/29/32"},"geometry":{"type":"Polygon","coordinates":[[[-76.6227382,39.3294424],[-76.6227409,39.3289391],[-76.623389,39.3289411],[-76.6233863,39.3294445],[-76.6227382,39.3294424]]]}},{"type":"Feature","properties":{"layer":"Campus Area","_tile":"6/29/33"},"geometry":{"type":"Polygon","coordinates":[[[-76.6227408,39.3289543],[-76.6227435,39.328451],[-76.6233916,39.3284531],[-76.6233889,39.3289564],[-76.6227408,39.3289543]]]}},{"type":"Feature","properties":{"layer":"Campus Area","_tile":"6/29/34"},"geometry":{"type":"Polygon","coordinates":[[[-76.6227434,39.3284662],[-76.6227461,39.3279629],[-76.6233942,39.327965],[-76.6233915,39.3284683],[-76.6227434,39.3284662]]]}},{"type":"Feature","properties":{"layer":"Campus Area","_tile":"6/29/35"},"geometry":{"type":"Polygon","coordinates":[[[-76.622746,39.3279782],[-76.6227487,39.3274748],[-76.6233968,39.3274769],[-76.6233941,39.3279802],[-76.622746,39.3279782]]]}},{"type":"Feature","properties":{"layer":"Campus Area","_tile":"6/29/36"},"geometry":{"type":"Polygon","coordinates":[[[-76.6227486,39.3274901],[-76.6227513,39.3269868],[-76.6233994,39.3269888],[-76.6233967,39.3274922],[-76.6227486,39.3274901]]]}},{"type":"Feature","properties":{"layer":"Campus Area","_tile":"6/29/37"},"geometry":{"type":"Polygon","coordinates":[[[-76.6227512,39.327002],[-76.6227539,39.3264987],[-76.6234019,39.3265007],[-76.6233993,39.3270041],[-76.6227512,39.327002]]]}},{"type":"Feature","properties":{"layer":"Campus Area","_tile":"6/29/38"},"geometry":{"type":"Polygon","coordinates":[[[-76.6227538,39.3265139],[-76.6227565,39.3260106],[-76.6234045,39.3260127],[-76.6234019,39.326516],[-76.6227538,39.3265139]]]}},{"type":"Feature","properties":{"layer":"Campus Area","_tile":"6/29/39"},"geometry":{"type":"Polygon","coordinates":[[[-76.6227564,39.3260258],[-76.6227591,39.3255225],[-76.6234071,39.3255246],[-76.6234045,39.3260279],[-76.6227564,39.3260258]]]}},{"type":"Feature","properties":{"layer":"Campus Area","_tile":"6/29/40"},"geometry":{"type":"Polygon","coordinates":[[[-76.622759,39.3255378],[-76.6227617,39.3250344],[-76.6234097,39.3250365],[-76.623407,39.3255398],[-76.622759,39.3255378]]]}},{"type":"Feature","properties":{"layer":"Campus Area","_tile":"6/29/41"},"geometry":{"type":"Polygon","coordinates":[[[-76.6227616,39.3250497],[-76.6227642,39.3245554],[-76.6227834,39.3245464],[-76.6234123,39.3245484],[-76.6234096,39.3250518],[-76.6227616,39.3250497]]]}},{"type":"Feature","properties":{"layer":"Campus Area","_tile":"6/29/42"},"geometry":{"type":"Polygon","coordinates":[[[-76.6227642,39.3245616],[-76.6227642,39.3245554],[-76.6234139,39.3242507],[-76.6234122,39.3245637],[-76.6227642,39.3245616]]]}},{"type":"Feature","properties":{"layer":"Campus Area","_tile":"6/30/32"},"geometry":{"type":"Polygon","coordinates":[[[-76.6221098,39.3294404],[-76.6221124,39.328937],[-76.6227605,39.3289391],[-76.6227579,39.3294425],[-76.6221098,39.3294404]]]}},{"type":"Feature","properties":{"layer":"Campus Area","_tile":"6/30/33"},"geometry":{"type":"Polygon","coordinates":[[[-76.6221124,39.3289523],[-76.622115,39.328449],[-76.6227631,39.328451],[-76.6227605,39.3289544],[-76.6221124,39.3289523]]]}},{"type":"Feature","properties":{"layer":"Campus Area","_tile":"6/30/34"},"geometry":{"type":"Polygon","coordinates":[[[-76.622115,39.3284642],[-76.6221176,39.3279609],[-76.6227657,39.327963],[-76.622763,39.3284663],[-76.622115,39.3284642]]]}},{"type":"Feature","properties":{"layer":"Campus Area","_tile":"6/30/35"},"geometry":{"type":"Polygon","coordinates":[[[-76.6221176,39.3279761],[-76.6221202,39.3274728],[-76.6227683,39.3274749],[-76.6227656,39.3279782],[-76.6221176,39.3279761]]]}},{"type":"Feature","properties":{"layer":"Campus Area","_tile":"6/30/36"},"geometry":{"type":"Polygon","coordinates":[[[-76.6221202,39.3274881],[-76.6221229,39.3269847],[-76.6227709,39.3269868],[-76.6227682,39.3274901],[-76.6221202,39.3274881]]]}},{"type":"Feature","properties":{"layer":"Campus Area","_tile":"6/30/37"},"geometry":{"type":"Polygon","coordinates":[[[-76.6221228,39.327],[-76.6221255,39.3264967],[-76.6227735,39.3264987],[-76.6227708,39.3270021],[-76.6221228,39.327]]]}},{"type":"Feature","properties":{"layer":"Campus Area","_tile":"6/30/38"},"geometry":{"type":"Polygon","coordinates":[[[-76.6221254,39.3265119],[-76.6221281,39.3260086],[-76.6227761,39.3260107],[-76.6227734,39.326514],[-76.6221254,39.3265119]]]}},{"type":"Feature","properties":{"layer":"Campus Area","_tile":"6/30/39"},"geometry":{"type":"Polygon","coordinates":[[[-76.622128,39.3260238],[-76.6221307,39.3255205],[-76.6227787,39.3255226],[-76.622776,39.3260259],[-76.622128,39.3260238]]]}},{"type":"Feature","properties":{"layer":"Campus Area","_tile":"6/30/40"},"geometry":{"type":"Polygon","coordinates":[[[-76.6221306,39.3255357],[-76.6221333,39.3250324],[-76.6227813,39.3250345],[-76.6227786,39.3255378],[-76.6221306,39.3255357]]]}},{"type":"Feature","properties":{"layer":"Campus Area","_tile":"6/30/41"},"geometry":{"type":"Polygon","coordinates":[[[-76.6221332,39.3250477],[-76.6221342,39.3248509],[-76.6227834,39.3245464],[-76.6227839,39.3245464],[-76.6227812,39.3250497],[-76.6221332,39.3250477]]]}},{"type":"Feature","properties":{"layer":"Campus Area","_tile":"6/30/42"},"geometry":{"type":"Polygon","coordinates":[[[-76.6227511,39.3245616],[-76.6227839,39.3245462],[-76.6227838,39.3245617],[-76.6227511,39.3245616]]]}},{"type":"Feature","properties":{"layer":"Campus Area","_tile":"6/31/32"},"geometry":{"type":"Polygon","coordinates":[[[-76.6214813,39.3294384],[-76.621484,39.328935],[-76.6221321,39.3289371],[-76.6221294,39.3294404],[-76.6214813,39.3294384]]]}},{"type":"Feature","properties":{"layer":"Campus Area","_tile":"6/31/33"},"geometry":{"type":"Polygon","coordinates":[[[-76.6214839,39.3289503],[-76.6214866,39.3284469],[-76.6221347,39.328449],[-76.622132,39.3289524],[-76.6214839,39.3289503]]]}},{"type":"Feature","properties":{"layer":"Campus Area","_tile":"6/31/34"},"geometry":{"type":"Polygon","coordinates":[[[-76.6214865,39.3284622],[-76.6214892,39.3279589],[-76.6221373,39.327961],[-76.6221346,39.3284643],[-76.6214865,39.3284622]]]}},{"type":"Feature","properties":{"layer":"Campus Area","_tile":"6/31/35"},"geometry":{"type":"Polygon","coordinates":[[[-76.6214891,39.3279741],[-76.6214918,39.3274708],[-76.6221399,39.3274729],[-76.6221372,39.3279762],[-76.6214891,39.3279741]]]}},{"type":"Feature","properties":{"layer":"Campus Area","_tile":"6/31/36"},"geometry":{"type":"Polygon","coordinates":[[[-76.6214917,39.327486],[-76.6214944,39.3269827],[-76.6221425,39.3269848],[-76.6221398,39.3274881],[-76.6214917,39.327486]]]}},{"type":"Feature","properties":{"layer":"Campus Area","_tile":"6/31/37"},"geometry":{"type":"Polygon","coordinates":[[[-76.6214943,39.326998],[-76.621497,39.3264946],[-76.6221451,39.3264967],[-76.6221424,39.327],[-76.6214943,39.326998]]]}},{"type":"Feature","properties":{"layer":"Campus Area","_tile":"6/31/38"},"geometry":{"type":"Polygon","coordinates":[[[-76.6214969,39.3265099],[-76.6214996,39.3260066],[-76.6221477,39.3260086],[-76.622145,39.326512],[-76.6214969,39.3265099]]]}},{"type":"Feature","properties":{"layer":"Campus Area","_tile":"6/31/39"},"geometry":{"type":"Polygon","coordinates":[[[-76.6214995,39.3260218],[-76.6215022,39.3255185],[-76.6221503,39.3255206],[-76.6221476,39.3260239],[-76.6214995,39.3260218]]]}},{"type":"Feature","properties":{"layer":"Campus Area","_tile":"6/31/40"},"geometry":{"type":"Polygon","coordinates":[[[-76.6215022,39.3255337],[-76.6215041,39.3251659],[-76.6216317,39.3250867],[-76.62175,39.3250312],[-76.6221529,39.3250325],[-76.6221502,39.3255358],[-76.6215022,39.3255337]]]}},{"type":"Feature","properties":{"layer":"Campus Area","_tile":"6/31/41"},"geometry":{"type":"Polygon","coordinates":[[[-76.6217177,39.3250463],[-76.6221539,39.3248417],[-76.6221528,39.3250477],[-76.6217177,39.3250463]]]}},{"type":"Feature","properties":{"layer":"Campus Area","_tile":"6/32/32"},"geometry":{"type":"Polygon","coordinates":[[[-76.6208529,39.3294363],[-76.6208555,39.328933],[-76.6215036,39.3289351],[-76.6215009,39.3294384],[-76.6208529,39.3294363]]]}},{"type":"Feature","properties":{"layer":"Campus Area","_tile":"6/32/33"},"geometry":{"type":"Polygon","coordinates":[[[-76.6208555,39.3289483],[-76.6208582,39.3284449],[-76.6215062,39.328447],[-76.6215036,39.3289503],[-76.6208555,39.3289483]]]}},{"type":"Feature","properties":{"layer":"Campus Area","_tile":"6/32/34"},"geometry":{"type":"Polygon","coordinates":[[[-76.6208581,39.3284602],[-76.6208608,39.3279568],[-76.6215088,39.3279589],[-76.6215062,39.3284623],[-76.6208581,39.3284602]]]}},{"type":"Feature","properties":{"layer":"Campus Area","_tile":"6/32/35"},"geometry":{"type":"Polygon","coordinates":[[[-76.6208607,39.3279721],[-76.6208634,39.3274688],[-76.6215115,39.3274709],[-76.6215088,39.3279742],[-76.6208607,39.3279721]]]}},{"type":"Feature","properties":{"layer":"Campus Area","_tile":"6/32/36"},"geometry":{"type":"Polygon","coordinates":[[[-76.6208633,39.327484],[-76.620866,39.3269807],[-76.6215141,39.3269828],[-76.6215114,39.3274861],[-76.6208633,39.327484]]]}},{"type":"Feature","properties":{"layer":"Campus Area","_tile":"6/32/37"},"geometry":{"type":"Polygon","coordinates":[[[-76.6208659,39.3269959],[-76.6208686,39.3264926],[-76.6215167,39.3264947],[-76.621514,39.326998],[-76.6208659,39.3269959]]]}},{"type":"Feature","properties":{"layer":"Campus Area","_tile":"6/32/38"},"geometry":{"type":"Polygon","coordinates":[[[-76.6208685,39.3265079],[-76.6208712,39.3260045],[-76.6215193,39.3260066],[-76.6215166,39.3265099],[-76.6208685,39.3265079]]]}},{"type":"Feature","properties":{"layer":"Campus Area","_tile":"6/32/39"},"geometry":{"type":"Polygon","coordinates":[[[-76.6208711,39.3260198],[-76.6208738,39.3255164],[-76.6215219,39.3255185],[-76.6215192,39.3260219],[-76.6208711,39.3260198]]]}},{"type":"Feature","properties":{"layer":"Campus Area","_tile":"6/32/40"},"geometry":{"type":"Polygon","coordinates":[[[-76.6208737,39.3255317],[-76.6208764,39.3250284],[-76.6210661,39.325029],[-76.6211597,39.3250698],[-76.6213391,39.3251451],[-76.6214598,39.3251934],[-76.6215238,39.3251537],[-76.6215218,39.3255338],[-76.6208737,39.3255317]]]}},{"type":"Feature","properties":{"layer":"Campus Area","_tile":"6/32/41"},"geometry":{"type":"Polygon","coordinates":[[[-76.6208763,39.3250436],[-76.6208769,39.3249458],[-76.6208955,39.3249547],[-76.6211013,39.3250443],[-76.6208763,39.3250436]]]}},{"type":"Feature","properties":{"layer":"Campus Area","_tile":"6/33/32"},"geometry":{"type":"Polygon","coordinates":[[[-76.6202244,39.3294343],[-76.6202271,39.328931],[-76.6208752,39.3289331],[-76.6208725,39.3294364],[-76.6202244,39.3294343]]]}},{"type":"Feature","properties":{"layer":"Campus Area","_tile":"6/33/33"},"geometry":{"type":"Polygon","coordinates":[[[-76.620227,39.3289462],[-76.6202297,39.3284429],[-76.6208778,39.328445],[-76.6208751,39.3289483],[-76.620227,39.3289462]]]}},{"type":"Feature","properties":{"layer":"Campus Area","_tile":"6/33/34"},"geometry":{"type":"Polygon","coordinates":[[[-76.6202296,39.3284581],[-76.6202323,39.3279548],[-76.6208804,39.3279569],[-76.6208777,39.3284602],[-76.6202296,39.3284581]]]}},{"type":"Feature","properties":{"layer":"Campus Area","_tile":"6/33/35"},"geometry":{"type":"Polygon","coordinates":[[[-76.6202322,39.3279701],[-76.6202349,39.3274667],[-76.620883,39.3274688],[-76.6208803,39.3279722],[-76.6202322,39.3279701]]]}},{"type":"Feature","properties":{"layer":"Campus Area","_tile":"6/33/36"},"geometry":{"type":"Polygon","coordinates":[[[-76.6202349,39.327482],[-76.6202376,39.3269787],[-76.6208856,39.3269807],[-76.6208829,39.3274841],[-76.6202349,39.327482]]]}},{"type":"Feature","properties":{"layer":"Campus Area","_tile":"6/33/37"},"geometry":{"type":"Polygon","coordinates":[[[-76.6202375,39.3269939],[-76.6202402,39.3264906],[-76.6208882,39.3264927],[-76.6208855,39.326996],[-76.6202375,39.3269939]]]}},{"type":"Feature","properties":{"layer":"Campus Area","_tile":"6/33/38"},"geometry":{"type":"Polygon","coordinates":[[[-76.6202401,39.3265058],[-76.6202428,39.3260025],[-76.6208908,39.3260046],[-76.6208882,39.3265079],[-76.6202401,39.3265058]]]}},{"type":"Feature","properties":{"layer":"Campus Area","_tile":"6/33/39"},"geometry":{"type":"Polygon","coordinates":[[[-76.6202427,39.3260178],[-76.6202433,39.3259059],[-76.6202806,39.3258777],[-76.620336,39.3258357],[-76.6205582,39.3256683],[-76.6205058,39.3255153],[-76.6208935,39.3255165],[-76.6208908,39.3260198],[-76.6202427,39.3260178]]]}},{"type":"Feature","properties":{"layer":"Campus Area","_tile":"6/33/40"},"geometry":{"type":"Polygon","coordinates":[[[-76.6205109,39.3255305],[-76.6203382,39.3250266],[-76.6208961,39.3250284],[-76.6208934,39.3255318],[-76.6205109,39.3255305]]]}},{"type":"Feature","properties":{"layer":"Campus Area","_tile":"6/33/41"},"geometry":{"type":"Polygon","coordinates":[[[-76.6203435,39.3250419],[-76.620336,39.32502],[-76.6202494,39.3247644],[-76.6202499,39.3246722],[-76.6202725,39.3246723],[-76.620336,39.3246765],[-76.6203769,39.3246875],[-76.6204355,39.3247069],[-76.6205251,39.3247608],[-76.6206048,39.3248068],[-76.6207287,39.3248743],[-76.6207404,39.3248805],[-76.6208955,39.3249547],[-76.6208965,39.324955],[-76.620896,39.3250437],[-76.6203435,39.3250419]]]}},{"type":"Feature","properties":{"layer":"Campus Area","_tile":"6/34/32"},"geometry":{"type":"Polygon","coordinates":[[[-76.6195959,39.3294323],[-76.6195986,39.3289289],[-76.6202467,39.328931],[-76.620244,39.3294344],[-76.6195959,39.3294323]]]}},{"type":"Feature","properties":{"layer":"Campus Area","_tile":"6/34/33"},"geometry":{"type":"Polygon","coordinates":[[[-76.6195986,39.3289442],[-76.6196013,39.3284409],[-76.6202494,39.328443],[-76.6202467,39.3289463],[-76.6195986,39.3289442]]]}},{"type":"Feature","properties":{"layer":"Campus Area","_tile":"6/34/34"},"geometry":{"type":"Polygon","coordinates":[[[-76.6196012,39.3284561],[-76.6196039,39.3279528],[-76.620252,39.3279549],[-76.6202493,39.3284582],[-76.6196012,39.3284561]]]}},{"type":"Feature","properties":{"layer":"Campus Area","_tile":"6/34/35"},"geometry":{"type":"Polygon","coordinates":[[[-76.6196038,39.327968],[-76.6196065,39.3274647],[-76.6202546,39.3274668],[-76.6202519,39.3279701],[-76.6196038,39.327968]]]}},{"type":"Feature","properties":{"layer":"Campus Area","_tile":"6/34/36"},"geometry":{"type":"Polygon","coordinates":[[[-76.6196064,39.32748],[-76.6196091,39.3269766],[-76.6202572,39.3269787],[-76.6202545,39.327482],[-76.6196064,39.32748]]]}},{"type":"Feature","properties":{"layer":"Campus Area","_tile":"6/34/37"},"geometry":{"type":"Polygon","coordinates":[[[-76.619609,39.3269919],[-76.6196117,39.3264885],[-76.6202598,39.3264906],[-76.6202571,39.326994],[-76.619609,39.3269919]]]}},{"type":"Feature","properties":{"layer":"Campus Area","_tile":"6/34/38"},"geometry":{"type":"Polygon","coordinates":[[[-76.6196117,39.3265038],[-76.6196123,39.3263815],[-76.6201156,39.3260021],[-76.6202624,39.3260026],[-76.6202597,39.3265059],[-76.6196117,39.3265038]]]}},{"type":"Feature","properties":{"layer":"Campus Area","_tile":"6/34/39"},"geometry":{"type":"Polygon","coordinates":[[[-76.6200954,39.3260173],[-76.620263,39.325891],[-76.6202623,39.3260178],[-76.6200954,39.3260173]]]}},{"type":"Feature","properties":{"layer":"Campus Area","_tile":"6/34/41"},"geometry":{"type":"Polygon","coordinates":[[[-76.6202687,39.3248214],[-76.6202182,39.3246721],[-76.6202695,39.3246723],[-76.6202687,39.3248214]]]}},{"type":"Feature","properties":{"layer":"Campus Area","_tile":"6/35/32"},"geometry":{"type":"Polygon","coordinates":[[[-76.6189675,39.3294302],[-76.6189702,39.3289269],[-76.6196183,39.328929],[-76.6196156,39.3294323],[-76.6189675,39.3294302]]]}},{"type":"Feature","properties":{"layer":"Campus Area","_tile":"6/35/33"},"geometry":{"type":"Polygon","coordinates":[[[-76.6189701,39.3289422],[-76.6189728,39.3284388],[-76.6196209,39.3284409],[-76.6196182,39.3289443],[-76.6189701,39.3289422]]]}},{"type":"Feature","properties":{"layer":"Campus Area","_tile":"6/35/34"},"geometry":{"type":"Polygon","coordinates":[[[-76.6189727,39.3284541],[-76.6189754,39.3279507],[-76.6196235,39.3279528],[-76.6196208,39.3284562],[-76.6189727,39.3284541]]]}},{"type":"Feature","properties":{"layer":"Campus Area","_tile":"6/35/35"},"geometry":{"type":"Polygon","coordinates":[[[-76.6189754,39.327966],[-76.6189781,39.3274627],[-76.6196261,39.3274648],[-76.6196234,39.3279681],[-76.6189754,39.327966]]]}},{"type":"Feature","properties":{"layer":"Campus Area","_tile":"6/35/36"},"geometry":{"type":"Polygon","coordinates":[[[-76.618978,39.3274779],[-76.6189807,39.3269746],[-76.6196288,39.3269767],[-76.6196261,39.32748],[-76.618978,39.3274779]]]}},{"type":"Feature","properties":{"layer":"Campus Area","_tile":"6/35/37"},"geometry":{"type":"Polygon","coordinates":[[[-76.6189806,39.3269898],[-76.6189833,39.3264865],[-76.6196314,39.3264886],[-76.6196287,39.3269919],[-76.6189806,39.3269898]]]}},{"type":"Feature","properties":{"layer":"Campus Area","_tile":"6/35/38"},"geometry":{"type":"Polygon","coordinates":[[[-76.6189832,39.3265018],[-76.6189834,39.3264615],[-76.6195071,39.3264608],[-76.619632,39.3263666],[-76.6196313,39.3265039],[-76.6189832,39.3265018]]]}},{"type":"Feature","properties":{"layer":"Campus Area","_tile":"6/36/32"},"geometry":{"type":"Polygon","coordinates":[[[-76.618339,39.3294282],[-76.6183418,39.3289249],[-76.6189898,39.328927],[-76.6189871,39.3294303],[-76.618339,39.3294282]]]}},{"type":"Feature","properties":{"layer":"Campus Area","_tile":"6/36/33"},"geometry":{"type":"Polygon","coordinates":[[[-76.6183417,39.3289401],[-76.6183444,39.3284368],[-76.6189925,39.3284389],[-76.6189898,39.3289422],[-76.6183417,39.3289401]]]}},{"type":"Feature","properties":{"layer":"Campus Area","_tile":"6/36/34"},"geometry":{"type":"Polygon","coordinates":[[[-76.6183443,39.328452],[-76.618347,39.3279487],[-76.6189951,39.3279508],[-76.6189924,39.3284541],[-76.6183443,39.328452]]]}},{"type":"Feature","properties":{"layer":"Campus Area","_tile":"6/36/35"},"geometry":{"type":"Polygon","coordinates":[[[-76.6183469,39.327964],[-76.6183496,39.3274606],[-76.6189977,39.3274627],[-76.618995,39.3279661],[-76.6183469,39.327964]]]}},{"type":"Feature","properties":{"layer":"Campus Area","_tile":"6/36/36"},"geometry":{"type":"Polygon","coordinates":[[[-76.6183496,39.3274759],[-76.6183523,39.3269725],[-76.6190003,39.3269747],[-76.6189976,39.327478],[-76.6183496,39.3274759]]]}},{"type":"Feature","properties":{"layer":"Campus Area","_tile":"6/36/37"},"geometry":{"type":"Polygon","coordinates":[[[-76.6183522,39.3269878],[-76.6183549,39.3264845],[-76.619003,39.3264866],[-76.6190002,39.3269899],[-76.6183522,39.3269878]]]}},{"type":"Feature","properties":{"layer":"Campus Area","_tile":"6/36/38"},"geometry":{"type":"Polygon","coordinates":[[[-76.6183548,39.3264997],[-76.618355,39.3264623],[-76.6190031,39.3264614],[-76.6190029,39.3265018],[-76.6183548,39.3264997]]]}},{"type":"Feature","properties":{"layer":"Campus Area","_tile":"6/37/32"},"geometry":{"type":"Polygon","coordinates":[[[-76.6179799,39.329427],[-76.617948,39.3289525],[-76.6179461,39.3289236],[-76.6183614,39.3289249],[-76.6183587,39.3294283],[-76.6179799,39.329427]]]}},{"type":"Feature","properties":{"layer":"Campus Area","_tile":"6/37/33"},"geometry":{"type":"Polygon","coordinates":[[[-76.6179472,39.3289388],[-76.6179137,39.3284354],[-76.618364,39.3284368],[-76.6183613,39.3289402],[-76.6179472,39.3289388]]]}},{"type":"Feature","properties":{"layer":"Campus Area","_tile":"6/37/34"},"geometry":{"type":"Polygon","coordinates":[[[-76.6179147,39.3284506],[-76.6178814,39.3279472],[-76.6183666,39.3279488],[-76.6183639,39.3284521],[-76.6179147,39.3284506]]]}},{"type":"Feature","properties":{"layer":"Campus Area","_tile":"6/37/35"},"geometry":{"type":"Polygon","coordinates":[[[-76.6178823,39.3279624],[-76.617849,39.327459],[-76.6183693,39.3274607],[-76.6183666,39.327964],[-76.6178823,39.3279624]]]}},{"type":"Feature","properties":{"layer":"Campus Area","_tile":"6/37/36"},"geometry":{"type":"Polygon","coordinates":[[[-76.61785,39.3274743],[-76.617834,39.3272308],[-76.6178167,39.3269708],[-76.6183719,39.3269726],[-76.6183692,39.3274759],[-76.61785,39.3274743]]]}},{"type":"Feature","properties":{"layer":"Campus Area","_tile":"6/37/37"},"geometry":{"type":"Polygon","coordinates":[[[-76.6178176,39.3269861],[-76.6177878,39.3265366],[-76.61779,39.3264826],[-76.6183745,39.3264845],[-76.6183718,39.3269879],[-76.6178176,39.3269861]]]}},{"type":"Feature","properties":{"layer":"Campus Area","_tile":"6/37/38"},"geometry":{"type":"Polygon","coordinates":[[[-76.6177893,39.3264979],[-76.6177907,39.326463],[-76.6183746,39.3264623],[-76.6183744,39.3264998],[-76.6177893,39.3264979]]]}}]}