{"type":"FeatureCollection","features":[{"type":"Feature","properties":{"layer":"River /Stream","_tile":"6/26/32"},"geometry":{"type":"Polygon","coordinates":[[[-76.6252737,39.3290591],[-76.6252638,39.3290227],[-76.6252669,39.3290136],[-76.6252696,39.3290064],[-76.6252741,39.3289858],[-76.6252737,39.3290591]],[[-76.625269,39.3289472],[-76.6252743,39.3289472],[-76.6252742,39.3289667],[-76.625273,39.3289605],[-76.6252702,39.328951],[-76.625269,39.3289472]]]}},{"type":"Feature","properties":{"layer":"River /Stream","_tile":"6/26/33"},"geometry":{"type":"Polygon","coordinates":[[[-76.6252733,39.3289624],[-76.625273,39.3289605],[-76.6252702,39.328951],[-76.6252631,39.3289284],[-76.6252532,39.3288904],[-76.6252514,39.3288824],[-76.6252384,39.3288271],[-76.6252344,39.3288137],[-76.6252321,39.3288082],[-76.6252298,39.3288033],[-76.6252274,39.3287993],[-76.6252248,39.328796],[-76.6252178,39.3287891],[-76.6252153,39.3287858],[-76.6252149,39.3287834],[-76.6252154,39.3287803],[-76.625223,39.3287578],[-76.6252249,39.3287503],[-76.6252258,39.3287442],[-76.625226,39.3287438],[-76.6252257,39.328739],[-76.625225,39.328736],[-76.6252236,39.3287328],[-76.6252221,39.3287304],[-76.6252204,39.3287288],[-76.6252172,39.3287276],[-76.6252111,39.3287266],[-76.6252065,39.3287264],[-76.6251928,39.3287266],[-76.6251906,39.3287265],[-76.6251893,39.3287261],[-76.6251874,39.3287244],[-76.6251848,39.328721],[-76.6251775,39.3287109],[-76.6251707,39.3287009],[-76.6251655,39.3286922],[-76.625162,39.328685],[-76.6251605,39.3286808],[-76.625159,39.3286751],[-76.6251541,39.3286522],[-76.625152,39.3286441],[-76.6251486,39.3286356],[-76.6251432,39.3286248],[-76.6251362,39.3286124],[-76.6251284,39.3285997],[-76.6251173,39.3285832],[-76.6251118,39.3285742],[-76.6251099,39.32857],[-76.6251083,39.328566],[-76.6251074,39.3285629],[-76.6251071,39.3285602],[-76.6251087,39.3285494],[-76.6251089,39.3285471],[-76.6251086,39.3285451],[-76.6251074,39.3285422],[-76.625106,39.3285405],[-76.6251048,39.3285404],[-76.6251029,39.328541],[-76.6250959,39.3285451],[-76.6250906,39.3285483],[-76.6250879,39.3285496],[-76.6250856,39.3285498],[-76.625083,39.3285495],[-76.6250759,39.3285477],[-76.6250733,39.3285466],[-76.6250709,39.3285449],[-76.6250684,39.3285426],[-76.625066,39.3285396],[-76.6250623,39.3285335],[-76.6250558,39.3285205],[-76.6250532,39.3285159],[-76.6250485,39.3285095],[-76.6250419,39.3285015],[-76.6250337,39.3284924],[-76.6250148,39.328473],[-76.6250117,39.3284694],[-76.6250097,39.3284666],[-76.6250088,39.3284641],[-76.6250079,39.3284609],[-76.6250067,39.3284582],[-76.6251675,39.3284587],[-76.6251689,39.3284608],[-76.6251754,39.3284715],[-76.625181,39.3284818],[-76.6251859,39.3284916],[-76.6251895,39.3285006],[-76.6251921,39.3285084],[-76.625194,39.328519],[-76.6251974,39.3285477],[-76.6251997,39.3285595],[-76.6252018,39.3285659],[-76.6252042,39.3285709],[-76.6252071,39.3285748],[-76.6252105,39.3285779],[-76.6252131,39.3285794],[-76.6252154,39.3285803],[-76.625217,39.328581],[-76.6252357,39.328588],[-76.6252415,39.3285907],[-76.6252477,39.3285938],[-76.6252533,39.3285971],[-76.6252584,39.3286004],[-76.6252625,39.3286035],[-76.6252659,39.3286066],[-76.6252681,39.3286093],[-76.6252695,39.3286116],[-76.6252699,39.3286148],[-76.6252698,39.3286193],[-76.6252685,39.3286253],[-76.6252665,39.3286327],[-76.6252598,39.3286503],[-76.6252581,39.3286566],[-76.6252579,39.3286624],[-76.6252585,39.3286695],[-76.6252592,39.3286723],[-76.6252604,39.3286753],[-76.6252642,39.3286824],[-76.6252689,39.328689],[-76.6252756,39.3286979],[-76.6252742,39.3289624],[-76.6252733,39.3289624]]]}},{"type":"Feature","properties":{"layer":"River /Stream","_tile":"6/26/34"},"geometry":{"type":"Polygon","coordinates":[[[-76.6250409,39.328379],[-76.6250409,39.328374],[-76.6250396,39.3283661],[-76.6250376,39.3283586],[-76.6250346,39.3283492],[-76.6250252,39.3283216],[-76.625001,39.3282612],[-76.6249932,39.3282553],[-76.6249882,39.3282552],[-76.6249846,39.3282563],[-76.6249825,39.3282572],[-76.6249812,39.3282583],[-76.62498,39.3282596],[-76.6249781,39.3282631],[-76.6249767,39.3282678],[-76.6249763,39.3282721],[-76.6249768,39.3282771],[-76.6249794,39.3282882],[-76.6249809,39.3283],[-76.6249827,39.328327],[-76.6249854,39.3283477],[-76.6249872,39.3283575],[-76.6249909,39.3283732],[-76.6249918,39.3283756],[-76.6249927,39.3283769],[-76.6249943,39.3283785],[-76.6249976,39.3283809],[-76.6250014,39.3283831],[-76.625005,39.3283848],[-76.6250099,39.3283866],[-76.6250157,39.3283883],[-76.6250203,39.3283893],[-76.6250244,39.3283895],[-76.6250303,39.3283893],[-76.6250333,39.3283886],[-76.6250361,39.3283868],[-76.6250386,39.3283846],[-76.62504,39.3283818],[-76.6250409,39.328379]],[[-76.6250152,39.3284735],[-76.6250148,39.328473],[-76.6250117,39.3284694],[-76.6250097,39.3284666],[-76.6250088,39.3284641],[-76.6250079,39.3284609],[-76.6249984,39.3284402],[-76.6249937,39.3284314],[-76.624987,39.3284218],[-76.6249769,39.3284081],[-76.6249633,39.328391],[-76.6249577,39.3283826],[-76.6249533,39.328374],[-76.6249509,39.3283672],[-76.6249503,39.3283634],[-76.6249497,39.3283526],[-76.6249492,39.3283481],[-76.6249473,39.3283428],[-76.6249437,39.3283359],[-76.6249399,39.3283294],[-76.6249285,39.3283121],[-76.6249236,39.3283034],[-76.6249175,39.3282912],[-76.6248866,39.3282201],[-76.6248833,39.3282085],[-76.6248767,39.3281854],[-76.6248646,39.328154],[-76.624854,39.3280999],[-76.6248446,39.3280448],[-76.6248444,39.3280428],[-76.6248417,39.3280142],[-76.6248408,39.3279983],[-76.6248396,39.3279756],[-76.6248388,39.3279696],[-76.6248723,39.3279697],[-76.6248704,39.3279814],[-76.6248694,39.3279908],[-76.6248686,39.3280016],[-76.6248682,39.3280138],[-76.6248682,39.3280267],[-76.6248716,39.3280662],[-76.6248743,39.3280801],[-76.6248769,39.328094],[-76.6248873,39.3281281],[-76.6248986,39.3281645],[-76.6249027,39.3281761],[-76.6249037,39.3281791],[-76.6249046,39.328185],[-76.6249055,39.3281896],[-76.6249067,39.3281927],[-76.6249084,39.3281952],[-76.6249111,39.3281973],[-76.6249153,39.3281994],[-76.6249173,39.3282002],[-76.6249205,39.3282014],[-76.6249261,39.328203],[-76.6249303,39.3282032],[-76.624935,39.3282025],[-76.6249542,39.3281972],[-76.6249587,39.3281982],[-76.6249644,39.3281998],[-76.6249873,39.3282073],[-76.6249955,39.3282097],[-76.6250131,39.3282134],[-76.625018,39.3282149],[-76.625021,39.3282165],[-76.6250233,39.3282186],[-76.6250255,39.3282223],[-76.6250271,39.3282266],[-76.6250306,39.3282368],[-76.6250462,39.3282745],[-76.6250523,39.3282888],[-76.6250571,39.3283023],[-76.6250603,39.3283133],[-76.6250634,39.3283296],[-76.6250652,39.3283371],[-76.6250684,39.328344],[-76.6250739,39.3283529],[-76.6250816,39.3283633],[-76.6250926,39.3283764],[-76.6250976,39.3283821],[-76.6251042,39.3283889],[-76.6251364,39.3284204],[-76.6251483,39.3284327],[-76.625155,39.3284409],[-76.6251622,39.3284505],[-76.6251689,39.3284608],[-76.6251754,39.3284715],[-76.6251768,39.328474],[-76.6250152,39.3284735]]]}},{"type":"Feature","properties":{"layer":"River /Stream","_tile":"6/26/35"},"geometry":{"type":"Polygon","coordinates":[[[-76.6248401,39.3279849],[-76.6248396,39.3279756],[-76.6248353,39.327944],[-76.624835,39.3279411],[-76.6248346,39.3279388],[-76.6248347,39.3279348],[-76.6248357,39.3279331],[-76.6248372,39.3279313],[-76.624844,39.3279257],[-76.6248518,39.3279188],[-76.6248579,39.3279129],[-76.6248617,39.3279082],[-76.6248639,39.3279041],[-76.6248645,39.3279016],[-76.6248647,39.3278983],[-76.6248644,39.3278953],[-76.6248638,39.3278928],[-76.6248601,39.3278872],[-76.6248599,39.3278852],[-76.6248599,39.3278817],[-76.6248609,39.3278702],[-76.6248618,39.3278641],[-76.6248637,39.3278572],[-76.6248651,39.3278528],[-76.624866,39.3278498],[-76.6248687,39.3278427],[-76.6248718,39.3278359],[-76.6248749,39.3278298],[-76.6248781,39.3278246],[-76.6248812,39.3278206],[-76.6248851,39.3278166],[-76.6248976,39.327805],[-76.6249104,39.3277897],[-76.6249142,39.3277855],[-76.6249198,39.3277808],[-76.6249272,39.3277754],[-76.6249363,39.3277697],[-76.6249446,39.3277651],[-76.6249509,39.3277624],[-76.6249715,39.3277543],[-76.6249767,39.3277519],[-76.6249807,39.3277495],[-76.6249839,39.3277471],[-76.6249873,39.3277438],[-76.6249907,39.32774],[-76.6249937,39.3277362],[-76.6249957,39.3277327],[-76.6249972,39.3277294],[-76.624998,39.3277267],[-76.6249944,39.3277134],[-76.6249937,39.3277078],[-76.6249945,39.3276981],[-76.6249954,39.3276926],[-76.6249964,39.3276889],[-76.624999,39.3276826],[-76.6250027,39.3276754],[-76.6250083,39.3276664],[-76.625015,39.3276562],[-76.6250201,39.3276488],[-76.6250314,39.3276471],[-76.6250337,39.3276472],[-76.6250351,39.3276475],[-76.6250366,39.3276484],[-76.6250437,39.3276538],[-76.6250461,39.327655],[-76.6250473,39.3276551],[-76.6250487,39.3276547],[-76.6250524,39.3276528],[-76.6250563,39.3276499],[-76.6250637,39.3276433],[-76.6250728,39.3276356],[-76.6250834,39.3276261],[-76.625095,39.3276152],[-76.6251053,39.3276047],[-76.6251139,39.3275956],[-76.6251226,39.3275856],[-76.6251297,39.3275768],[-76.6251348,39.3275697],[-76.625138,39.3275641],[-76.6251407,39.3275584],[-76.6251421,39.3275536],[-76.6251422,39.3275502],[-76.6251416,39.3275481],[-76.6251404,39.3275454],[-76.6251378,39.3275413],[-76.625136,39.3275387],[-76.625131,39.3275323],[-76.6251299,39.3275294],[-76.6251287,39.3275244],[-76.6251281,39.3275185],[-76.6251285,39.3275113],[-76.6251328,39.3274825],[-76.6251764,39.3274826],[-76.6251767,39.3275049],[-76.6251774,39.3275685],[-76.6251773,39.3275904],[-76.6251768,39.3276068],[-76.625175,39.3276243],[-76.6251739,39.3276313],[-76.6251725,39.3276365],[-76.6251712,39.3276399],[-76.6251694,39.3276437],[-76.6251638,39.3276524],[-76.6251559,39.3276627],[-76.6251439,39.3276772],[-76.6251385,39.3276831],[-76.6251309,39.327691],[-76.6251013,39.3277197],[-76.6250907,39.3277303],[-76.6250819,39.32774],[-76.6250755,39.3277479],[-76.6250712,39.3277547],[-76.6250576,39.3277769],[-76.6250536,39.327783],[-76.62505,39.3277874],[-76.6250454,39.3277921],[-76.6250392,39.3277975],[-76.625032,39.3278028],[-76.6250243,39.327808],[-76.6250166,39.3278124],[-76.6250089,39.3278162],[-76.625002,39.327819],[-76.624996,39.3278207],[-76.6249918,39.3278214],[-76.6249866,39.3278218],[-76.6249618,39.3278227],[-76.6249567,39.3278232],[-76.624953,39.3278239],[-76.6249481,39.3278254],[-76.624943,39.3278274],[-76.6249401,39.3278291],[-76.624937,39.3278313],[-76.6249338,39.3278343],[-76.6249307,39.3278377],[-76.6249247,39.327846],[-76.6249154,39.3278608],[-76.624907,39.3278744],[-76.624898,39.3278908],[-76.6248901,39.3279069],[-76.6248841,39.327921],[-76.6248805,39.3279322],[-76.6248769,39.3279466],[-76.6248734,39.327964],[-76.6248732,39.3279644],[-76.6248704,39.3279814],[-76.6248701,39.327985],[-76.6248401,39.3279849]]]}},{"type":"Feature","properties":{"layer":"River /Stream","_tile":"6/26/36"},"geometry":{"type":"Polygon","coordinates":[[[-76.6251409,39.3273048],[-76.6251365,39.3272532],[-76.6251343,39.3272342],[-76.625132,39.3272222],[-76.6251308,39.3272143],[-76.6251255,39.3271776],[-76.6251207,39.3271484],[-76.6251188,39.3271386],[-76.6251168,39.327131],[-76.6251108,39.3271148],[-76.6251096,39.3271105],[-76.6251092,39.3271065],[-76.6251101,39.3270981],[-76.6251112,39.3270945],[-76.6251171,39.3270821],[-76.625119,39.3270765],[-76.6251196,39.3270739],[-76.6251198,39.3270714],[-76.6251193,39.3270692],[-76.6251184,39.327067],[-76.6251149,39.3270629],[-76.625114,39.3270621],[-76.6251129,39.3270618],[-76.6251121,39.3270617],[-76.6251098,39.3270622],[-76.6251058,39.3270635],[-76.6250854,39.327073],[-76.6250871,39.327067],[-76.6250881,39.3270611],[-76.625089,39.3270596],[-76.6250912,39.3270405],[-76.625092,39.3270362],[-76.625093,39.3270307],[-76.625093,39.327028],[-76.6250929,39.3270256],[-76.6250916,39.3270224],[-76.625088,39.327015],[-76.6250866,39.3270117],[-76.6250862,39.3270073],[-76.6250867,39.3270021],[-76.6250883,39.3269947],[-76.6250884,39.3269942],[-76.6252221,39.3269947],[-76.6252214,39.3269967],[-76.6252169,39.327008],[-76.6252112,39.3270194],[-76.6252053,39.3270286],[-76.6251999,39.3270349],[-76.6251865,39.3270484],[-76.6251865,39.3270485],[-76.6251814,39.3270539],[-76.6251768,39.3270597],[-76.6251743,39.3270642],[-76.6251727,39.3270697],[-76.6251711,39.3270796],[-76.6251698,39.327092],[-76.6251691,39.3271073],[-76.6251692,39.3271245],[-76.6251696,39.3271568],[-76.6251704,39.3271953],[-76.6251739,39.3273378],[-76.6251766,39.3274978],[-76.6251306,39.3274977],[-76.6251328,39.3274823],[-76.625133,39.3274739],[-76.6251333,39.3274434],[-76.6251338,39.3274349],[-76.6251349,39.3274285],[-76.6251371,39.3274211],[-76.6251427,39.3274061],[-76.6251486,39.3273877],[-76.6251504,39.3273807],[-76.6251377,39.3273687],[-76.6251226,39.3273564],[-76.6251135,39.3273498],[-76.6251012,39.3273423],[-76.6250963,39.327339],[-76.6250934,39.327336],[-76.6250912,39.3273331],[-76.6250894,39.3273303],[-76.6250886,39.3273278],[-76.6250887,39.3273261],[-76.625089,39.3273241],[-76.6250901,39.3273212],[-76.625091,39.3273197],[-76.6250925,39.3273182],[-76.6250948,39.3273168],[-76.6250996,39.3273149],[-76.6251015,39.3273146],[-76.625105,39.3273147],[-76.6251143,39.3273158],[-76.6251424,39.3273178],[-76.6251409,39.3273048]]]}},{"type":"Feature","properties":{"layer":"River /Stream","_tile":"6/26/37"},"geometry":{"type":"Polygon","coordinates":[[[-76.6250863,39.3270095],[-76.6250862,39.3270073],[-76.6250867,39.3270021],[-76.6250883,39.3269947],[-76.6250908,39.3269857],[-76.6250978,39.3269627],[-76.6251016,39.3269474],[-76.6251035,39.3269367],[-76.6251041,39.3269264],[-76.6251076,39.3269147],[-76.6251091,39.32691],[-76.6251142,39.3268973],[-76.6251155,39.3268928],[-76.6251163,39.326888],[-76.6251168,39.3268827],[-76.6251167,39.3268768],[-76.6251159,39.3268656],[-76.6251121,39.3268324],[-76.6251007,39.3267633],[-76.6250974,39.3267463],[-76.6250969,39.3267445],[-76.6250944,39.3267328],[-76.6250909,39.3267205],[-76.6250799,39.3266845],[-76.625075,39.3266663],[-76.625073,39.3266579],[-76.6250714,39.3266498],[-76.6250703,39.3266425],[-76.6250699,39.3266361],[-76.6250703,39.3266231],[-76.6250719,39.3266023],[-76.6250971,39.3265625],[-76.6251145,39.3265355],[-76.6251455,39.3265063],[-76.6251823,39.3265064],[-76.6251563,39.3265694],[-76.625142,39.3266015],[-76.6251368,39.3266139],[-76.6251337,39.3266201],[-76.6251303,39.3266256],[-76.625127,39.3266292],[-76.625123,39.3266322],[-76.6251115,39.3266394],[-76.6251092,39.3266412],[-76.6251076,39.3266428],[-76.6251062,39.3266454],[-76.6251054,39.3266495],[-76.6251056,39.3266541],[-76.6251068,39.3266597],[-76.6251086,39.326666],[-76.6251114,39.3266733],[-76.6251152,39.3266812],[-76.6251196,39.3266893],[-76.6251292,39.3267047],[-76.6251548,39.3267427],[-76.6251639,39.326757],[-76.6251749,39.326777],[-76.6251917,39.3268108],[-76.6251967,39.3268281],[-76.6251952,39.3268513],[-76.6251954,39.326869],[-76.625196,39.3268749],[-76.6251969,39.3268797],[-76.6251984,39.3268839],[-76.6252011,39.3268894],[-76.625213,39.3269092],[-76.6252165,39.3269158],[-76.6252197,39.3269242],[-76.6252225,39.3269351],[-76.6252249,39.3269468],[-76.6252261,39.3269562],[-76.6252262,39.3269571],[-76.6252264,39.3269633],[-76.625226,39.326971],[-76.6252252,39.3269796],[-76.6252241,39.3269872],[-76.6252214,39.3269967],[-76.6252169,39.327008],[-76.625216,39.3270099],[-76.6250863,39.3270095]]]}},{"type":"Feature","properties":{"layer":"River /Stream","_tile":"6/26/38"},"geometry":{"type":"Polygon","coordinates":[[[-76.6251294,39.3265215],[-76.6251708,39.3264826],[-76.6251839,39.3265001],[-76.6251846,39.326501],[-76.6251761,39.3265217],[-76.6251294,39.3265215]]]}},{"type":"Feature","properties":{"layer":"River /Stream","_tile":"6/27/33"},"geometry":{"type":"Polygon","coordinates":[[[-76.6242003,39.3284557],[-76.6242363,39.3285043],[-76.6242646,39.3285395],[-76.6242658,39.3285412],[-76.6242827,39.3285617],[-76.6242905,39.328572],[-76.6242963,39.3285808],[-76.6242996,39.3285875],[-76.6243008,39.3285918],[-76.6243019,39.3285969],[-76.6243023,39.3286017],[-76.6243023,39.3286055],[-76.6243011,39.3286104],[-76.6242981,39.328617],[-76.6242959,39.32862],[-76.6242928,39.3286235],[-76.6242888,39.3286269],[-76.6242841,39.3286305],[-76.6242784,39.3286342],[-76.6242719,39.3286377],[-76.624265,39.3286412],[-76.6242582,39.3286441],[-76.6242516,39.3286464],[-76.6242435,39.328648],[-76.6242336,39.3286493],[-76.6242226,39.32865],[-76.6242105,39.3286503],[-76.624197,39.32865],[-76.6241821,39.3286494],[-76.6241606,39.3286481],[-76.6241368,39.3286459],[-76.624087,39.32864],[-76.6240642,39.3286374],[-76.6240502,39.3286357],[-76.6240369,39.3286336],[-76.6240275,39.3286318],[-76.6240214,39.32863],[-76.6240148,39.3286278],[-76.6240072,39.3286248],[-76.6239995,39.3286215],[-76.6240004,39.328455],[-76.6242003,39.3284557]]]}},{"type":"Feature","properties":{"layer":"River /Stream","_tile":"6/27/34"},"geometry":{"type":"Polygon","coordinates":[[[-76.6241378,39.3283809],[-76.6241438,39.328385],[-76.6241506,39.3283911],[-76.6241566,39.3283975],[-76.6241752,39.328418],[-76.6241872,39.3284376],[-76.6241889,39.3284401],[-76.6242116,39.3284709],[-76.6240003,39.3284703],[-76.6240008,39.3283851],[-76.6240066,39.3283834],[-76.6240161,39.3283795],[-76.6240417,39.328368],[-76.6240477,39.3283657],[-76.6240526,39.3283641],[-76.6240633,39.3283619],[-76.6240744,39.3283605],[-76.6240801,39.3283605],[-76.6240866,39.3283614],[-76.6240942,39.3283631],[-76.6241021,39.3283654],[-76.624111,39.3283685],[-76.6241205,39.3283723],[-76.6241298,39.3283767],[-76.6241378,39.3283809]]]}},{"type":"Feature","properties":{"layer":"River /Stream","_tile":"6/28/33"},"geometry":{"type":"Polygon","coordinates":[[[-76.62402,39.3284551],[-76.6240191,39.3286293],[-76.6240148,39.3286278],[-76.6240072,39.3286248],[-76.6239989,39.3286212],[-76.6239816,39.3286132],[-76.6239488,39.3285965],[-76.6239244,39.3285845],[-76.6239026,39.3285734],[-76.6238855,39.328564],[-76.6238726,39.3285566],[-76.6238621,39.3285495],[-76.6238566,39.3285452],[-76.623852,39.3285419],[-76.6238447,39.3285352],[-76.6238419,39.3285323],[-76.62384,39.3285296],[-76.623838,39.3285259],[-76.6238365,39.3285209],[-76.6238351,39.3285147],[-76.6238323,39.3284963],[-76.623831,39.3284913],[-76.6238293,39.3284874],[-76.6238265,39.3284833],[-76.6238226,39.328479],[-76.6238172,39.3284744],[-76.6238113,39.32847],[-76.6238038,39.3284652],[-76.6237961,39.3284608],[-76.6237883,39.328457],[-76.6237819,39.3284543],[-76.62402,39.3284551]]]}},{"type":"Feature","properties":{"layer":"River /Stream","_tile":"6/28/34"},"geometry":{"type":"Polygon","coordinates":[[[-76.623721,39.3283692],[-76.6237279,39.3283689],[-76.6237377,39.328369],[-76.6237658,39.3283706],[-76.6237803,39.328372],[-76.6237992,39.3283747],[-76.6238193,39.3283781],[-76.6238331,39.3283807],[-76.623843,39.3283825],[-76.623866,39.3283868],[-76.6238857,39.3283901],[-76.6239053,39.328393],[-76.6239214,39.3283948],[-76.6239338,39.3283956],[-76.623941,39.3283954],[-76.6239495,39.3283948],[-76.6239588,39.3283938],[-76.6239736,39.3283914],[-76.6239796,39.3283902],[-76.6239897,39.328388],[-76.6239989,39.3283857],[-76.6240066,39.3283834],[-76.6240161,39.3283795],[-76.6240204,39.3283776],[-76.6240199,39.3284703],[-76.6238107,39.3284697],[-76.6238038,39.3284652],[-76.6237961,39.3284608],[-76.6237883,39.328457],[-76.6237816,39.3284542],[-76.6237752,39.3284523],[-76.6237666,39.3284505],[-76.6237321,39.3284458],[-76.6237194,39.3284435],[-76.6237137,39.3284419],[-76.6237089,39.3284403],[-76.6237051,39.3284385],[-76.6237024,39.3284363],[-76.6236999,39.3284334],[-76.6236975,39.3284295],[-76.6236907,39.3284155],[-76.6236847,39.3284043],[-76.6236822,39.3283988],[-76.6236808,39.3283945],[-76.6236807,39.3283911],[-76.6236819,39.3283882],[-76.623685,39.3283843],[-76.6236896,39.3283798],[-76.6236952,39.3283755],[-76.6236995,39.3283731],[-76.6237049,39.3283714],[-76.6237113,39.3283701],[-76.6237191,39.3283693],[-76.623721,39.3283692]]]}}]}