{"type":"FeatureCollection","features":[{"type":"Feature","properties":{"layer":"Shrubs","_tile":"6/26/33"},"geometry":{"type":"Point","coordinates":[-76.6251704,39.3287901]}},{"type":"Feature","properties":{"layer":"Shrubs","_tile":"6/26/34"},"geometry":{"type":"MultiPoint","coordinates":[[-76.6247467,39.3282221],[-76.6247179,39.3282589],[-76.6246895,39.3282733],[-76.6247734,39.3282779],[-76.6246506,39.3282941],[-76.6248271,39.3283097]]}},{"type":"Feature","properties":{"layer":"Shrubs","_tile":"6/26/37"},"geometry":{"type":"Point","coordinates":[-76.6247031,39.3265397]}},{"type":"Feature","properties":{"layer":"Shrubs","_tile":"6/26/38"},"geometry":{"type":"MultiPoint","coordinates":[[-76.6248737,39.3260299],[-76.6248672,39.3260318],[-76.6248792,39.3260344],[-76.6248768,39.3260386],[-76.6248583,39.3261683],[-76.6248688,39.3261717],[-76.6248692,39.3261825],[-76.6247242,39.3264935],[-76.6247004,39.3265092]]}},{"type":"Feature","properties":{"layer":"Shrubs","_tile":"6/26/39"},"geometry":{"type":"MultiPoint","coordinates":[[-76.6247659,39.3259228],[-76.6247591,39.3259295],[-76.6247471,39.3259314],[-76.6247165,39.3259443],[-76.6247079,39.3259518],[-76.6246973,39.3259522],[-76.6249905,39.3259564],[-76.6250356,39.3260154]]}},{"type":"Feature","properties":{"layer":"Shrubs","_tile":"6/26/40"},"geometry":{"type":"MultiPoint","coordinates":[[-76.6249471,39.325061],[-76.6249559,39.3250689],[-76.6249735,39.3250873],[-76.6249481,39.3251013],[-76.6249605,39.325109],[-76.6249955,39.3251634],[-76.6249787,39.3252884],[-76.6249678,39.3252934],[-76.6249931,39.3253185],[-76.6250596,39.3253271],[-76.6249762,39.3253504],[-76.6249202,39.3253506],[-76.6249289,39.3253538],[-76.6248987,39.3253584],[-76.6249541,39.3253591],[-76.624914,39.3253608],[-76.6248996,39.3253664],[-76.6249135,39.3253925]]}},{"type":"Feature","properties":{"layer":"Shrubs","_tile":"6/26/41"},"geometry":{"type":"MultiPoint","coordinates":[[-76.6246746,39.3247039],[-76.6248588,39.3247291],[-76.6247068,39.3247503],[-76.62475,39.3248941]]}},{"type":"Feature","properties":{"layer":"Shrubs","_tile":"6/26/43"},"geometry":{"type":"MultiPoint","coordinates":[[-76.6247683,39.3235952],[-76.6249027,39.3236081],[-76.6248912,39.3236376],[-76.6248868,39.3236405],[-76.6248806,39.3236425],[-76.6250236,39.3236756],[-76.6250349,39.3236779],[-76.6250324,39.3236868],[-76.6250439,39.3236918],[-76.6251049,39.3236959],[-76.6251224,39.3237007],[-76.6251151,39.323711],[-76.6250527,39.3237164],[-76.6250631,39.3237199],[-76.6250607,39.3237281],[-76.6250718,39.323732],[-76.6247584,39.3238133],[-76.6247428,39.3238823]]}},{"type":"Feature","properties":{"layer":"Shrubs","_tile":"6/27/34"},"geometry":{"type":"MultiPoint","coordinates":[[-76.624468,39.3284011],[-76.6245536,39.3284424]]}},{"type":"Feature","properties":{"layer":"Shrubs","_tile":"6/27/38"},"geometry":{"type":"MultiPoint","coordinates":[[-76.6245141,39.3260402],[-76.6244988,39.3260445],[-76.6245084,39.3260481],[-76.6243846,39.3261003],[-76.6243757,39.3261094],[-76.6243585,39.3261107],[-76.6240974,39.3261261],[-76.6240819,39.3261266],[-76.6243189,39.3261318],[-76.624301,39.3261392],[-76.6240457,39.3261514],[-76.6240289,39.3261518],[-76.6241668,39.326202],[-76.6241565,39.3262104],[-76.6241445,39.3262128],[-76.6241125,39.3262313],[-76.6240972,39.3262327]]}},{"type":"Feature","properties":{"layer":"Shrubs","_tile":"6/27/39"},"geometry":{"type":"MultiPoint","coordinates":[[-76.6246462,39.325869],[-76.6246316,39.3258701],[-76.6246444,39.3258835],[-76.6245669,39.3260167],[-76.6245615,39.3260205],[-76.6245483,39.3260223]]}},{"type":"Feature","properties":{"layer":"Shrubs","_tile":"6/27/41"},"geometry":{"type":"MultiPoint","coordinates":[[-76.6242584,39.3246633],[-76.6240514,39.3247333],[-76.6243715,39.3248041],[-76.6243779,39.3248187],[-76.6241334,39.3248416]]}},{"type":"Feature","properties":{"layer":"Shrubs","_tile":"6/27/42"},"geometry":{"type":"MultiPoint","coordinates":[[-76.6241845,39.3240921],[-76.6244515,39.3241656],[-76.6244614,39.3241781],[-76.6242676,39.3242187]]}},{"type":"Feature","properties":{"layer":"Shrubs","_tile":"6/27/43"},"geometry":{"type":"MultiPoint","coordinates":[[-76.624348,39.3235957],[-76.6243199,39.3236117],[-76.6246207,39.323676],[-76.6245475,39.323731],[-76.6245561,39.3237416],[-76.6244374,39.3237604],[-76.624356,39.3237765],[-76.6240681,39.3239341],[-76.6243913,39.3239951],[-76.62445,39.3240089]]}},{"type":"Feature","properties":{"layer":"Shrubs","_tile":"6/28/32"},"geometry":{"type":"Point","coordinates":[-76.6239345,39.3293249]}},{"type":"Feature","properties":{"layer":"Shrubs","_tile":"6/28/34"},"geometry":{"type":"MultiPoint","coordinates":[[-76.6233969,39.3280618],[-76.6234642,39.3280657]]}},{"type":"Feature","properties":{"layer":"Shrubs","_tile":"6/28/36"},"geometry":{"type":"MultiPoint","coordinates":[[-76.6236133,39.3272935],[-76.6235954,39.3273486],[-76.6235502,39.3274819]]}},{"type":"Feature","properties":{"layer":"Shrubs","_tile":"6/28/37"},"geometry":{"type":"MultiPoint","coordinates":[[-76.623691,39.3266747],[-76.6237045,39.3266784],[-76.623711,39.3266864]]}},{"type":"Feature","properties":{"layer":"Shrubs","_tile":"6/28/41"},"geometry":{"type":"MultiPoint","coordinates":[[-76.6239536,39.3246136],[-76.6239787,39.3246441],[-76.6240066,39.3246799]]}},{"type":"Feature","properties":{"layer":"Shrubs","_tile":"6/28/42"},"geometry":{"type":"MultiPoint","coordinates":[[-76.6236291,39.324209],[-76.6235253,39.3242104],[-76.6236544,39.3242281],[-76.624001,39.3243446]]}},{"type":"Feature","properties":{"layer":"Shrubs","_tile":"6/28/43"},"geometry":{"type":"MultiPoint","coordinates":[[-76.6238391,39.3240325],[-76.6238027,39.3240471],[-76.6238004,39.3240647]]}},{"type":"Feature","properties":{"layer":"Shrubs","_tile":"6/29/37"},"geometry":{"type":"MultiPoint","coordinates":[[-76.6233196,39.3266907],[-76.6233603,39.3267153]]}},{"type":"Feature","properties":{"layer":"Shrubs","_tile":"6/29/43"},"geometry":{"type":"MultiPoint","coordinates":[[-76.6232091,39.3236659],[-76.6232166,39.323677],[-76.6230159,39.3238208],[-76.6230138,39.3238689],[-76.6229784,39.3238862],[-76.6229555,39.3238975],[-76.6230634,39.3239222],[-76.6229848,39.3239838],[-76.6230179,39.3240281]]}},{"type":"Feature","properties":{"layer":"Shrubs","_tile":"6/30/32"},"geometry":{"type":"MultiPoint","coordinates":[[-76.6224214,39.3291786],[-76.6224307,39.3291949]]}},{"type":"Feature","properties":{"layer":"Shrubs","_tile":"6/30/33"},"geometry":{"type":"MultiPoint","coordinates":[[-76.6221665,39.3287893],[-76.6221676,39.3288075]]}},{"type":"Feature","properties":{"layer":"Shrubs","_tile":"6/30/35"},"geometry":{"type":"MultiPoint","coordinates":[[-76.6221355,39.3276676],[-76.6221365,39.3277314]]}},{"type":"Feature","properties":{"layer":"Shrubs","_tile":"6/30/36"},"geometry":{"type":"MultiPoint","coordinates":[[-76.6222096,39.3272525],[-76.6222125,39.3272653],[-76.6224343,39.3272979],[-76.6224527,39.3272987],[-76.6224437,39.3273878]]}},{"type":"Feature","properties":{"layer":"Shrubs","_tile":"6/30/40"},"geometry":{"type":"Point","coordinates":[-76.6224339,39.3253103]}},{"type":"Feature","properties":{"layer":"Shrubs","_tile":"6/30/41"},"geometry":{"type":"MultiPoint","coordinates":[[-76.6222036,39.3245776],[-76.6221485,39.3246159],[-76.6221545,39.324622]]}},{"type":"Feature","properties":{"layer":"Shrubs","_tile":"6/30/42"},"geometry":{"type":"MultiPoint","coordinates":[[-76.6227173,39.324085],[-76.6222251,39.324093],[-76.6226111,39.324181],[-76.6226222,39.3241933],[-76.6225974,39.3241989],[-76.6223059,39.3242092],[-76.6226074,39.3242108],[-76.6222978,39.3244804]]}},{"type":"Feature","properties":{"layer":"Shrubs","_tile":"6/31/32"},"geometry":{"type":"MultiPoint","coordinates":[[-76.6218832,39.3292034],[-76.621877,39.3292144],[-76.6218682,39.3292239],[-76.6220959,39.329421]]}},{"type":"Feature","properties":{"layer":"Shrubs","_tile":"6/31/33"},"geometry":{"type":"MultiPoint","coordinates":[[-76.6215625,39.3285395],[-76.6218233,39.3286371],[-76.6215014,39.328684],[-76.6221135,39.3287165]]}},{"type":"Feature","properties":{"layer":"Shrubs","_tile":"6/31/35"},"geometry":{"type":"Point","coordinates":[-76.621924,39.3278584]}},{"type":"Feature","properties":{"layer":"Shrubs","_tile":"6/31/36"},"geometry":{"type":"MultiPoint","coordinates":[[-76.6217027,39.3270016],[-76.6217209,39.3270067],[-76.6217385,39.3270242],[-76.6220897,39.3271001],[-76.6217529,39.3271028],[-76.6220779,39.3271068],[-76.6220801,39.327119]]}},{"type":"Feature","properties":{"layer":"Shrubs","_tile":"6/31/37"},"geometry":{"type":"MultiPoint","coordinates":[[-76.6220743,39.3267314],[-76.6220793,39.3269018],[-76.6220758,39.3269142]]}},{"type":"Feature","properties":{"layer":"Shrubs","_tile":"6/31/39"},"geometry":{"type":"MultiPoint","coordinates":[[-76.6220565,39.3255288],[-76.6221206,39.3255293],[-76.6216698,39.3257496],[-76.6216464,39.3257538],[-76.6216082,39.3257545],[-76.621581,39.3257578],[-76.6215652,39.3257588],[-76.6215965,39.3257596],[-76.6216559,39.3257635],[-76.6216065,39.325766],[-76.6215606,39.3257683],[-76.6216489,39.3257701],[-76.6219987,39.3258148],[-76.6219454,39.3258155],[-76.6218268,39.3258191],[-76.6217755,39.3258258],[-76.6217654,39.3258593],[-76.621771,39.3258773],[-76.6217732,39.3258855],[-76.6217652,39.325889],[-76.6217686,39.3258954],[-76.6217705,39.3259067],[-76.621768,39.3259155],[-76.6219633,39.3259787],[-76.6217807,39.3260048],[-76.6217385,39.3260068],[-76.6217482,39.326007]]}},{"type":"Feature","properties":{"layer":"Shrubs","_tile":"6/31/40"},"geometry":{"type":"MultiPoint","coordinates":[[-76.621813,39.3251245],[-76.6219515,39.3254265],[-76.6219647,39.3254743]]}},{"type":"Feature","properties":{"layer":"Shrubs","_tile":"6/31/41"},"geometry":{"type":"MultiPoint","coordinates":[[-76.6219234,39.3245581],[-76.6218639,39.324569],[-76.6216885,39.3247398]]}},{"type":"Feature","properties":{"layer":"Shrubs","_tile":"6/31/42"},"geometry":{"type":"MultiPoint","coordinates":[[-76.6218476,39.3240807],[-76.6218635,39.3240955],[-76.6219704,39.3242324],[-76.6220871,39.3244443],[-76.6220919,39.3244487],[-76.6220774,39.3244495],[-76.6220825,39.3244579],[-76.6220312,39.3244605],[-76.6220338,39.3244651]]}},{"type":"Feature","properties":{"layer":"Shrubs","_tile":"6/31/43"},"geometry":{"type":"MultiPoint","coordinates":[[-76.6220779,39.3235829],[-76.622004,39.3235986],[-76.6219489,39.323665],[-76.6219139,39.3236805],[-76.6215771,39.3236872],[-76.621559,39.3236989],[-76.6215903,39.3237168],[-76.6215704,39.3237199],[-76.6216032,39.3237601],[-76.6218514,39.3237635],[-76.6217205,39.3239144],[-76.6217542,39.3239565],[-76.6218231,39.3240449]]}},{"type":"Feature","properties":{"layer":"Shrubs","_tile":"6/32/32"},"geometry":{"type":"MultiPoint","coordinates":[[-76.6211054,39.3292082],[-76.6210931,39.3292173],[-76.6211061,39.3292182],[-76.6211623,39.329266],[-76.6211067,39.3292753],[-76.6211033,39.3292839],[-76.621114,39.3292947],[-76.6211011,39.3292978],[-76.6212739,39.3293462],[-76.6212518,39.3293487],[-76.6212323,39.3293495]]}},{"type":"Feature","properties":{"layer":"Shrubs","_tile":"6/32/33"},"geometry":{"type":"MultiPoint","coordinates":[[-76.6210714,39.328701],[-76.6211284,39.3287262],[-76.6212555,39.3287632]]}},{"type":"Feature","properties":{"layer":"Shrubs","_tile":"6/32/34"},"geometry":{"type":"MultiPoint","coordinates":[[-76.6214566,39.3282239],[-76.621457,39.3282449],[-76.621014,39.3282754],[-76.6208998,39.328281],[-76.6208856,39.3282819],[-76.6214465,39.3283228]]}},{"type":"Feature","properties":{"layer":"Shrubs","_tile":"6/32/35"},"geometry":{"type":"MultiPoint","coordinates":[[-76.6212158,39.3274973],[-76.6212576,39.3275717],[-76.6214538,39.327607],[-76.6213545,39.3279309],[-76.6213642,39.3279439]]}},{"type":"Feature","properties":{"layer":"Shrubs","_tile":"6/32/36"},"geometry":{"type":"MultiPoint","coordinates":[[-76.6210817,39.3270034],[-76.621498,39.3270057],[-76.6214191,39.3270093],[-76.6214934,39.3270913],[-76.6213261,39.3271205],[-76.6210699,39.3271235],[-76.6212466,39.3271284],[-76.6210785,39.3271772],[-76.6211868,39.3272317],[-76.6211698,39.3272363],[-76.6211648,39.3273401],[-76.6209106,39.3273822],[-76.6209229,39.3273823]]}},{"type":"Feature","properties":{"layer":"Shrubs","_tile":"6/32/37"},"geometry":{"type":"MultiPoint","coordinates":[[-76.6211271,39.3268157],[-76.6211366,39.3269076]]}},{"type":"Feature","properties":{"layer":"Shrubs","_tile":"6/32/39"},"geometry":{"type":"MultiPoint","coordinates":[[-76.6213409,39.3257702],[-76.6213631,39.3257772],[-76.6213626,39.3257845],[-76.6213472,39.3257844],[-76.6212361,39.3258726]]}},{"type":"Feature","properties":{"layer":"Shrubs","_tile":"6/32/40"},"geometry":{"type":"Point","coordinates":[-76.6209512,39.3250474]}},{"type":"Feature","properties":{"layer":"Shrubs","_tile":"6/32/41"},"geometry":{"type":"MultiPoint","coordinates":[[-76.6214796,39.3245845],[-76.6209065,39.3249943],[-76.6210108,39.3250283],[-76.620976,39.3250355]]}},{"type":"Feature","properties":{"layer":"Shrubs","_tile":"6/32/42"},"geometry":{"type":"MultiPoint","coordinates":[[-76.6213268,39.3240874],[-76.6210162,39.324135]]}},{"type":"Feature","properties":{"layer":"Shrubs","_tile":"6/32/43"},"geometry":{"type":"MultiPoint","coordinates":[[-76.6214578,39.3235862],[-76.6209111,39.3236186],[-76.6211426,39.3238058],[-76.6209116,39.323956],[-76.6211835,39.3239614],[-76.6209086,39.3239996]]}},{"type":"Feature","properties":{"layer":"Shrubs","_tile":"6/33/33"},"geometry":{"type":"MultiPoint","coordinates":[[-76.6202585,39.328739],[-76.6202483,39.3287448],[-76.6202577,39.3287499],[-76.6203095,39.3287565],[-76.6203238,39.3287571],[-76.6202925,39.3287591],[-76.6202779,39.3287597],[-76.6202619,39.3287606]]}},{"type":"Feature","properties":{"layer":"Shrubs","_tile":"6/33/34"},"geometry":{"type":"MultiPoint","coordinates":[[-76.6207524,39.3281466],[-76.620548,39.3282923]]}},{"type":"Feature","properties":{"layer":"Shrubs","_tile":"6/33/35"},"geometry":{"type":"MultiPoint","coordinates":[[-76.6206003,39.3277936],[-76.6205995,39.3278166],[-76.6206023,39.3278346]]}},{"type":"Feature","properties":{"layer":"Shrubs","_tile":"6/33/36"},"geometry":{"type":"MultiPoint","coordinates":[[-76.6205566,39.327084],[-76.6205642,39.3272017]]}},{"type":"Feature","properties":{"layer":"Shrubs","_tile":"6/33/37"},"geometry":{"type":"MultiPoint","coordinates":[[-76.6207238,39.3269395],[-76.620668,39.3269412]]}},{"type":"Feature","properties":{"layer":"Shrubs","_tile":"6/33/38"},"geometry":{"type":"MultiPoint","coordinates":[[-76.6205657,39.32612],[-76.6205786,39.3261249],[-76.6205654,39.3261281],[-76.6205767,39.3261366],[-76.6205693,39.3261454],[-76.620572,39.3262121],[-76.620578,39.3262152],[-76.6205614,39.326216],[-76.6205796,39.3262263],[-76.62058,39.326238],[-76.620581,39.3262509],[-76.6205817,39.3262632],[-76.6205816,39.3262739],[-76.6205825,39.3262858],[-76.6205841,39.3262934],[-76.6205861,39.3263041],[-76.6205865,39.3263124]]}},{"type":"Feature","properties":{"layer":"Shrubs","_tile":"6/33/41"},"geometry":{"type":"MultiPoint","coordinates":[[-76.6206774,39.3246032],[-76.6206582,39.3246342],[-76.6207955,39.3249474],[-76.6208841,39.3250315]]}},{"type":"Feature","properties":{"layer":"Shrubs","_tile":"6/33/42"},"geometry":{"type":"Point","coordinates":[-76.6206329,39.3245192]}},{"type":"Feature","properties":{"layer":"Shrubs","_tile":"6/33/43"},"geometry":{"type":"MultiPoint","coordinates":[[-76.6207524,39.3238256],[-76.620761,39.3238323],[-76.6207897,39.3238603],[-76.6208741,39.3239054]]}},{"type":"Feature","properties":{"layer":"Shrubs","_tile":"6/34/32"},"geometry":{"type":"Point","coordinates":[-76.6198753,39.329376]}},{"type":"Feature","properties":{"layer":"Shrubs","_tile":"6/34/36"},"geometry":{"type":"MultiPoint","coordinates":[[-76.620034,39.3269979],[-76.6200175,39.3270189],[-76.6200245,39.3270524],[-76.6200585,39.3274015],[-76.6200577,39.3274128]]}},{"type":"Feature","properties":{"layer":"Shrubs","_tile":"6/34/40"},"geometry":{"type":"MultiPoint","coordinates":[[-76.6197583,39.3254224],[-76.619786,39.3254449]]}},{"type":"Feature","properties":{"layer":"Shrubs","_tile":"6/35/32"},"geometry":{"type":"Point","coordinates":[-76.6192381,39.3290182]}},{"type":"Feature","properties":{"layer":"Shrubs","_tile":"6/35/33"},"geometry":{"type":"MultiPoint","coordinates":[[-76.6192349,39.3286868],[-76.6192168,39.3286872],[-76.6192077,39.3287066]]}},{"type":"Feature","properties":{"layer":"Shrubs","_tile":"6/35/34"},"geometry":{"type":"Point","coordinates":[-76.61916,39.3283342]}},{"type":"Feature","properties":{"layer":"Shrubs","_tile":"6/36/37"},"geometry":{"type":"MultiPoint","coordinates":[[-76.6187648,39.3264952],[-76.6185272,39.3266836],[-76.6185098,39.3267148],[-76.6184455,39.3267171],[-76.6184849,39.3267341],[-76.6184807,39.3267431],[-76.6184402,39.3267477],[-76.6184616,39.3267531]]}},{"type":"Feature","properties":{"layer":"Shrubs","_tile":"6/36/38"},"geometry":{"type":"MultiPoint","coordinates":[[-76.6184174,39.3260201],[-76.6183971,39.3260295],[-76.618765,39.3260368],[-76.618389,39.3260428],[-76.6187486,39.3260471],[-76.6187648,39.3260557],[-76.6187464,39.3260601],[-76.6183687,39.3260592],[-76.6187807,39.3260664],[-76.6187681,39.3260698],[-76.618779,39.3260775],[-76.6186653,39.3261278],[-76.6186516,39.3261362],[-76.6189306,39.3261855],[-76.6189151,39.3261874],[-76.6186406,39.3261893],[-76.6186429,39.3261945],[-76.6186245,39.3261958],[-76.6189325,39.3261981],[-76.6189431,39.3261991],[-76.6189539,39.3261994],[-76.6186172,39.3262042],[-76.6189441,39.3262091],[-76.6186104,39.3262121],[-76.6186198,39.3262134],[-76.6186015,39.3262181],[-76.618613,39.3262201],[-76.6186033,39.326224],[-76.6183985,39.3263563],[-76.6185377,39.3264451],[-76.6187372,39.3264819]]}},{"type":"Feature","properties":{"layer":"Shrubs","_tile":"6/36/39"},"geometry":{"type":"MultiPoint","coordinates":[[-76.6185471,39.3259201],[-76.6185305,39.3259342],[-76.6185126,39.3259451],[-76.6184975,39.3259574],[-76.6184769,39.3259733],[-76.6184698,39.32598],[-76.6184547,39.3259904],[-76.6188096,39.3260024]]}},{"type":"Feature","properties":{"layer":"Shrubs","_tile":"6/37/37"},"geometry":{"type":"Point","coordinates":[-76.6181491,39.326516]}},{"type":"Feature","properties":{"layer":"Shrubs","_tile":"6/37/38"},"geometry":{"type":"MultiPoint","coordinates":[[-76.6183527,39.3260701],[-76.6183311,39.3260832],[-76.6183166,39.3260962],[-76.6182689,39.3261254],[-76.6182253,39.3261637],[-76.6182122,39.3261762],[-76.618186,39.3261889],[-76.6181348,39.3262322],[-76.6181159,39.3262444],[-76.6181236,39.3262492],[-76.6181064,39.3262521],[-76.6181125,39.3262593],[-76.6180689,39.326283]]}}]}