{"type":"FeatureCollection","features":[{"type":"Feature","properties":{"layer":"Sidewalk Ramp","_tile":"6/26/38"},"geometry":{"type":"Polygon","coordinates":[[[-76.6246412,39.3261201],[-76.6246501,39.3261152],[-76.6246975,39.3261795],[-76.624675,39.3261898],[-76.6246411,39.326144],[-76.6246412,39.3261201]]]}},{"type":"Feature","properties":{"layer":"Sidewalk Ramp","_tile":"6/27/37"},"geometry":{"type":"Polygon","coordinates":[[[-76.6245095,39.3265043],[-76.6244909,39.3265134],[-76.6244851,39.3265042],[-76.6245095,39.3265043]]]}},{"type":"Feature","properties":{"layer":"Sidewalk Ramp","_tile":"6/27/38"},"geometry":{"type":"Polygon","coordinates":[[[-76.6244789,39.3264944],[-76.6245824,39.3264454],[-76.6245952,39.3264623],[-76.6244909,39.3265134],[-76.6244789,39.3264944]]]}},{"type":"Feature","properties":{"layer":"Sidewalk Ramp","_tile":"6/27/38"},"geometry":{"type":"Polygon","coordinates":[[[-76.6246284,39.3261269],[-76.6246501,39.3261152],[-76.6246608,39.3261297],[-76.6246606,39.3261703],[-76.6246284,39.3261269]]]}},{"type":"Feature","properties":{"layer":"Sidewalk Ramp","_tile":"6/29/40"},"geometry":{"type":"Polygon","coordinates":[[[-76.6231444,39.3253145],[-76.6231553,39.3253285],[-76.6230958,39.3253565],[-76.623085,39.3253424],[-76.6231444,39.3253145]]]}},{"type":"Feature","properties":{"layer":"Sidewalk Ramp","_tile":"6/29/41"},"geometry":{"type":"Polygon","coordinates":[[[-76.6233047,39.3248441],[-76.6232569,39.3247829],[-76.6232824,39.324771],[-76.6233301,39.3248321],[-76.6233189,39.3248375],[-76.6232814,39.3247893],[-76.6232783,39.3247907],[-76.6233158,39.3248389],[-76.6233047,39.3248441]]]}},{"type":"Feature","properties":{"layer":"Sidewalk Ramp","_tile":"6/30/32"},"geometry":{"type":"Polygon","coordinates":[[[-76.6224806,39.3290705],[-76.6224778,39.3290801],[-76.6223607,39.3290589],[-76.6223789,39.3289982],[-76.6223946,39.3290011],[-76.6223793,39.3290521],[-76.6224806,39.3290705]]]}},{"type":"Feature","properties":{"layer":"Sidewalk Ramp","_tile":"6/32/32"},"geometry":{"type":"Polygon","coordinates":[[[-76.6212357,39.3289342],[-76.6212363,39.3289427],[-76.621217,39.3289435],[-76.6212164,39.3289342],[-76.6212357,39.3289342]]]}},{"type":"Feature","properties":{"layer":"Sidewalk Ramp","_tile":"6/32/32"},"geometry":{"type":"Polygon","coordinates":[[[-76.6210133,39.329272],[-76.6210334,39.3292721],[-76.6210352,39.3293099],[-76.6211222,39.3293079],[-76.6211226,39.3293255],[-76.6210148,39.329329],[-76.6210133,39.329272]]]}},{"type":"Feature","properties":{"layer":"Sidewalk Ramp","_tile":"6/32/32"},"geometry":{"type":"Polygon","coordinates":[[[-76.6212243,39.3290431],[-76.6212412,39.3290423],[-76.6212552,39.329223],[-76.6212383,39.3292238],[-76.6212243,39.3290431]]]}},{"type":"Feature","properties":{"layer":"Sidewalk Ramp","_tile":"6/32/33"},"geometry":{"type":"Polygon","coordinates":[[[-76.6212049,39.3287637],[-76.6212242,39.328763],[-76.6212363,39.3289427],[-76.621217,39.3289435],[-76.6212049,39.3287637]]]}},{"type":"Feature","properties":{"layer":"Sidewalk Ramp","_tile":"6/32/33"},"geometry":{"type":"Polygon","coordinates":[[[-76.6210823,39.3286741],[-76.6210827,39.3286891],[-76.6209975,39.3286926],[-76.6209998,39.3287321],[-76.6209786,39.3287336],[-76.6209766,39.3286791],[-76.6210823,39.3286741]]]}},{"type":"Feature","properties":{"layer":"Sidewalk Ramp","_tile":"6/32/34"},"geometry":{"type":"Polygon","coordinates":[[[-76.6209035,39.3279964],[-76.6209054,39.3280151],[-76.6210584,39.3280094],[-76.6210597,39.3280237],[-76.6208769,39.3280314],[-76.6208737,39.3279995],[-76.6209035,39.3279964]]]}},{"type":"Feature","properties":{"layer":"Sidewalk Ramp","_tile":"6/33/33"},"geometry":{"type":"Polygon","coordinates":[[[-76.6203233,39.3284432],[-76.6203251,39.3284463],[-76.6202614,39.3284484],[-76.6202612,39.328443],[-76.6203233,39.3284432]]]}},{"type":"Feature","properties":{"layer":"Sidewalk Ramp","_tile":"6/33/34"},"geometry":{"type":"Polygon","coordinates":[[[-76.6202532,39.3283195],[-76.6202649,39.3283196],[-76.6202716,39.3284335],[-76.6203169,39.328432],[-76.6203251,39.3284463],[-76.6202614,39.3284484],[-76.6202532,39.3283195]]]}},{"type":"Feature","properties":{"layer":"Sidewalk Ramp","_tile":"6/33/34"},"geometry":{"type":"Polygon","coordinates":[[[-76.62088,39.3280313],[-76.6208769,39.3280314],[-76.6208737,39.3279995],[-76.6208802,39.3279988],[-76.62088,39.3280313]]]}},{"type":"Feature","properties":{"layer":"Sidewalk Ramp","_tile":"6/33/37"},"geometry":{"type":"Polygon","coordinates":[[[-76.620377,39.3268654],[-76.6204941,39.3268595],[-76.6204934,39.3268684],[-76.620378,39.3268747],[-76.620377,39.3268654]]]}},{"type":"Feature","properties":{"layer":"Sidewalk Ramp","_tile":"6/33/37"},"geometry":{"type":"Polygon","coordinates":[[[-76.6204421,39.3268275],[-76.620441,39.3267864],[-76.6203681,39.3267902],[-76.6203648,39.3267748],[-76.6204556,39.3267746],[-76.6204576,39.3268264],[-76.6204421,39.3268275]]]}},{"type":"Feature","properties":{"layer":"Sidewalk Ramp","_tile":"6/34/32"},"geometry":{"type":"Polygon","coordinates":[[[-76.6197223,39.3289293],[-76.6197233,39.3289407],[-76.619678,39.3289434],[-76.6196771,39.3289292],[-76.6197223,39.3289293]]]}},{"type":"Feature","properties":{"layer":"Sidewalk Ramp","_tile":"6/34/32"},"geometry":{"type":"Polygon","coordinates":[[[-76.619727,39.3292803],[-76.6197211,39.3291802],[-76.619693,39.3291808],[-76.6196919,39.3291661],[-76.6197367,39.3291666],[-76.6197441,39.3292797],[-76.619727,39.3292803]]]}},{"type":"Feature","properties":{"layer":"Sidewalk Ramp","_tile":"6/34/33"},"geometry":{"type":"Polygon","coordinates":[[[-76.6196971,39.3288296],[-76.6197135,39.3288299],[-76.6197233,39.3289407],[-76.619678,39.3289434],[-76.6196771,39.3289292],[-76.6197042,39.3289282],[-76.6196971,39.3288296]]]}},{"type":"Feature","properties":{"layer":"Sidewalk Ramp","_tile":"6/34/33"},"geometry":{"type":"Polygon","coordinates":[[[-76.6197499,39.3287351],[-76.6197483,39.328715],[-76.6199024,39.3287105],[-76.619902,39.3287023],[-76.6199337,39.3287011],[-76.6199342,39.3287272],[-76.6197499,39.3287351]]]}},{"type":"Feature","properties":{"layer":"Sidewalk Ramp","_tile":"6/34/34"},"geometry":{"type":"Polygon","coordinates":[[[-76.6199679,39.3281389],[-76.6199894,39.3281381],[-76.619988,39.3281997],[-76.6199718,39.3282711],[-76.6199517,39.3282683],[-76.6199666,39.3282011],[-76.6199679,39.3281389]]]}},{"type":"Feature","properties":{"layer":"Sidewalk Ramp","_tile":"6/34/34"},"geometry":{"type":"Polygon","coordinates":[[[-76.6196024,39.3282209],[-76.6196399,39.3282196],[-76.6196658,39.3282792],[-76.6196681,39.3283099],[-76.6196478,39.3283108],[-76.6196464,39.3282888],[-76.6196475,39.3282887],[-76.6196257,39.3282384],[-76.6196223,39.3282386],[-76.6196211,39.3282898],[-76.6196259,39.3282896],[-76.6196273,39.3283115],[-76.619602,39.3283126],[-76.6196024,39.3282209]]]}},{"type":"Feature","properties":{"layer":"Sidewalk Ramp","_tile":"6/34/36"},"geometry":{"type":"Polygon","coordinates":[[[-76.6200448,39.327368],[-76.6200222,39.3273689],[-76.6200107,39.3272044],[-76.6200332,39.3272034],[-76.6200428,39.3273411],[-76.6200448,39.327368]]]}},{"type":"Feature","properties":{"layer":"Sidewalk Ramp","_tile":"6/34/37"},"geometry":{"type":"Polygon","coordinates":[[[-76.6201126,39.3267827],[-76.6201993,39.3267806],[-76.6201993,39.326796],[-76.6201376,39.3267991],[-76.6201396,39.3268418],[-76.6201165,39.326841],[-76.6201126,39.3267827]]]}},{"type":"Feature","properties":{"layer":"Sidewalk Ramp","_tile":"6/35/34"},"geometry":{"type":"Polygon","coordinates":[[[-76.6194802,39.328215],[-76.6194777,39.3282282],[-76.6194692,39.3282274],[-76.6194439,39.3282254],[-76.6194086,39.3282253],[-76.6193849,39.3282259],[-76.6193849,39.3282095],[-76.6193848,39.3282084],[-76.6194228,39.3282096],[-76.6194537,39.3282127],[-76.6194802,39.328215]]]}},{"type":"Feature","properties":{"layer":"Sidewalk Ramp","_tile":"6/35/34"},"geometry":{"type":"Polygon","coordinates":[[[-76.6195999,39.3282907],[-76.6196015,39.3282209],[-76.6196221,39.3282202],[-76.6196219,39.3282556],[-76.6196211,39.3282898],[-76.6196217,39.3282898],[-76.6196216,39.3283118],[-76.6195997,39.3283128],[-76.6195999,39.3282907]]]}},{"type":"Feature","properties":{"layer":"Sidewalk Ramp","_tile":"6/35/34"},"geometry":{"type":"Polygon","coordinates":[[[-76.6193057,39.3282293],[-76.6192573,39.3282335],[-76.6192553,39.3282171],[-76.6192678,39.3282147],[-76.6192829,39.3282126],[-76.619301,39.3282106],[-76.6193047,39.3282106],[-76.6193048,39.3282116],[-76.6193057,39.3282293]]]}},{"type":"Feature","properties":{"layer":"Sidewalk Ramp","_tile":"6/37/34"},"geometry":{"type":"Polygon","coordinates":[[[-76.6178132,39.3279731],[-76.6178118,39.327947],[-76.6178412,39.3279471],[-76.617843,39.3279772],[-76.6178132,39.3279731]]]}},{"type":"Feature","properties":{"layer":"Sidewalk Ramp","_tile":"6/37/34"},"geometry":{"type":"Polygon","coordinates":[[[-76.6178315,39.3282368],[-76.6178276,39.328188],[-76.6178568,39.32818],[-76.6178601,39.3282376],[-76.6178315,39.3282368]]]}},{"type":"Feature","properties":{"layer":"Sidewalk Ramp","_tile":"6/37/35"},"geometry":{"type":"Polygon","coordinates":[[[-76.6178127,39.3279622],[-76.6178104,39.3279231],[-76.6178392,39.327913],[-76.6178421,39.3279623],[-76.6178127,39.3279622]]]}},{"type":"Feature","properties":{"layer":"Sidewalk Ramp","_tile":"6/37/37"},"geometry":{"type":"Polygon","coordinates":[[[-76.6177473,39.3269464],[-76.6177455,39.3269102],[-76.6177732,39.3268976],[-76.6177768,39.3269555],[-76.6177473,39.3269464]]]}}]}