{"type":"FeatureCollection","features":[{"type":"Feature","properties":{"layer":"Stairs","_tile":"6/26/38"},"geometry":{"type":"Polygon","coordinates":[[[-76.6248788,39.3260496],[-76.62487,39.3260548],[-76.6248512,39.3260355],[-76.6248598,39.3260304],[-76.6248788,39.3260496]]]}},{"type":"Feature","properties":{"layer":"Stairs","_tile":"6/26/39"},"geometry":{"type":"Polygon","coordinates":[[[-76.625096,39.32553],[-76.6250974,39.3255318],[-76.6251004,39.3255355],[-76.6251016,39.3255372],[-76.6250915,39.325542],[-76.6250877,39.3255372],[-76.6250849,39.3255335],[-76.625082,39.3255299],[-76.625096,39.32553]]]}},{"type":"Feature","properties":{"layer":"Stairs","_tile":"6/26/39"},"geometry":{"type":"Polygon","coordinates":[[[-76.6249925,39.325569],[-76.625005,39.3255631],[-76.6250155,39.3255764],[-76.6250032,39.3255822],[-76.6250029,39.325582],[-76.6249997,39.3255781],[-76.6249925,39.325569]]]}},{"type":"Feature","properties":{"layer":"Stairs","_tile":"6/26/39"},"geometry":{"type":"Polygon","coordinates":[[[-76.6248563,39.3260326],[-76.6248598,39.3260304],[-76.624862,39.3260326],[-76.6248563,39.3260326]]]}},{"type":"Feature","properties":{"layer":"Stairs","_tile":"6/26/40"},"geometry":{"type":"Polygon","coordinates":[[[-76.6250934,39.3250419],[-76.6250635,39.325055],[-76.6250562,39.3250582],[-76.6250434,39.3250417],[-76.6250934,39.3250419]]]}},{"type":"Feature","properties":{"layer":"Stairs","_tile":"6/26/40"},"geometry":{"type":"Polygon","coordinates":[[[-76.6249436,39.3250414],[-76.6249494,39.3250488],[-76.6249357,39.3250551],[-76.6248488,39.3250955],[-76.6248456,39.3250914],[-76.6248666,39.3250814],[-76.6248498,39.3250599],[-76.6248905,39.3250412],[-76.6249436,39.3250414]]]}},{"type":"Feature","properties":{"layer":"Stairs","_tile":"6/26/40"},"geometry":{"type":"Polygon","coordinates":[[[-76.6248636,39.3253423],[-76.624879,39.3253649],[-76.624822,39.3253921],[-76.6248072,39.3253953],[-76.6248018,39.3253986],[-76.6247953,39.3253902],[-76.6247962,39.3253853],[-76.6248127,39.3253729],[-76.6248636,39.3253423]]]}},{"type":"Feature","properties":{"layer":"Stairs","_tile":"6/26/40"},"geometry":{"type":"Polygon","coordinates":[[[-76.6248258,39.325397],[-76.6248825,39.3253701],[-76.6248971,39.3253915],[-76.6248781,39.3254018],[-76.6248647,39.3254091],[-76.6248442,39.3254202],[-76.6248264,39.3254299],[-76.6248201,39.3254217],[-76.6248261,39.3254187],[-76.6248167,39.325407],[-76.6248284,39.3254001],[-76.6248258,39.325397]]]}},{"type":"Feature","properties":{"layer":"Stairs","_tile":"6/26/40"},"geometry":{"type":"Polygon","coordinates":[[[-76.6251199,39.3255083],[-76.6251324,39.3255022],[-76.6251429,39.3255155],[-76.6251304,39.3255214],[-76.6251199,39.3255083]]]}},{"type":"Feature","properties":{"layer":"Stairs","_tile":"6/26/40"},"geometry":{"type":"Polygon","coordinates":[[[-76.6250799,39.3255273],[-76.6250901,39.3255225],[-76.6250974,39.3255318],[-76.6251004,39.3255355],[-76.6251016,39.3255372],[-76.6250915,39.325542],[-76.6250877,39.3255372],[-76.6250849,39.3255335],[-76.6250799,39.3255273]]]}},{"type":"Feature","properties":{"layer":"Stairs","_tile":"6/26/41"},"geometry":{"type":"Polygon","coordinates":[[[-76.6251693,39.3249227],[-76.6252114,39.3249807],[-76.6251735,39.3249987],[-76.625129,39.3249416],[-76.6251693,39.3249227]]]}},{"type":"Feature","properties":{"layer":"Stairs","_tile":"6/26/41"},"geometry":{"type":"Polygon","coordinates":[[[-76.6251193,39.3249462],[-76.6251317,39.3249624],[-76.6250978,39.3249786],[-76.6250905,39.3249812],[-76.6250879,39.3249823],[-76.6251277,39.3250268],[-76.6251163,39.3250318],[-76.6250635,39.325055],[-76.6250589,39.325057],[-76.6250552,39.325057],[-76.6250092,39.3249977],[-76.6250669,39.3249706],[-76.6251193,39.3249462]]]}},{"type":"Feature","properties":{"layer":"Stairs","_tile":"6/26/41"},"geometry":{"type":"Polygon","coordinates":[[[-76.6249295,39.3250234],[-76.6249494,39.3250488],[-76.6249357,39.3250551],[-76.6249324,39.3250566],[-76.6248575,39.3250564],[-76.6249295,39.3250234]]]}},{"type":"Feature","properties":{"layer":"Stairs","_tile":"6/26/41"},"geometry":{"type":"Polygon","coordinates":[[[-76.6248478,39.3248612],[-76.6248735,39.3248492],[-76.6248998,39.3248824],[-76.6249338,39.3249252],[-76.6249423,39.3249358],[-76.6249559,39.324953],[-76.624968,39.324968],[-76.6249746,39.3249787],[-76.6249487,39.3249917],[-76.6248478,39.3248612]]]}},{"type":"Feature","properties":{"layer":"Stairs","_tile":"6/26/41"},"geometry":{"type":"Polygon","coordinates":[[[-76.6246494,39.3245617],[-76.6246597,39.3245748],[-76.624707,39.3246361],[-76.6247317,39.324668],[-76.6247555,39.3246987],[-76.6247677,39.3247146],[-76.6247793,39.3247294],[-76.6247651,39.3247447],[-76.6247798,39.3247688],[-76.6247761,39.3247726],[-76.6246492,39.3246126],[-76.6246494,39.3245617]]]}},{"type":"Feature","properties":{"layer":"Stairs","_tile":"6/26/42"},"geometry":{"type":"Polygon","coordinates":[[[-76.6246503,39.3244073],[-76.6246689,39.3244308],[-76.6246639,39.3244391],[-76.62465,39.324449],[-76.6246503,39.3244073]],[[-76.6246494,39.3245617],[-76.6246542,39.3245677],[-76.6246494,39.3245676],[-76.6246494,39.3245617]]]}},{"type":"Feature","properties":{"layer":"Stairs","_tile":"6/26/43"},"geometry":{"type":"Polygon","coordinates":[[[-76.624952,39.3237465],[-76.6249369,39.3237536],[-76.6249354,39.3237516],[-76.6248997,39.3237683],[-76.6248804,39.3237434],[-76.6249639,39.3237081],[-76.6249588,39.3237017],[-76.6249121,39.3237234],[-76.6248988,39.3237051],[-76.6248944,39.3236989],[-76.6248899,39.3236926],[-76.6249394,39.3236673],[-76.6249562,39.3236513],[-76.6249666,39.323667],[-76.625032,39.3237571],[-76.6250346,39.3237608],[-76.6250274,39.323765],[-76.6250097,39.3237748],[-76.6249965,39.3237813],[-76.6249905,39.3237737],[-76.6249887,39.3237712],[-76.6249939,39.3237689],[-76.6249964,39.323764],[-76.6249961,39.3237593],[-76.6249771,39.3237346],[-76.624952,39.3237465]]]}},{"type":"Feature","properties":{"layer":"Stairs","_tile":"6/26/43"},"geometry":{"type":"Polygon","coordinates":[[[-76.6248429,39.323617],[-76.6248338,39.3236214],[-76.6248321,39.3236223],[-76.6248299,39.3236198],[-76.6248255,39.3236143],[-76.6248377,39.3236083],[-76.6248441,39.3236163],[-76.6248429,39.323617]]]}},{"type":"Feature","properties":{"layer":"Stairs","_tile":"6/27/41"},"geometry":{"type":"Polygon","coordinates":[[[-76.6246423,39.3245524],[-76.6246597,39.3245748],[-76.624669,39.3245869],[-76.6246687,39.3246372],[-76.6246454,39.3246078],[-76.6246021,39.3245522],[-76.6246423,39.3245524]]]}},{"type":"Feature","properties":{"layer":"Stairs","_tile":"6/27/42"},"geometry":{"type":"Polygon","coordinates":[[[-76.6242843,39.324148],[-76.6242974,39.3241422],[-76.6242707,39.3241092],[-76.6242707,39.324109],[-76.6243441,39.3240779],[-76.6243685,39.3241092],[-76.6243379,39.324123],[-76.6243743,39.3241716],[-76.6244273,39.3241475],[-76.6244284,39.3241488],[-76.6244345,39.3241562],[-76.6244366,39.3241587],[-76.6243313,39.3242075],[-76.6243001,39.3241665],[-76.6242843,39.324148]]]}},{"type":"Feature","properties":{"layer":"Stairs","_tile":"6/27/42"},"geometry":{"type":"Polygon","coordinates":[[[-76.6244812,39.3243974],[-76.6245079,39.3243848],[-76.6245329,39.3244163],[-76.6245519,39.3244404],[-76.6246423,39.3243972],[-76.6246689,39.3244308],[-76.6246639,39.3244391],[-76.6246465,39.3244515],[-76.6245865,39.3244802],[-76.6246056,39.3245042],[-76.6246103,39.3245109],[-76.6246342,39.324542],[-76.6246542,39.3245677],[-76.624614,39.3245675],[-76.6244812,39.3243974]]]}},{"type":"Feature","properties":{"layer":"Stairs","_tile":"6/27/42"},"geometry":{"type":"Polygon","coordinates":[[[-76.6245942,39.3241907],[-76.6246234,39.324231],[-76.6246444,39.3242598],[-76.6246049,39.3242788],[-76.6245786,39.3242912],[-76.6245526,39.3243036],[-76.6244996,39.324329],[-76.624447,39.3243541],[-76.6243965,39.324283],[-76.624445,39.3242603],[-76.6244974,39.3242359],[-76.6245468,39.3242128],[-76.6245605,39.3242064],[-76.624568,39.3242027],[-76.6245942,39.3241907]]]}},{"type":"Feature","properties":{"layer":"Stairs","_tile":"6/27/43"},"geometry":{"type":"Polygon","coordinates":[[[-76.6243424,39.3240786],[-76.6243441,39.3240779],[-76.6243447,39.3240786],[-76.6243424,39.3240786]]]}},{"type":"Feature","properties":{"layer":"Stairs","_tile":"6/27/43"},"geometry":{"type":"Polygon","coordinates":[[[-76.6244536,39.323736],[-76.6244568,39.3237402],[-76.6244653,39.3237508],[-76.6244458,39.3237601],[-76.6244429,39.3237617],[-76.6244321,39.3237481],[-76.624431,39.3237468],[-76.624433,39.3237458],[-76.6244338,39.3237456],[-76.6244536,39.323736]]]}},{"type":"Feature","properties":{"layer":"Stairs","_tile":"6/27/43"},"geometry":{"type":"Polygon","coordinates":[[[-76.6243994,39.3237669],[-76.6244005,39.3237664],[-76.6244126,39.3237816],[-76.6244161,39.3237859],[-76.6244228,39.3237945],[-76.6244103,39.3238005],[-76.6244059,39.3237948],[-76.6243881,39.3237724],[-76.6243982,39.3237675],[-76.6243994,39.3237669]]]}},{"type":"Feature","properties":{"layer":"Stairs","_tile":"6/27/43"},"geometry":{"type":"Polygon","coordinates":[[[-76.6241098,39.3237006],[-76.6241192,39.3236962],[-76.6241283,39.323708],[-76.6241168,39.3237135],[-76.6241077,39.3237016],[-76.6241098,39.3237006]]]}},{"type":"Feature","properties":{"layer":"Stairs","_tile":"6/27/43"},"geometry":{"type":"Polygon","coordinates":[[[-76.6240668,39.3237207],[-76.6240788,39.3237151],[-76.6240877,39.3237271],[-76.6240736,39.3237337],[-76.6240643,39.3237217],[-76.6240668,39.3237207]]]}},{"type":"Feature","properties":{"layer":"Stairs","_tile":"6/27/43"},"geometry":{"type":"Polygon","coordinates":[[[-76.6240254,39.32374],[-76.6240352,39.3237354],[-76.6240445,39.3237474],[-76.6240322,39.3237532],[-76.6240254,39.3237443],[-76.6240254,39.32374]]]}},{"type":"Feature","properties":{"layer":"Stairs","_tile":"6/28/35"},"geometry":{"type":"Polygon","coordinates":[[[-76.6239143,39.3278133],[-76.6239146,39.3278246],[-76.623906,39.3278247],[-76.6238929,39.3278247],[-76.623887,39.3278248],[-76.6238869,39.3278134],[-76.6239143,39.3278133]]]}},{"type":"Feature","properties":{"layer":"Stairs","_tile":"6/28/36"},"geometry":{"type":"Polygon","coordinates":[[[-76.6235087,39.3269892],[-76.6235127,39.3270019],[-76.6234906,39.3270062],[-76.6234839,39.3270073],[-76.6234799,39.3269941],[-76.6234991,39.3269905],[-76.6235052,39.3269894],[-76.6235063,39.3269892],[-76.6235087,39.3269892]]]}},{"type":"Feature","properties":{"layer":"Stairs","_tile":"6/28/36"},"geometry":{"type":"Polygon","coordinates":[[[-76.6234527,39.326999],[-76.6234566,39.3270122],[-76.6234577,39.3270156],[-76.6234445,39.3270179],[-76.6233985,39.3270265],[-76.6233955,39.3270121],[-76.6234527,39.326999]]]}},{"type":"Feature","properties":{"layer":"Stairs","_tile":"6/28/37"},"geometry":{"type":"Polygon","coordinates":[[[-76.6235086,39.3269887],[-76.6235127,39.3270019],[-76.6234998,39.3270044],[-76.623483,39.3270043],[-76.6234799,39.3269941],[-76.6234991,39.3269905],[-76.6235052,39.3269894],[-76.6235086,39.3269887]]]}},{"type":"Feature","properties":{"layer":"Stairs","_tile":"6/28/37"},"geometry":{"type":"Polygon","coordinates":[[[-76.6234527,39.326999],[-76.6234542,39.3270043],[-76.6234301,39.3270042],[-76.6234527,39.326999]]]}},{"type":"Feature","properties":{"layer":"Stairs","_tile":"6/28/39"},"geometry":{"type":"Polygon","coordinates":[[[-76.6236405,39.3255494],[-76.6236587,39.3255412],[-76.6236612,39.3255446],[-76.6236648,39.3255495],[-76.6236684,39.3255541],[-76.6236786,39.3255679],[-76.6236817,39.3255718],[-76.6236635,39.3255801],[-76.6236405,39.3255494]]]}},{"type":"Feature","properties":{"layer":"Stairs","_tile":"6/28/41"},"geometry":{"type":"Polygon","coordinates":[[[-76.623392,39.3249304],[-76.6233981,39.3249382],[-76.6233906,39.3249417],[-76.6233906,39.3249311],[-76.623392,39.3249304]]]}},{"type":"Feature","properties":{"layer":"Stairs","_tile":"6/28/42"},"geometry":{"type":"Polygon","coordinates":[[[-76.6235533,39.3241823],[-76.6235789,39.3242141],[-76.6235636,39.3242216],[-76.623547,39.3242012],[-76.623538,39.3241898],[-76.6235533,39.3241823]]]}},{"type":"Feature","properties":{"layer":"Stairs","_tile":"6/28/43"},"geometry":{"type":"Polygon","coordinates":[[[-76.6234445,39.3235724],[-76.6234498,39.3235793],[-76.6234403,39.3235839],[-76.6234297,39.3235889],[-76.6234295,39.3235889],[-76.6234212,39.3235781],[-76.6234212,39.323578],[-76.6234333,39.3235723],[-76.6234445,39.3235724]]]}},{"type":"Feature","properties":{"layer":"Stairs","_tile":"6/28/43"},"geometry":{"type":"Polygon","coordinates":[[[-76.6240229,39.3237412],[-76.6240352,39.3237354],[-76.6240445,39.3237474],[-76.6240322,39.3237532],[-76.6240229,39.3237412]]]}},{"type":"Feature","properties":{"layer":"Stairs","_tile":"6/28/43"},"geometry":{"type":"Polygon","coordinates":[[[-76.6239908,39.3237561],[-76.6239926,39.3237552],[-76.6240019,39.3237674],[-76.6239888,39.3237736],[-76.6239794,39.3237614],[-76.6239817,39.3237603],[-76.6239908,39.3237561]]]}},{"type":"Feature","properties":{"layer":"Stairs","_tile":"6/28/43"},"geometry":{"type":"Polygon","coordinates":[[[-76.6239493,39.3237755],[-76.623952,39.3237741],[-76.6239616,39.3237864],[-76.6239476,39.3237929],[-76.623938,39.3237806],[-76.6239493,39.3237755]]]}},{"type":"Feature","properties":{"layer":"Stairs","_tile":"6/28/43"},"geometry":{"type":"Polygon","coordinates":[[[-76.6234678,39.3236022],[-76.6234748,39.3236114],[-76.623476,39.323613],[-76.6234565,39.3236222],[-76.6234481,39.3236115],[-76.6234678,39.3236022]]]}},{"type":"Feature","properties":{"layer":"Stairs","_tile":"6/28/43"},"geometry":{"type":"Polygon","coordinates":[[[-76.6234904,39.3236314],[-76.6234992,39.3236427],[-76.6235004,39.3236443],[-76.6234806,39.3236536],[-76.6234705,39.3236407],[-76.6234904,39.3236314]]]}},{"type":"Feature","properties":{"layer":"Stairs","_tile":"6/28/43"},"geometry":{"type":"Polygon","coordinates":[[[-76.6235266,39.3236778],[-76.6235292,39.3236812],[-76.6235089,39.3236908],[-76.6235002,39.3236794],[-76.6235204,39.3236698],[-76.6235266,39.3236778]]]}},{"type":"Feature","properties":{"layer":"Stairs","_tile":"6/28/43"},"geometry":{"type":"Polygon","coordinates":[[[-76.6235516,39.3237099],[-76.623531,39.3237196],[-76.6235258,39.3237129],[-76.6235464,39.3237032],[-76.6235516,39.3237099]]]}},{"type":"Feature","properties":{"layer":"Stairs","_tile":"6/28/43"},"geometry":{"type":"Polygon","coordinates":[[[-76.6235792,39.3237452],[-76.6235581,39.323755],[-76.623551,39.3237457],[-76.6235719,39.3237359],[-76.6235792,39.3237452]]]}},{"type":"Feature","properties":{"layer":"Stairs","_tile":"6/28/43"},"geometry":{"type":"Polygon","coordinates":[[[-76.6236008,39.3237731],[-76.6235796,39.3237831],[-76.6235741,39.3237759],[-76.6235954,39.323766],[-76.6236008,39.3237731]]]}},{"type":"Feature","properties":{"layer":"Stairs","_tile":"6/28/43"},"geometry":{"type":"Polygon","coordinates":[[[-76.6236236,39.3238022],[-76.623602,39.3238124],[-76.6235979,39.3238069],[-76.6236194,39.3237968],[-76.6236236,39.3238022]]]}},{"type":"Feature","properties":{"layer":"Stairs","_tile":"6/28/43"},"geometry":{"type":"Polygon","coordinates":[[[-76.6236482,39.3238339],[-76.6236264,39.3238442],[-76.6236212,39.3238373],[-76.6236429,39.3238269],[-76.6236482,39.3238339]]]}},{"type":"Feature","properties":{"layer":"Stairs","_tile":"6/29/34"},"geometry":{"type":"Polygon","coordinates":[[[-76.6228978,39.327968],[-76.6229069,39.3279634],[-76.6229244,39.3279635],[-76.6229257,39.327965],[-76.6229294,39.3279695],[-76.6229329,39.3279734],[-76.6229117,39.3279843],[-76.6228978,39.327968]]]}},{"type":"Feature","properties":{"layer":"Stairs","_tile":"6/29/34"},"geometry":{"type":"Polygon","coordinates":[[[-76.6229239,39.3279965],[-76.6229416,39.3279859],[-76.6229497,39.3279939],[-76.622932,39.3280046],[-76.6229239,39.3279965]]]}},{"type":"Feature","properties":{"layer":"Stairs","_tile":"6/29/35"},"geometry":{"type":"Polygon","coordinates":[[[-76.6231149,39.3279319],[-76.6231241,39.3279194],[-76.6231348,39.3279242],[-76.6231257,39.3279367],[-76.6231149,39.3279319]]]}},{"type":"Feature","properties":{"layer":"Stairs","_tile":"6/29/35"},"geometry":{"type":"Polygon","coordinates":[[[-76.6228877,39.3279395],[-76.6228986,39.3279337],[-76.6229099,39.3279466],[-76.6228931,39.3279554],[-76.62289,39.3279571],[-76.6228821,39.3279479],[-76.6228788,39.3279441],[-76.6228877,39.3279395]]]}},{"type":"Feature","properties":{"layer":"Stairs","_tile":"6/29/35"},"geometry":{"type":"Polygon","coordinates":[[[-76.6228978,39.327968],[-76.622919,39.3279573],[-76.6229257,39.327965],[-76.6229294,39.3279695],[-76.6229329,39.3279734],[-76.6229224,39.3279787],[-76.622907,39.3279787],[-76.6228978,39.327968]]]}},{"type":"Feature","properties":{"layer":"Stairs","_tile":"6/29/36"},"geometry":{"type":"Polygon","coordinates":[[[-76.6233992,39.3270264],[-76.6233985,39.3270265],[-76.6233955,39.3270121],[-76.6233992,39.3270112],[-76.6233992,39.3270264]]]}},{"type":"Feature","properties":{"layer":"Stairs","_tile":"6/29/36"},"geometry":{"type":"Polygon","coordinates":[[[-76.62308,39.3271091],[-76.623084,39.3271212],[-76.6230623,39.3271255],[-76.6230584,39.3271133],[-76.62308,39.3271091]]]}},{"type":"Feature","properties":{"layer":"Stairs","_tile":"6/29/38"},"geometry":{"type":"Polygon","coordinates":[[[-76.6228819,39.3264072],[-76.6228828,39.3264105],[-76.6228853,39.3264189],[-76.6228865,39.3264232],[-76.6228787,39.3264246],[-76.6228578,39.3264283],[-76.6228531,39.3264124],[-76.6228819,39.3264072]]]}},{"type":"Feature","properties":{"layer":"Stairs","_tile":"6/29/38"},"geometry":{"type":"Polygon","coordinates":[[[-76.6232626,39.3263674],[-76.6232867,39.3263561],[-76.6232959,39.3263679],[-76.6232717,39.3263793],[-76.6232626,39.3263674]]]}},{"type":"Feature","properties":{"layer":"Stairs","_tile":"6/29/38"},"geometry":{"type":"Polygon","coordinates":[[[-76.6232853,39.3263967],[-76.6233096,39.3263853],[-76.6233206,39.3263994],[-76.6232963,39.3264108],[-76.6232853,39.3263967]]]}},{"type":"Feature","properties":{"layer":"Stairs","_tile":"6/29/38"},"geometry":{"type":"Polygon","coordinates":[[[-76.6232732,39.3263386],[-76.623249,39.32635],[-76.6232379,39.3263358],[-76.6232622,39.3263245],[-76.6232732,39.3263386]]]}},{"type":"Feature","properties":{"layer":"Stairs","_tile":"6/29/39"},"geometry":{"type":"Polygon","coordinates":[[[-76.6230827,39.3255444],[-76.6230582,39.3255549],[-76.6230563,39.3255522],[-76.6230361,39.3255264],[-76.6230424,39.3255234],[-76.6230667,39.3255235],[-76.6230726,39.3255314],[-76.6230827,39.3255444]]]}},{"type":"Feature","properties":{"layer":"Stairs","_tile":"6/29/40"},"geometry":{"type":"Polygon","coordinates":[[[-76.6232827,39.3253721],[-76.6232744,39.3253613],[-76.6232884,39.3253549],[-76.6232966,39.3253658],[-76.6232827,39.3253721]]]}},{"type":"Feature","properties":{"layer":"Stairs","_tile":"6/29/40"},"geometry":{"type":"Polygon","coordinates":[[[-76.6230457,39.3255387],[-76.6230361,39.3255264],[-76.6230603,39.3255151],[-76.6230726,39.3255314],[-76.6230784,39.3255388],[-76.6230457,39.3255387]]]}},{"type":"Feature","properties":{"layer":"Stairs","_tile":"6/29/41"},"geometry":{"type":"Polygon","coordinates":[[[-76.6227829,39.3247269],[-76.6227989,39.3247475],[-76.622784,39.3247546],[-76.622782,39.3247554],[-76.6227709,39.324741],[-76.622766,39.3247349],[-76.6227829,39.3247269]]]}},{"type":"Feature","properties":{"layer":"Stairs","_tile":"6/29/41"},"geometry":{"type":"Polygon","coordinates":[[[-76.6227884,39.3247609],[-76.622795,39.32477],[-76.622783,39.3247752],[-76.6227764,39.3247661],[-76.6227884,39.3247609]]]}},{"type":"Feature","properties":{"layer":"Stairs","_tile":"6/29/41"},"geometry":{"type":"Polygon","coordinates":[[[-76.6233417,39.3248505],[-76.6233478,39.3248476],[-76.6233533,39.3248545],[-76.6233527,39.3248548],[-76.6233472,39.3248574],[-76.6233417,39.3248505]]]}},{"type":"Feature","properties":{"layer":"Stairs","_tile":"6/29/41"},"geometry":{"type":"Polygon","coordinates":[[[-76.6229643,39.324932],[-76.622983,39.3249535],[-76.622971,39.3249582],[-76.6229632,39.3249616],[-76.6229446,39.324939],[-76.6229643,39.324932]]]}},{"type":"Feature","properties":{"layer":"Stairs","_tile":"6/29/41"},"geometry":{"type":"Polygon","coordinates":[[[-76.623392,39.3249304],[-76.6233981,39.3249382],[-76.6233818,39.3249459],[-76.6233798,39.3249434],[-76.6233757,39.3249381],[-76.6233885,39.3249322],[-76.623392,39.3249304]]]}},{"type":"Feature","properties":{"layer":"Stairs","_tile":"6/29/41"},"geometry":{"type":"Polygon","coordinates":[[[-76.6230547,39.3245945],[-76.6230652,39.3245896],[-76.6230759,39.3246034],[-76.6230656,39.3246082],[-76.6230547,39.3245945]]]}},{"type":"Feature","properties":{"layer":"Stairs","_tile":"6/29/43"},"geometry":{"type":"Polygon","coordinates":[[[-76.6227671,39.3240094],[-76.622775,39.3240195],[-76.6227671,39.3240232],[-76.6227671,39.3240094]]]}},{"type":"Feature","properties":{"layer":"Stairs","_tile":"6/29/43"},"geometry":{"type":"Polygon","coordinates":[[[-76.6231717,39.3235836],[-76.6231782,39.3235918],[-76.6231685,39.3235965],[-76.6231387,39.3236111],[-76.6231276,39.3236165],[-76.6231214,39.3236084],[-76.6231363,39.323601],[-76.6231717,39.3235836]]]}},{"type":"Feature","properties":{"layer":"Stairs","_tile":"6/29/43"},"geometry":{"type":"Polygon","coordinates":[[[-76.6231915,39.3236259],[-76.6231658,39.3236384],[-76.6231593,39.3236304],[-76.6231768,39.3236219],[-76.6231851,39.3236178],[-76.6231891,39.3236158],[-76.6231947,39.3236131],[-76.6232012,39.3236212],[-76.6231915,39.3236259]]]}},{"type":"Feature","properties":{"layer":"Stairs","_tile":"6/29/43"},"geometry":{"type":"Polygon","coordinates":[[[-76.6231439,39.3236377],[-76.6231536,39.3236332],[-76.62316,39.3236414],[-76.6231502,39.3236459],[-76.6231439,39.3236377]]]}},{"type":"Feature","properties":{"layer":"Stairs","_tile":"6/29/43"},"geometry":{"type":"Polygon","coordinates":[[[-76.6232155,39.3236565],[-76.6231896,39.3236691],[-76.6231831,39.3236611],[-76.6232091,39.3236483],[-76.6232184,39.3236437],[-76.623225,39.3236517],[-76.6232155,39.3236565]]]}},{"type":"Feature","properties":{"layer":"Stairs","_tile":"6/29/43"},"geometry":{"type":"Polygon","coordinates":[[[-76.6232392,39.3236869],[-76.6232378,39.3236875],[-76.6232294,39.3236918],[-76.6232143,39.3236991],[-76.6232078,39.3236911],[-76.6232328,39.3236788],[-76.6232431,39.3236737],[-76.6232497,39.3236818],[-76.6232392,39.3236869]]]}},{"type":"Feature","properties":{"layer":"Stairs","_tile":"6/30/32"},"geometry":{"type":"Polygon","coordinates":[[[-76.6225747,39.3292262],[-76.622576,39.3292221],[-76.6225928,39.3292253],[-76.622599,39.3292265],[-76.6225968,39.3292303],[-76.6225747,39.3292262]]]}},{"type":"Feature","properties":{"layer":"Stairs","_tile":"6/30/32"},"geometry":{"type":"Polygon","coordinates":[[[-76.6221419,39.32914],[-76.6221647,39.3291443],[-76.6221621,39.329149],[-76.6221402,39.3291447],[-76.6221419,39.32914]]]}},{"type":"Feature","properties":{"layer":"Stairs","_tile":"6/30/32"},"geometry":{"type":"Polygon","coordinates":[[[-76.6224898,39.3292965],[-76.6224916,39.3292818],[-76.6225022,39.3292837],[-76.6225184,39.3292868],[-76.6225134,39.3293009],[-76.6224898,39.3292965]]]}},{"type":"Feature","properties":{"layer":"Stairs","_tile":"6/30/32"},"geometry":{"type":"Polygon","coordinates":[[[-76.6226222,39.3292174],[-76.6226364,39.3292201],[-76.6226288,39.3292441],[-76.6226202,39.3292425],[-76.6226142,39.3292413],[-76.6226222,39.3292174]]]}},{"type":"Feature","properties":{"layer":"Stairs","_tile":"6/30/32"},"geometry":{"type":"Polygon","coordinates":[[[-76.6226057,39.3292069],[-76.6226069,39.3292037],[-76.6226233,39.3292067],[-76.6226205,39.3292156],[-76.6226202,39.3292167],[-76.6226033,39.3292142],[-76.6226036,39.3292132],[-76.6226057,39.3292069]]]}},{"type":"Feature","properties":{"layer":"Stairs","_tile":"6/30/32"},"geometry":{"type":"Polygon","coordinates":[[[-76.6225937,39.3291725],[-76.6226088,39.3291758],[-76.6226055,39.3291861],[-76.6226045,39.329189],[-76.6226019,39.3291886],[-76.6225924,39.3291866],[-76.6225875,39.3291856],[-76.6225916,39.3291721],[-76.6225937,39.3291725]]]}},{"type":"Feature","properties":{"layer":"Stairs","_tile":"6/30/32"},"geometry":{"type":"Polygon","coordinates":[[[-76.6221382,39.3292275],[-76.6221409,39.3292134],[-76.6221495,39.3292153],[-76.6221614,39.3292176],[-76.6221566,39.3292312],[-76.6221382,39.3292275]]]}},{"type":"Feature","properties":{"layer":"Stairs","_tile":"6/30/32"},"geometry":{"type":"Polygon","coordinates":[[[-76.62219,39.3291311],[-76.6221831,39.3291528],[-76.6221656,39.3291496],[-76.6221723,39.3291281],[-76.62219,39.3291311]]]}},{"type":"Feature","properties":{"layer":"Stairs","_tile":"6/30/32"},"geometry":{"type":"Polygon","coordinates":[[[-76.6223789,39.3289982],[-76.6223841,39.3289809],[-76.6223999,39.3289838],[-76.6223946,39.3290011],[-76.6223789,39.3289982]]]}},{"type":"Feature","properties":{"layer":"Stairs","_tile":"6/30/35"},"geometry":{"type":"Polygon","coordinates":[[[-76.6222738,39.3278313],[-76.6222756,39.3278533],[-76.6222442,39.3278548],[-76.6222425,39.3278327],[-76.6222738,39.3278313]]]}},{"type":"Feature","properties":{"layer":"Stairs","_tile":"6/30/35"},"geometry":{"type":"Polygon","coordinates":[[[-76.6222277,39.3278336],[-76.6222291,39.3278551],[-76.6222008,39.3278562],[-76.6221993,39.3278347],[-76.6221998,39.3278346],[-76.6222277,39.3278336]]]}},{"type":"Feature","properties":{"layer":"Stairs","_tile":"6/30/35"},"geometry":{"type":"Polygon","coordinates":[[[-76.6221837,39.3278338],[-76.6221849,39.3278573],[-76.6221645,39.327858],[-76.6221576,39.3278583],[-76.6221562,39.3278348],[-76.6221789,39.3278339],[-76.6221837,39.3278338]]]}},{"type":"Feature","properties":{"layer":"Stairs","_tile":"6/30/36"},"geometry":{"type":"Polygon","coordinates":[[[-76.6224369,39.3271234],[-76.622395,39.327128],[-76.6223847,39.3270479],[-76.6224302,39.3270421],[-76.6224369,39.3271234]]]}},{"type":"Feature","properties":{"layer":"Stairs","_tile":"6/30/38"},"geometry":{"type":"Polygon","coordinates":[[[-76.6226727,39.3264415],[-76.6226735,39.3264579],[-76.6226295,39.3264593],[-76.6226287,39.3264429],[-76.6226727,39.3264415]]]}},{"type":"Feature","properties":{"layer":"Stairs","_tile":"6/30/38"},"geometry":{"type":"Polygon","coordinates":[[[-76.6222292,39.326463],[-76.6222313,39.326495],[-76.6222017,39.3264962],[-76.6222009,39.3264819],[-76.6221996,39.3264642],[-76.6222292,39.326463]]]}},{"type":"Feature","properties":{"layer":"Stairs","_tile":"6/30/40"},"geometry":{"type":"Polygon","coordinates":[[[-76.6226847,39.3252826],[-76.622682,39.3252787],[-76.622675,39.3252819],[-76.6225928,39.3251769],[-76.6225997,39.3251735],[-76.6225968,39.3251696],[-76.6226349,39.3251515],[-76.6227232,39.3252644],[-76.6226847,39.3252826]]]}},{"type":"Feature","properties":{"layer":"Stairs","_tile":"6/30/41"},"geometry":{"type":"Polygon","coordinates":[[[-76.6227829,39.3247269],[-76.6227828,39.3247551],[-76.622782,39.3247554],[-76.6227709,39.324741],[-76.622766,39.3247349],[-76.6227829,39.3247269]]]}},{"type":"Feature","properties":{"layer":"Stairs","_tile":"6/30/41"},"geometry":{"type":"Polygon","coordinates":[[[-76.6227827,39.3247747],[-76.6227764,39.3247661],[-76.6227828,39.3247634],[-76.6227827,39.3247747]]]}},{"type":"Feature","properties":{"layer":"Stairs","_tile":"6/30/43"},"geometry":{"type":"Polygon","coordinates":[[[-76.6226455,39.3239815],[-76.6226415,39.3239762],[-76.6226368,39.3239699],[-76.6226077,39.3239312],[-76.6226329,39.3239188],[-76.6226781,39.3238968],[-76.622775,39.3240195],[-76.6227617,39.3240258],[-76.6227608,39.3240243],[-76.622728,39.3239809],[-76.6227138,39.3239619],[-76.6227073,39.3239533],[-76.6227044,39.3239548],[-76.6226455,39.3239815]]]}},{"type":"Feature","properties":{"layer":"Stairs","_tile":"6/31/33"},"geometry":{"type":"Polygon","coordinates":[[[-76.6217869,39.3286176],[-76.6218084,39.328618],[-76.6218122,39.3286478],[-76.6218139,39.3286628],[-76.6217894,39.3286629],[-76.621789,39.3286536],[-76.621787,39.3286218],[-76.6217869,39.3286176]]]}},{"type":"Feature","properties":{"layer":"Stairs","_tile":"6/31/34"},"geometry":{"type":"Polygon","coordinates":[[[-76.6214871,39.3283527],[-76.6215451,39.328352],[-76.6215451,39.3283536],[-76.6215456,39.3283766],[-76.6215456,39.328378],[-76.621487,39.3283787],[-76.6214871,39.3283527]]]}},{"type":"Feature","properties":{"layer":"Stairs","_tile":"6/31/34"},"geometry":{"type":"Polygon","coordinates":[[[-76.6215001,39.3281118],[-76.6215003,39.3281158],[-76.6215016,39.3281158],[-76.6215016,39.3281169],[-76.6215025,39.3281348],[-76.6215013,39.328135],[-76.6215016,39.3281392],[-76.6215048,39.3281391],[-76.621505,39.3281402],[-76.6215067,39.3281402],[-76.6215069,39.3281439],[-76.6214882,39.3281452],[-76.6214884,39.3281122],[-76.6215001,39.3281118]]]}},{"type":"Feature","properties":{"layer":"Stairs","_tile":"6/31/34"},"geometry":{"type":"Polygon","coordinates":[[[-76.6214872,39.3283266],[-76.621541,39.3283243],[-76.6215431,39.328348],[-76.6214871,39.3283522],[-76.6214872,39.3283266]]]}},{"type":"Feature","properties":{"layer":"Stairs","_tile":"6/31/35"},"geometry":{"type":"Polygon","coordinates":[[[-76.6220053,39.3278029],[-76.6219925,39.3278033],[-76.6219915,39.3277877],[-76.6220043,39.3277873],[-76.6220053,39.3278029]]]}},{"type":"Feature","properties":{"layer":"Stairs","_tile":"6/31/36"},"geometry":{"type":"Polygon","coordinates":[[[-76.6216203,39.3271124],[-76.6216241,39.3271122],[-76.621625,39.3271251],[-76.6215645,39.3271274],[-76.6215637,39.3271145],[-76.6216203,39.3271124]]]}},{"type":"Feature","properties":{"layer":"Stairs","_tile":"6/31/37"},"geometry":{"type":"Polygon","coordinates":[[[-76.6219444,39.3268089],[-76.6219465,39.3268471],[-76.6219372,39.3268473],[-76.6219326,39.3268476],[-76.6219306,39.3268093],[-76.6219444,39.3268089]]]}},{"type":"Feature","properties":{"layer":"Stairs","_tile":"6/31/39"},"geometry":{"type":"Polygon","coordinates":[[[-76.621501,39.3257561],[-76.6215404,39.3257548],[-76.6215407,39.3257623],[-76.6215396,39.3257624],[-76.6215009,39.3257637],[-76.621501,39.3257561]]]}},{"type":"Feature","properties":{"layer":"Stairs","_tile":"6/31/41"},"geometry":{"type":"Polygon","coordinates":[[[-76.6219939,39.3246997],[-76.6220442,39.3246758],[-76.622074,39.3247174],[-76.6220257,39.3247401],[-76.6220152,39.3247269],[-76.6219939,39.3246997]]]}},{"type":"Feature","properties":{"layer":"Stairs","_tile":"6/31/42"},"geometry":{"type":"Polygon","coordinates":[[[-76.621509,39.3242482],[-76.6215255,39.32427],[-76.6215089,39.3242779],[-76.621509,39.3242482]]]}},{"type":"Feature","properties":{"layer":"Stairs","_tile":"6/31/42"},"geometry":{"type":"Polygon","coordinates":[[[-76.6221265,39.3243092],[-76.6221358,39.3243217],[-76.6221071,39.3243354],[-76.6220764,39.3243499],[-76.6220545,39.3243435],[-76.6221265,39.3243092]]]}},{"type":"Feature","properties":{"layer":"Stairs","_tile":"6/31/42"},"geometry":{"type":"Polygon","coordinates":[[[-76.6217358,39.3243319],[-76.6217624,39.3243671],[-76.6217147,39.3243367],[-76.6217206,39.3243353],[-76.6217358,39.3243319]]]}},{"type":"Feature","properties":{"layer":"Stairs","_tile":"6/31/42"},"geometry":{"type":"Polygon","coordinates":[[[-76.6215936,39.3243283],[-76.6216271,39.3243495],[-76.6215794,39.3243917],[-76.6215299,39.3243605],[-76.6215936,39.3243283]]]}},{"type":"Feature","properties":{"layer":"Stairs","_tile":"6/31/42"},"geometry":{"type":"Polygon","coordinates":[[[-76.621969,39.3243841],[-76.6219737,39.3243984],[-76.621972,39.3243994],[-76.6219474,39.3244109],[-76.621924,39.3244055],[-76.621969,39.3243841]]]}},{"type":"Feature","properties":{"layer":"Stairs","_tile":"6/31/43"},"geometry":{"type":"Polygon","coordinates":[[[-76.622108,39.323587],[-76.6221124,39.3235923],[-76.6221231,39.3236064],[-76.6220912,39.3236214],[-76.6221001,39.3236328],[-76.6220368,39.3236627],[-76.6220181,39.3236715],[-76.622003,39.3236521],[-76.6220188,39.3236446],[-76.6220143,39.3236389],[-76.6220098,39.3236333],[-76.6220115,39.3236325],[-76.6220188,39.323629],[-76.6220688,39.3236056],[-76.622108,39.323587]]]}},{"type":"Feature","properties":{"layer":"Stairs","_tile":"6/32/32"},"geometry":{"type":"Polygon","coordinates":[[[-76.6210993,39.3289338],[-76.621107,39.3290806],[-76.6210823,39.3290814],[-76.6210746,39.3289337],[-76.6210993,39.3289338]]]}},{"type":"Feature","properties":{"layer":"Stairs","_tile":"6/32/32"},"geometry":{"type":"Polygon","coordinates":[[[-76.6211186,39.3292279],[-76.6211189,39.3292335],[-76.6211203,39.3292668],[-76.6211204,39.3292674],[-76.621092,39.3292681],[-76.6210903,39.3292287],[-76.6211093,39.3292283],[-76.6211186,39.3292279]]]}},{"type":"Feature","properties":{"layer":"Stairs","_tile":"6/32/32"},"geometry":{"type":"Polygon","coordinates":[[[-76.621382,39.3293908],[-76.6213826,39.329399],[-76.6213519,39.3294002],[-76.6213513,39.3293921],[-76.6213662,39.3293914],[-76.621382,39.3293908]]]}},{"type":"Feature","properties":{"layer":"Stairs","_tile":"6/32/32"},"geometry":{"type":"Polygon","coordinates":[[[-76.6212391,39.3294177],[-76.6212394,39.3294229],[-76.6212401,39.329432],[-76.6211729,39.3294327],[-76.6211727,39.3294119],[-76.6212387,39.3294109],[-76.6212391,39.3294177]]]}},{"type":"Feature","properties":{"layer":"Stairs","_tile":"6/32/32"},"geometry":{"type":"Polygon","coordinates":[[[-76.6211785,39.3290505],[-76.6211743,39.3289434],[-76.6211877,39.3289475],[-76.621207,39.3289487],[-76.6212078,39.3289631],[-76.6212132,39.3290434],[-76.6211785,39.3290505]]]}},{"type":"Feature","properties":{"layer":"Stairs","_tile":"6/32/33"},"geometry":{"type":"Polygon","coordinates":[[[-76.6212926,39.328565],[-76.6213304,39.3285635],[-76.6213305,39.3285658],[-76.621332,39.3285867],[-76.6212942,39.3285881],[-76.6212939,39.3285856],[-76.6212936,39.3285797],[-76.6212926,39.328565]]]}},{"type":"Feature","properties":{"layer":"Stairs","_tile":"6/32/33"},"geometry":{"type":"Polygon","coordinates":[[[-76.6210856,39.3287277],[-76.6210875,39.3287676],[-76.6210751,39.328768],[-76.6210634,39.3287684],[-76.6210615,39.3287285],[-76.6210856,39.3287277]]]}},{"type":"Feature","properties":{"layer":"Stairs","_tile":"6/32/33"},"geometry":{"type":"Polygon","coordinates":[[[-76.6210984,39.3289155],[-76.6211002,39.328949],[-76.6210753,39.328949],[-76.6210737,39.3289163],[-76.6210984,39.3289155]]]}},{"type":"Feature","properties":{"layer":"Stairs","_tile":"6/32/33"},"geometry":{"type":"Polygon","coordinates":[[[-76.6211746,39.3289493],[-76.6211743,39.3289434],[-76.6211877,39.3289475],[-76.621207,39.3289487],[-76.621207,39.3289494],[-76.6211746,39.3289493]]]}},{"type":"Feature","properties":{"layer":"Stairs","_tile":"6/32/34"},"geometry":{"type":"Polygon","coordinates":[[[-76.6210806,39.3279636],[-76.6210573,39.3279649],[-76.6210567,39.3279575],[-76.62108,39.3279575],[-76.6210806,39.3279636]]]}},{"type":"Feature","properties":{"layer":"Stairs","_tile":"6/32/34"},"geometry":{"type":"Polygon","coordinates":[[[-76.6208769,39.3280314],[-76.6208713,39.3280317],[-76.6208604,39.3280323],[-76.6208604,39.3280181],[-76.6208687,39.3280176],[-76.6208756,39.3280172],[-76.6208768,39.3280309],[-76.6208769,39.3280314]]]}},{"type":"Feature","properties":{"layer":"Stairs","_tile":"6/32/34"},"geometry":{"type":"Polygon","coordinates":[[[-76.6214788,39.3283528],[-76.6215067,39.3283525],[-76.6215066,39.3283785],[-76.6214782,39.3283788],[-76.6214779,39.3283553],[-76.6214777,39.3283528],[-76.6214788,39.3283528]]]}},{"type":"Feature","properties":{"layer":"Stairs","_tile":"6/32/34"},"geometry":{"type":"Polygon","coordinates":[[[-76.6214333,39.3281478],[-76.6214311,39.3281145],[-76.6214743,39.3281127],[-76.6215001,39.3281118],[-76.6215003,39.3281158],[-76.6215016,39.3281158],[-76.6215016,39.3281169],[-76.6215025,39.3281348],[-76.6215013,39.328135],[-76.6215016,39.3281392],[-76.6215048,39.3281391],[-76.621505,39.3281402],[-76.6215067,39.3281402],[-76.6215069,39.3281439],[-76.6214726,39.3281463],[-76.6214379,39.3281477],[-76.6214333,39.3281478]]]}},{"type":"Feature","properties":{"layer":"Stairs","_tile":"6/32/34"},"geometry":{"type":"Polygon","coordinates":[[[-76.6214788,39.3283528],[-76.6214794,39.3283269],[-76.6215069,39.3283257],[-76.6215068,39.3283507],[-76.6214788,39.3283528]]]}},{"type":"Feature","properties":{"layer":"Stairs","_tile":"6/32/35"},"geometry":{"type":"Polygon","coordinates":[[[-76.621031,39.3274838],[-76.6210474,39.3274825],[-76.6210485,39.3274893],[-76.6210505,39.3275055],[-76.6210323,39.327507],[-76.6210289,39.3275073],[-76.6210275,39.3275073],[-76.6210251,39.3274897],[-76.6210245,39.3274843],[-76.6210255,39.3274843],[-76.621031,39.3274838]]]}},{"type":"Feature","properties":{"layer":"Stairs","_tile":"6/32/35"},"geometry":{"type":"Polygon","coordinates":[[[-76.6210796,39.3275974],[-76.6210819,39.3276316],[-76.6210802,39.3276316],[-76.6210629,39.3276324],[-76.6210607,39.3276324],[-76.6210589,39.3276044],[-76.6210585,39.3275983],[-76.6210608,39.3275982],[-76.6210796,39.3275974]]]}},{"type":"Feature","properties":{"layer":"Stairs","_tile":"6/32/35"},"geometry":{"type":"Polygon","coordinates":[[[-76.6211177,39.327588],[-76.6211213,39.3276425],[-76.6211075,39.327636],[-76.6210957,39.3276334],[-76.6210918,39.3275964],[-76.6211071,39.3275931],[-76.6211177,39.327588]]]}},{"type":"Feature","properties":{"layer":"Stairs","_tile":"6/32/35"},"geometry":{"type":"Polygon","coordinates":[[[-76.6210925,39.3278009],[-76.6210942,39.3278344],[-76.6210784,39.3278348],[-76.6210782,39.3278319],[-76.6210767,39.3278013],[-76.6210925,39.3278009]]]}},{"type":"Feature","properties":{"layer":"Stairs","_tile":"6/32/35"},"geometry":{"type":"Polygon","coordinates":[[[-76.6211211,39.3277907],[-76.6211238,39.3278385],[-76.621116,39.3278349],[-76.6211083,39.3278348],[-76.6211063,39.3277966],[-76.621115,39.3277935],[-76.6211211,39.3277907]]]}},{"type":"Feature","properties":{"layer":"Stairs","_tile":"6/32/35"},"geometry":{"type":"Polygon","coordinates":[[[-76.6213924,39.3279236],[-76.6213931,39.3279345],[-76.6213741,39.3279353],[-76.6213734,39.3279244],[-76.6213924,39.3279236]]]}},{"type":"Feature","properties":{"layer":"Stairs","_tile":"6/32/35"},"geometry":{"type":"Polygon","coordinates":[[[-76.6210806,39.3279636],[-76.6210573,39.3279649],[-76.6210566,39.3279544],[-76.6210557,39.3279454],[-76.6210547,39.3279318],[-76.6210535,39.3279184],[-76.6210767,39.3279173],[-76.6210781,39.3279349],[-76.6210789,39.3279424],[-76.6210793,39.3279491],[-76.6210806,39.3279636]]]}},{"type":"Feature","properties":{"layer":"Stairs","_tile":"6/32/36"},"geometry":{"type":"Polygon","coordinates":[[[-76.6212603,39.3274348],[-76.6212459,39.3274356],[-76.6212437,39.3274124],[-76.6212581,39.3274115],[-76.6212603,39.3274348]]]}},{"type":"Feature","properties":{"layer":"Stairs","_tile":"6/32/36"},"geometry":{"type":"Polygon","coordinates":[[[-76.621267,39.3274403],[-76.621268,39.3274568],[-76.6212607,39.3274572],[-76.6212597,39.3274412],[-76.6212595,39.3274406],[-76.621267,39.3274403]]]}},{"type":"Feature","properties":{"layer":"Stairs","_tile":"6/32/36"},"geometry":{"type":"Polygon","coordinates":[[[-76.621031,39.3274838],[-76.6210474,39.3274825],[-76.6210477,39.3274846],[-76.6210245,39.3274845],[-76.6210245,39.3274843],[-76.6210255,39.3274843],[-76.621031,39.3274838]]]}},{"type":"Feature","properties":{"layer":"Stairs","_tile":"6/32/37"},"geometry":{"type":"Polygon","coordinates":[[[-76.6211998,39.3268375],[-76.6212016,39.3268789],[-76.6211893,39.3268791],[-76.6211877,39.3268377],[-76.6211998,39.3268375]]]}},{"type":"Feature","properties":{"layer":"Stairs","_tile":"6/32/39"},"geometry":{"type":"Polygon","coordinates":[[[-76.6210079,39.3257243],[-76.6210277,39.3257217],[-76.6210464,39.3258062],[-76.6210268,39.3258089],[-76.6210079,39.3257243]]]}},{"type":"Feature","properties":{"layer":"Stairs","_tile":"6/32/39"},"geometry":{"type":"Polygon","coordinates":[[[-76.6214566,39.3257576],[-76.6215206,39.3257554],[-76.6215206,39.3257631],[-76.621457,39.3257651],[-76.6214566,39.3257576]]]}},{"type":"Feature","properties":{"layer":"Stairs","_tile":"6/32/42"},"geometry":{"type":"Polygon","coordinates":[[[-76.6214913,39.3242249],[-76.6215255,39.32427],[-76.6214704,39.3242964],[-76.621435,39.324252],[-76.6214913,39.3242249]]]}},{"type":"Feature","properties":{"layer":"Stairs","_tile":"6/32/43"},"geometry":{"type":"Polygon","coordinates":[[[-76.621013,39.3236154],[-76.6210353,39.3236437],[-76.6209454,39.3236868],[-76.6209389,39.3236786],[-76.620923,39.3236586],[-76.621013,39.3236154]]]}},{"type":"Feature","properties":{"layer":"Stairs","_tile":"6/32/43"},"geometry":{"type":"Polygon","coordinates":[[[-76.6210878,39.3237106],[-76.6211255,39.3237591],[-76.6211215,39.3237607],[-76.6210472,39.3237961],[-76.6210258,39.3237694],[-76.6210766,39.323745],[-76.6210598,39.3237239],[-76.6210878,39.3237106]]]}},{"type":"Feature","properties":{"layer":"Stairs","_tile":"6/32/43"},"geometry":{"type":"Polygon","coordinates":[[[-76.6211166,39.3238995],[-76.6211449,39.3238843],[-76.6212003,39.3238571],[-76.621242,39.3239116],[-76.6212353,39.3239148],[-76.621229,39.3239071],[-76.621127,39.3239561],[-76.621117,39.3239435],[-76.621142,39.3239314],[-76.6211166,39.3238995]]]}},{"type":"Feature","properties":{"layer":"Stairs","_tile":"6/33/32"},"geometry":{"type":"Polygon","coordinates":[[[-76.6204484,39.329435],[-76.6204725,39.3294339],[-76.6204725,39.3294351],[-76.6204484,39.329435]]]}},{"type":"Feature","properties":{"layer":"Stairs","_tile":"6/33/33"},"geometry":{"type":"Polygon","coordinates":[[[-76.6203476,39.3284553],[-76.620367,39.3284487],[-76.6203768,39.3284456],[-76.6203819,39.3284447],[-76.6203884,39.3284438],[-76.6203925,39.3284434],[-76.6204144,39.3284435],[-76.6204226,39.3284445],[-76.6204259,39.3284452],[-76.6204301,39.3284465],[-76.6204386,39.3284499],[-76.6204458,39.3284526],[-76.6204418,39.3284573],[-76.6204394,39.3284603],[-76.6204323,39.328458],[-76.6204299,39.3284571],[-76.6204237,39.3284556],[-76.6204184,39.3284551],[-76.6204082,39.3284547],[-76.620395,39.3284546],[-76.6203848,39.3284552],[-76.6203809,39.3284559],[-76.6203762,39.3284572],[-76.6203757,39.3284574],[-76.6203657,39.3284608],[-76.6203574,39.3284637],[-76.6203476,39.3284553]]]}},{"type":"Feature","properties":{"layer":"Stairs","_tile":"6/33/33"},"geometry":{"type":"Polygon","coordinates":[[[-76.6204315,39.3284593],[-76.6204456,39.3284658],[-76.6204481,39.3284668],[-76.6204534,39.3284697],[-76.6204572,39.3284721],[-76.6204612,39.3284753],[-76.6204658,39.3284798],[-76.6204705,39.328485],[-76.6204734,39.328489],[-76.620474,39.3284896],[-76.6204757,39.3284929],[-76.6204771,39.3284971],[-76.620481,39.3285153],[-76.6204767,39.3285154],[-76.6204487,39.3285166],[-76.6204477,39.3285093],[-76.6204466,39.3285048],[-76.6204448,39.3285016],[-76.6204418,39.3284978],[-76.6204376,39.3284937],[-76.6204334,39.3284904],[-76.6204292,39.3284882],[-76.6204181,39.3284838],[-76.6204188,39.3284821],[-76.6204201,39.3284801],[-76.6204315,39.3284593]]]}},{"type":"Feature","properties":{"layer":"Stairs","_tile":"6/33/33"},"geometry":{"type":"Polygon","coordinates":[[[-76.6203672,39.3284631],[-76.6203812,39.3284847],[-76.6203722,39.3284884],[-76.620366,39.3284912],[-76.6203615,39.3284938],[-76.6203585,39.3284965],[-76.6203568,39.328499],[-76.6203551,39.3285029],[-76.6203535,39.3285076],[-76.6203526,39.3285114],[-76.6203525,39.3285147],[-76.6203531,39.3285216],[-76.6203187,39.328523],[-76.6203191,39.3285168],[-76.6203191,39.3285136],[-76.6203199,39.3285063],[-76.6203211,39.3285026],[-76.6203229,39.3284984],[-76.6203253,39.328494],[-76.6203277,39.3284904],[-76.6203304,39.3284873],[-76.6203351,39.3284834],[-76.620342,39.3284782],[-76.6203481,39.3284739],[-76.6203538,39.3284705],[-76.6203672,39.3284631]]]}},{"type":"Feature","properties":{"layer":"Stairs","_tile":"6/33/33"},"geometry":{"type":"Polygon","coordinates":[[[-76.6204853,39.3286109],[-76.6204546,39.3286137],[-76.6204533,39.3285728],[-76.6204814,39.3285723],[-76.6204853,39.3286109]]]}},{"type":"Feature","properties":{"layer":"Stairs","_tile":"6/33/33"},"geometry":{"type":"Polygon","coordinates":[[[-76.620362,39.3286159],[-76.6203368,39.3286166],[-76.6203328,39.3285848],[-76.6203574,39.3285834],[-76.620362,39.3286159]]]}},{"type":"Feature","properties":{"layer":"Stairs","_tile":"6/33/34"},"geometry":{"type":"Polygon","coordinates":[[[-76.6208769,39.3280314],[-76.6208713,39.3280317],[-76.6208522,39.3280327],[-76.6208519,39.32803],[-76.6208509,39.3280187],[-76.6208511,39.3280185],[-76.6208687,39.3280176],[-76.6208756,39.3280172],[-76.6208768,39.3280309],[-76.6208769,39.3280314]]]}},{"type":"Feature","properties":{"layer":"Stairs","_tile":"6/33/34"},"geometry":{"type":"Polygon","coordinates":[[[-76.620744,39.3280719],[-76.6207969,39.3280703],[-76.6207971,39.3280713],[-76.6207975,39.3280806],[-76.6207446,39.3280822],[-76.620744,39.3280719]]]}},{"type":"Feature","properties":{"layer":"Stairs","_tile":"6/33/34"},"geometry":{"type":"Polygon","coordinates":[[[-76.6207661,39.3282366],[-76.6207941,39.3282359],[-76.6207945,39.3282461],[-76.6207669,39.3282467],[-76.6207658,39.3282468],[-76.6207654,39.3282366],[-76.6207661,39.3282366]]]}},{"type":"Feature","properties":{"layer":"Stairs","_tile":"6/33/34"},"geometry":{"type":"Polygon","coordinates":[[[-76.6207655,39.328279],[-76.6207977,39.3282778],[-76.6207985,39.3282904],[-76.6207662,39.3282916],[-76.6207654,39.3282808],[-76.6207655,39.328279]]]}},{"type":"Feature","properties":{"layer":"Stairs","_tile":"6/33/34"},"geometry":{"type":"Polygon","coordinates":[[[-76.6203439,39.3283177],[-76.6203409,39.3283113],[-76.6203074,39.3283122],[-76.6203135,39.3283014],[-76.6203255,39.3282921],[-76.6203326,39.328288],[-76.620341,39.3282837],[-76.620349,39.3282803],[-76.6203509,39.3282797],[-76.6203539,39.3282787],[-76.6203604,39.3282772],[-76.6203758,39.3282743],[-76.620383,39.3282735],[-76.6203893,39.3282731],[-76.6203913,39.328273],[-76.6204002,39.328273],[-76.6204071,39.3282734],[-76.6204155,39.3282748],[-76.6204264,39.3282777],[-76.6204305,39.3282792],[-76.6204379,39.3282817],[-76.6204431,39.328284],[-76.6204466,39.3282856],[-76.6204501,39.3282877],[-76.6204542,39.3282912],[-76.6204681,39.3283047],[-76.6204699,39.3283064],[-76.6204302,39.3283101],[-76.620412,39.3283037],[-76.6203942,39.3283003],[-76.6203784,39.3283018],[-76.6203696,39.3283032],[-76.6203658,39.3283045],[-76.6203615,39.3283068],[-76.6203439,39.3283177]]]}},{"type":"Feature","properties":{"layer":"Stairs","_tile":"6/33/34"},"geometry":{"type":"Polygon","coordinates":[[[-76.6203476,39.3284553],[-76.620367,39.3284487],[-76.6203768,39.3284456],[-76.6203819,39.3284447],[-76.6203884,39.3284438],[-76.6204009,39.3284427],[-76.6204114,39.3284431],[-76.6204226,39.3284445],[-76.6204259,39.3284452],[-76.6204301,39.3284465],[-76.6204386,39.3284499],[-76.6204458,39.3284526],[-76.6204418,39.3284573],[-76.6204406,39.3284588],[-76.6204349,39.3284588],[-76.6204323,39.328458],[-76.6204299,39.3284571],[-76.6204237,39.3284556],[-76.6204184,39.3284551],[-76.6204082,39.3284547],[-76.620395,39.3284546],[-76.6203848,39.3284552],[-76.6203809,39.3284559],[-76.6203762,39.3284572],[-76.6203757,39.3284574],[-76.6203723,39.3284586],[-76.6203515,39.3284585],[-76.6203476,39.3284553]]]}},{"type":"Feature","properties":{"layer":"Stairs","_tile":"6/33/34"},"geometry":{"type":"Polygon","coordinates":[[[-76.6207745,39.3279846],[-76.6207832,39.3279679],[-76.6207927,39.3280069],[-76.6207745,39.3279846]],[[-76.6207745,39.3279846],[-76.6207618,39.3280087],[-76.6207617,39.3279688],[-76.6207745,39.3279846]]]}},{"type":"Feature","properties":{"layer":"Stairs","_tile":"6/33/35"},"geometry":{"type":"Polygon","coordinates":[[[-76.6207812,39.3279718],[-76.6207832,39.3279679],[-76.6207841,39.3279718],[-76.6207812,39.3279718]],[[-76.6207617,39.3279718],[-76.6207617,39.3279688],[-76.6207642,39.3279718],[-76.6207617,39.3279718]]]}},{"type":"Feature","properties":{"layer":"Stairs","_tile":"6/33/36"},"geometry":{"type":"Polygon","coordinates":[[[-76.6205709,39.3270957],[-76.6205758,39.3271872],[-76.6205761,39.3271914],[-76.6205546,39.327192],[-76.6205493,39.3270937],[-76.6205708,39.3270931],[-76.6205709,39.3270957]]]}},{"type":"Feature","properties":{"layer":"Stairs","_tile":"6/33/37"},"geometry":{"type":"Polygon","coordinates":[[[-76.6202385,39.3267959],[-76.6203635,39.3267905],[-76.6203659,39.3268244],[-76.620366,39.326825],[-76.6203588,39.3268253],[-76.6202383,39.3268305],[-76.6202385,39.3267959]]]}},{"type":"Feature","properties":{"layer":"Stairs","_tile":"6/33/37"},"geometry":{"type":"Polygon","coordinates":[[[-76.620238,39.3268954],[-76.6203683,39.3268903],[-76.6203697,39.3269048],[-76.6202379,39.3269099],[-76.620238,39.3268954]]]}},{"type":"Feature","properties":{"layer":"Stairs","_tile":"6/33/37"},"geometry":{"type":"Polygon","coordinates":[[[-76.6206831,39.3269299],[-76.6207102,39.3269288],[-76.6207111,39.3269397],[-76.6206838,39.3269409],[-76.6206831,39.3269299]]]}},{"type":"Feature","properties":{"layer":"Stairs","_tile":"6/34/32"},"geometry":{"type":"Polygon","coordinates":[[[-76.6196953,39.3289837],[-76.619705,39.3291242],[-76.619689,39.3291249],[-76.6196794,39.3289844],[-76.6196953,39.3289837]]]}},{"type":"Feature","properties":{"layer":"Stairs","_tile":"6/34/32"},"geometry":{"type":"Polygon","coordinates":[[[-76.6196053,39.3293402],[-76.6196067,39.3293675],[-76.6195963,39.3293677],[-76.6195964,39.3293405],[-76.6196053,39.3293402]]]}},{"type":"Feature","properties":{"layer":"Stairs","_tile":"6/34/32"},"geometry":{"type":"Polygon","coordinates":[[[-76.6197133,39.3293237],[-76.619713,39.3293175],[-76.6197026,39.3293179],[-76.619701,39.3292893],[-76.6197006,39.3292838],[-76.6197098,39.3292823],[-76.6197167,39.329282],[-76.619719,39.3293235],[-76.6197133,39.3293237]]]}},{"type":"Feature","properties":{"layer":"Stairs","_tile":"6/34/33"},"geometry":{"type":"Polygon","coordinates":[[[-76.6196855,39.3287841],[-76.6196874,39.3288242],[-76.6196721,39.3288248],[-76.6196721,39.3288232],[-76.619671,39.3288017],[-76.6196698,39.3287844],[-76.6196772,39.3287842],[-76.6196855,39.3287841]]]}},{"type":"Feature","properties":{"layer":"Stairs","_tile":"6/34/33"},"geometry":{"type":"Polygon","coordinates":[[[-76.619717,39.3284629],[-76.6196975,39.3284633],[-76.6196952,39.3284412],[-76.6197159,39.3284412],[-76.619717,39.3284629]]]}},{"type":"Feature","properties":{"layer":"Stairs","_tile":"6/34/34"},"geometry":{"type":"Polygon","coordinates":[[[-76.6201074,39.3279544],[-76.6201076,39.3279554],[-76.6200922,39.3279563],[-76.6200921,39.3279547],[-76.6200921,39.3279544],[-76.6201074,39.3279544]]]}},{"type":"Feature","properties":{"layer":"Stairs","_tile":"6/34/34"},"geometry":{"type":"Polygon","coordinates":[[[-76.6200092,39.3282742],[-76.6200105,39.3282978],[-76.6199721,39.3282991],[-76.6199709,39.3282753],[-76.6200092,39.3282742]]]}},{"type":"Feature","properties":{"layer":"Stairs","_tile":"6/34/34"},"geometry":{"type":"Polygon","coordinates":[[[-76.6196968,39.3284564],[-76.6196937,39.3284277],[-76.6197152,39.3284268],[-76.6197167,39.3284565],[-76.6196968,39.3284564]]]}},{"type":"Feature","properties":{"layer":"Stairs","_tile":"6/34/34"},"geometry":{"type":"Polygon","coordinates":[[[-76.6196478,39.3283108],[-76.6196273,39.3283115],[-76.6196259,39.3282896],[-76.6196464,39.3282888],[-76.6196478,39.3283108]]]}},{"type":"Feature","properties":{"layer":"Stairs","_tile":"6/34/35"},"geometry":{"type":"Polygon","coordinates":[[[-76.6200672,39.3275875],[-76.6200652,39.327562],[-76.6200648,39.3275565],[-76.6200803,39.3275558],[-76.6200831,39.3275909],[-76.6200676,39.3275917],[-76.6200672,39.3275875]]]}},{"type":"Feature","properties":{"layer":"Stairs","_tile":"6/34/35"},"geometry":{"type":"Polygon","coordinates":[[[-76.6201221,39.3277422],[-76.6201265,39.3277421],[-76.6201282,39.3277683],[-76.620125,39.3277686],[-76.6201004,39.3277694],[-76.6200987,39.3277431],[-76.6201221,39.3277422]]]}},{"type":"Feature","properties":{"layer":"Stairs","_tile":"6/34/35"},"geometry":{"type":"Polygon","coordinates":[[[-76.6201069,39.327947],[-76.6201076,39.3279554],[-76.6200922,39.3279563],[-76.6200921,39.3279547],[-76.6200886,39.3279185],[-76.6200975,39.3279179],[-76.6200986,39.3279179],[-76.6201007,39.3279177],[-76.620104,39.3279176],[-76.6201069,39.327947]]]}},{"type":"Feature","properties":{"layer":"Stairs","_tile":"6/34/36"},"geometry":{"type":"Polygon","coordinates":[[[-76.6200692,39.327107],[-76.6200758,39.3272167],[-76.6200499,39.3272177],[-76.620049,39.3272025],[-76.6200441,39.3271215],[-76.6200434,39.327108],[-76.6200692,39.327107]]]}},{"type":"Feature","properties":{"layer":"Stairs","_tile":"6/34/36"},"geometry":{"type":"Polygon","coordinates":[[[-76.6199172,39.3273722],[-76.6199186,39.3273947],[-76.6199147,39.3273949],[-76.6199048,39.3273952],[-76.6198567,39.3273965],[-76.6198448,39.327397],[-76.6198123,39.3273978],[-76.6198077,39.327398],[-76.6198069,39.3273793],[-76.6198066,39.3273754],[-76.6199172,39.3273722]]]}},{"type":"Feature","properties":{"layer":"Stairs","_tile":"6/34/37"},"geometry":{"type":"Polygon","coordinates":[[[-76.6202163,39.3267969],[-76.6202582,39.3267951],[-76.620258,39.3268298],[-76.6202215,39.3268313],[-76.6202187,39.3268314],[-76.6202168,39.326806],[-76.6202163,39.3267969]]]}},{"type":"Feature","properties":{"layer":"Stairs","_tile":"6/34/37"},"geometry":{"type":"Polygon","coordinates":[[[-76.6202231,39.3268959],[-76.6202576,39.3268946],[-76.6202576,39.3269091],[-76.620224,39.3269105],[-76.6202237,39.326904],[-76.6202231,39.3268959]]]}},{"type":"Feature","properties":{"layer":"Stairs","_tile":"6/34/37"},"geometry":{"type":"Polygon","coordinates":[[[-76.6197718,39.3268892],[-76.6197742,39.3269191],[-76.6197715,39.3269194],[-76.6197672,39.3269195],[-76.6197335,39.326921],[-76.6197324,39.3269047],[-76.6197318,39.326899],[-76.6197313,39.3268911],[-76.6197718,39.3268892]]]}},{"type":"Feature","properties":{"layer":"Stairs","_tile":"6/34/38"},"geometry":{"type":"Polygon","coordinates":[[[-76.619988,39.3263407],[-76.6200058,39.326328],[-76.6200588,39.3263735],[-76.6200574,39.3263744],[-76.6200436,39.3263842],[-76.620041,39.326386],[-76.6200248,39.3263723],[-76.619988,39.3263407]]]}},{"type":"Feature","properties":{"layer":"Stairs","_tile":"6/34/42"},"geometry":{"type":"Polygon","coordinates":[[[-76.6199392,39.3243643],[-76.6199642,39.3243048],[-76.6199716,39.3243068],[-76.6199795,39.3243087],[-76.6199849,39.3243102],[-76.6199599,39.3243695],[-76.6199392,39.3243643]]]}},{"type":"Feature","properties":{"layer":"Stairs","_tile":"6/34/42"},"geometry":{"type":"Polygon","coordinates":[[[-76.6199392,39.324269],[-76.619892,39.32438],[-76.6198824,39.3243775],[-76.6199296,39.3242666],[-76.6199392,39.324269]]]}},{"type":"Feature","properties":{"layer":"Stairs","_tile":"6/35/32"},"geometry":{"type":"Polygon","coordinates":[[[-76.6196053,39.3293402],[-76.6196067,39.3293675],[-76.6195895,39.3293679],[-76.6195893,39.329364],[-76.6195882,39.3293407],[-76.6196053,39.3293402]]]}},{"type":"Feature","properties":{"layer":"Stairs","_tile":"6/35/32"},"geometry":{"type":"Polygon","coordinates":[[[-76.6193047,39.3293532],[-76.6193254,39.3293523],[-76.6193261,39.3293616],[-76.6193274,39.3293803],[-76.6192936,39.3293842],[-76.6192916,39.3293572],[-76.6193047,39.3293532]]]}},{"type":"Feature","properties":{"layer":"Stairs","_tile":"6/35/33"},"geometry":{"type":"Polygon","coordinates":[[[-76.6191347,39.3287589],[-76.6192007,39.3287557],[-76.6192014,39.3287639],[-76.6192502,39.3287621],[-76.6192826,39.3287606],[-76.6192843,39.3287868],[-76.6192769,39.328787],[-76.6192677,39.3287875],[-76.6192517,39.3287874],[-76.6192031,39.32879],[-76.6192037,39.3287952],[-76.6191384,39.3287984],[-76.6191347,39.3287589]]]}},{"type":"Feature","properties":{"layer":"Stairs","_tile":"6/35/34"},"geometry":{"type":"Polygon","coordinates":[[[-76.6191469,39.3282442],[-76.6191568,39.3282577],[-76.6191453,39.328264],[-76.6191352,39.3282519],[-76.6191469,39.3282442]]]}},{"type":"Feature","properties":{"layer":"Stairs","_tile":"6/35/34"},"geometry":{"type":"Polygon","coordinates":[[[-76.6191982,39.3282375],[-76.6192059,39.328234],[-76.6192187,39.3282288],[-76.6192351,39.3282636],[-76.6192225,39.3282665],[-76.6192132,39.3282688],[-76.6191982,39.3282375]]]}},{"type":"Feature","properties":{"layer":"Stairs","_tile":"6/35/34"},"geometry":{"type":"Polygon","coordinates":[[[-76.6191568,39.3282577],[-76.6191633,39.3282543],[-76.6191796,39.328246],[-76.6192019,39.3282723],[-76.6191948,39.3282745],[-76.6191859,39.3282777],[-76.6191771,39.328281],[-76.6191568,39.3282577]]]}},{"type":"Feature","properties":{"layer":"Stairs","_tile":"6/35/34"},"geometry":{"type":"Polygon","coordinates":[[[-76.6191398,39.3282672],[-76.6191607,39.3282882],[-76.6191544,39.3282913],[-76.619146,39.3282956],[-76.6191404,39.3282988],[-76.6191199,39.3282794],[-76.6191271,39.3282748],[-76.6191398,39.3282672]]]}},{"type":"Feature","properties":{"layer":"Stairs","_tile":"6/35/34"},"geometry":{"type":"Polygon","coordinates":[[[-76.6190473,39.32839],[-76.6190475,39.3283889],[-76.6190489,39.3283832],[-76.6190517,39.3283731],[-76.6190538,39.3283664],[-76.6190561,39.3283596],[-76.6190834,39.3283657],[-76.6190812,39.3283718],[-76.6190774,39.3283842],[-76.6190759,39.3283905],[-76.6190752,39.3283938],[-76.6190473,39.32839]]]}},{"type":"Feature","properties":{"layer":"Stairs","_tile":"6/35/34"},"geometry":{"type":"Polygon","coordinates":[[[-76.6189816,39.3279508],[-76.6189754,39.3279563],[-76.6189754,39.3279507],[-76.6189816,39.3279508]]]}},{"type":"Feature","properties":{"layer":"Stairs","_tile":"6/35/34"},"geometry":{"type":"Polygon","coordinates":[[[-76.6190024,39.3279971],[-76.6190011,39.3279944],[-76.6189998,39.3279919],[-76.6189967,39.3279869],[-76.6189951,39.3279845],[-76.6189914,39.3279799],[-76.6189874,39.3279753],[-76.6189853,39.3279731],[-76.618983,39.327971],[-76.6189993,39.3279605],[-76.6190021,39.327963],[-76.619007,39.3279682],[-76.6190115,39.3279737],[-76.6190175,39.3279823],[-76.6190208,39.3279883],[-76.6190222,39.3279914],[-76.6190024,39.3279971]]]}},{"type":"Feature","properties":{"layer":"Stairs","_tile":"6/35/34"},"geometry":{"type":"Polygon","coordinates":[[[-76.619302,39.3282012],[-76.6193885,39.3281989],[-76.6193888,39.3282041],[-76.6193847,39.3282041],[-76.6193845,39.3282022],[-76.6193044,39.3282043],[-76.6193023,39.3282044],[-76.619302,39.3282012]]]}},{"type":"Feature","properties":{"layer":"Stairs","_tile":"6/35/34"},"geometry":{"type":"Polygon","coordinates":[[[-76.6193888,39.3282041],[-76.6193885,39.3281989],[-76.619302,39.3282012],[-76.619298,39.3282013],[-76.6192977,39.3281981],[-76.6193924,39.3281957],[-76.619393,39.3282041],[-76.6193888,39.3282041]]]}},{"type":"Feature","properties":{"layer":"Stairs","_tile":"6/35/34"},"geometry":{"type":"Polygon","coordinates":[[[-76.619393,39.3282041],[-76.6193924,39.3281957],[-76.6192977,39.3281981],[-76.6192936,39.3281982],[-76.6192933,39.3281951],[-76.6193964,39.3281923],[-76.6193969,39.3282041],[-76.619393,39.3282041]]]}},{"type":"Feature","properties":{"layer":"Stairs","_tile":"6/35/34"},"geometry":{"type":"Polygon","coordinates":[[[-76.6193969,39.3282041],[-76.6193964,39.3281923],[-76.6192933,39.3281951],[-76.6192891,39.3281952],[-76.6192888,39.328192],[-76.6194004,39.328189],[-76.6194011,39.3282042],[-76.6193969,39.3282041]]]}},{"type":"Feature","properties":{"layer":"Stairs","_tile":"6/35/34"},"geometry":{"type":"Polygon","coordinates":[[[-76.6194011,39.3282042],[-76.6194004,39.328189],[-76.6192888,39.328192],[-76.6192847,39.3281921],[-76.6192844,39.3281889],[-76.6194042,39.3281857],[-76.6194052,39.328204],[-76.6194011,39.3282042]]]}},{"type":"Feature","properties":{"layer":"Stairs","_tile":"6/35/34"},"geometry":{"type":"Polygon","coordinates":[[[-76.6194052,39.328204],[-76.6194042,39.3281857],[-76.6192844,39.3281889],[-76.6192803,39.328189],[-76.6192801,39.3281858],[-76.6193153,39.3281848],[-76.6194083,39.3281824],[-76.6194094,39.3282041],[-76.6194052,39.328204]]]}},{"type":"Feature","properties":{"layer":"Stairs","_tile":"6/35/34"},"geometry":{"type":"Polygon","coordinates":[[[-76.6192801,39.3281858],[-76.619276,39.3281859],[-76.6192757,39.3281827],[-76.6193151,39.3281817],[-76.6193153,39.3281848],[-76.6192801,39.3281858]]]}},{"type":"Feature","properties":{"layer":"Stairs","_tile":"6/35/34"},"geometry":{"type":"Polygon","coordinates":[[[-76.6193828,39.3282333],[-76.6193225,39.3282354],[-76.6193221,39.3282287],[-76.6193824,39.328226],[-76.6193828,39.3282333]]]}},{"type":"Feature","properties":{"layer":"Stairs","_tile":"6/35/35"},"geometry":{"type":"Polygon","coordinates":[[[-76.6189842,39.3279484],[-76.6189754,39.3279563],[-76.6189755,39.327943],[-76.6189842,39.3279484]]]}},{"type":"Feature","properties":{"layer":"Stairs","_tile":"6/35/35"},"geometry":{"type":"Polygon","coordinates":[[[-76.6189907,39.327966],[-76.6189993,39.3279605],[-76.6190021,39.327963],[-76.619005,39.3279661],[-76.6189907,39.327966]]]}},{"type":"Feature","properties":{"layer":"Stairs","_tile":"6/35/36"},"geometry":{"type":"Polygon","coordinates":[[[-76.6194365,39.3273294],[-76.6194345,39.3272979],[-76.6194466,39.3272975],[-76.6194487,39.3273288],[-76.6194365,39.3273294]]]}},{"type":"Feature","properties":{"layer":"Stairs","_tile":"6/35/37"},"geometry":{"type":"Polygon","coordinates":[[[-76.6195066,39.3264882],[-76.6195072,39.3264908],[-76.6195112,39.3265011],[-76.6195189,39.3265179],[-76.6195117,39.3265219],[-76.6195066,39.3265245],[-76.6194994,39.3265285],[-76.6194826,39.3265364],[-76.6194728,39.3265405],[-76.6194669,39.3265104],[-76.6194658,39.3265036],[-76.619464,39.3264881],[-76.6195066,39.3264882]]]}},{"type":"Feature","properties":{"layer":"Stairs","_tile":"6/35/38"},"geometry":{"type":"Polygon","coordinates":[[[-76.6193329,39.3263597],[-76.619335,39.326358],[-76.6193141,39.3263415],[-76.6193166,39.3263397],[-76.6193696,39.3262991],[-76.6194616,39.3263715],[-76.6194867,39.3263523],[-76.6195358,39.326397],[-76.6195176,39.3264114],[-76.6195059,39.3264583],[-76.619504,39.3264658],[-76.619505,39.326478],[-76.619506,39.3264853],[-76.6195072,39.3264908],[-76.6195112,39.3265011],[-76.6195122,39.3265035],[-76.6194658,39.3265033],[-76.6194628,39.3264785],[-76.6194613,39.3264714],[-76.6194595,39.3264661],[-76.6194575,39.3264622],[-76.6194548,39.326458],[-76.6194472,39.326448],[-76.6194371,39.3264366],[-76.6194267,39.3264266],[-76.6194205,39.3264212],[-76.6194144,39.3264164],[-76.619413,39.3264152],[-76.6193948,39.3264019],[-76.6193329,39.3263597]]]}},{"type":"Feature","properties":{"layer":"Stairs","_tile":"6/35/41"},"geometry":{"type":"Polygon","coordinates":[[[-76.6193918,39.3248215],[-76.6194246,39.3248484],[-76.6194084,39.3248604],[-76.6193965,39.3248507],[-76.6193912,39.3248461],[-76.6193809,39.3248379],[-76.6193756,39.3248333],[-76.6193918,39.3248215]]]}},{"type":"Feature","properties":{"layer":"Stairs","_tile":"6/35/43"},"geometry":{"type":"Polygon","coordinates":[[[-76.6195381,39.3235648],[-76.6195451,39.3235858],[-76.6195122,39.3235922],[-76.6195053,39.3235712],[-76.6195371,39.3235649],[-76.6195381,39.3235648]]]}},{"type":"Feature","properties":{"layer":"Stairs","_tile":"6/35/43"},"geometry":{"type":"Polygon","coordinates":[[[-76.6194659,39.3235806],[-76.6194687,39.3235859],[-76.6194763,39.3236003],[-76.6194698,39.3236025],[-76.6194481,39.3236093],[-76.6194377,39.3235896],[-76.6194659,39.3235806]]]}},{"type":"Feature","properties":{"layer":"Stairs","_tile":"6/35/43"},"geometry":{"type":"Polygon","coordinates":[[[-76.6193783,39.3236144],[-76.6193945,39.3236344],[-76.6193669,39.3236474],[-76.6193492,39.3236317],[-76.6193783,39.3236144]]]}},{"type":"Feature","properties":{"layer":"Stairs","_tile":"6/36/33"},"geometry":{"type":"Polygon","coordinates":[[[-76.6186529,39.3285616],[-76.6186471,39.328579],[-76.618606,39.3285709],[-76.6186116,39.3285535],[-76.6186529,39.3285616]]]}},{"type":"Feature","properties":{"layer":"Stairs","_tile":"6/36/34"},"geometry":{"type":"Polygon","coordinates":[[[-76.6185299,39.3283114],[-76.6185304,39.3283077],[-76.6185317,39.3283005],[-76.6185325,39.3282968],[-76.6185334,39.3282932],[-76.6185367,39.3282825],[-76.618564,39.3282883],[-76.6185619,39.3282945],[-76.6185596,39.3283039],[-76.618559,39.3283071],[-76.618558,39.3283134],[-76.6185299,39.3283114]]]}},{"type":"Feature","properties":{"layer":"Stairs","_tile":"6/36/34"},"geometry":{"type":"Polygon","coordinates":[[[-76.6185462,39.3282616],[-76.61855,39.3282549],[-76.6185544,39.3282482],[-76.6185565,39.328245],[-76.6185615,39.3282387],[-76.6185855,39.3282502],[-76.6185812,39.3282558],[-76.6185773,39.3282614],[-76.6185756,39.3282644],[-76.6185737,39.3282672],[-76.6185722,39.3282702],[-76.618572,39.3282706],[-76.6185462,39.3282616]]]}},{"type":"Feature","properties":{"layer":"Stairs","_tile":"6/36/34"},"geometry":{"type":"Polygon","coordinates":[[[-76.6184107,39.3282017],[-76.6184092,39.3282181],[-76.6184006,39.3282176],[-76.6183835,39.3282161],[-76.618375,39.3282152],[-76.6183621,39.3282137],[-76.6183456,39.3282112],[-76.6183457,39.3281944],[-76.6183671,39.3281976],[-76.6183889,39.3282],[-76.6184107,39.3282017]]]}},{"type":"Feature","properties":{"layer":"Stairs","_tile":"6/36/34"},"geometry":{"type":"Polygon","coordinates":[[[-76.6184278,39.3282189],[-76.6184283,39.3282024],[-76.618449,39.3282027],[-76.6184696,39.3282022],[-76.6184902,39.3282011],[-76.6184922,39.3282175],[-76.6184793,39.3282183],[-76.6184577,39.3282191],[-76.6184534,39.3282191],[-76.6184493,39.3282192],[-76.6184405,39.3282191],[-76.6184278,39.3282189]]]}},{"type":"Feature","properties":{"layer":"Stairs","_tile":"6/36/34"},"geometry":{"type":"Polygon","coordinates":[[[-76.6187768,39.3281217],[-76.6187627,39.3281094],[-76.6187658,39.3281072],[-76.6187687,39.328105],[-76.6187778,39.3280985],[-76.6187866,39.3280917],[-76.6187978,39.3280824],[-76.6188062,39.3280752],[-76.6188222,39.328086],[-76.6188077,39.3280984],[-76.6188017,39.3281032],[-76.6187863,39.3281149],[-76.6187768,39.3281217]]]}},{"type":"Feature","properties":{"layer":"Stairs","_tile":"6/36/34"},"geometry":{"type":"Polygon","coordinates":[[[-76.618766,39.3281288],[-76.618756,39.3281352],[-76.6187389,39.3281453],[-76.6187247,39.328153],[-76.6187141,39.3281584],[-76.6187025,39.3281446],[-76.6187128,39.3281394],[-76.6187298,39.3281301],[-76.618733,39.3281281],[-76.6187396,39.3281243],[-76.6187524,39.3281163],[-76.618766,39.3281288]]]}},{"type":"Feature","properties":{"layer":"Stairs","_tile":"6/36/34"},"geometry":{"type":"Polygon","coordinates":[[[-76.6188964,39.3280453],[-76.6188877,39.3280385],[-76.6188846,39.3280362],[-76.6188971,39.3280265],[-76.6189029,39.3280311],[-76.6189089,39.3280355],[-76.6188964,39.3280453]]]}},{"type":"Feature","properties":{"layer":"Stairs","_tile":"6/36/34"},"geometry":{"type":"Polygon","coordinates":[[[-76.6189816,39.3279508],[-76.6189703,39.3279609],[-76.6189676,39.3279591],[-76.6189621,39.3279557],[-76.6189592,39.3279541],[-76.6189515,39.3279507],[-76.6189816,39.3279508]]]}},{"type":"Feature","properties":{"layer":"Stairs","_tile":"6/36/34"},"geometry":{"type":"Polygon","coordinates":[[[-76.6189949,39.3279843],[-76.6189914,39.3279799],[-76.6189874,39.3279753],[-76.6189853,39.3279731],[-76.618983,39.327971],[-76.618995,39.3279633],[-76.6189949,39.3279843]]]}},{"type":"Feature","properties":{"layer":"Stairs","_tile":"6/36/35"},"geometry":{"type":"Polygon","coordinates":[[[-76.6189373,39.3279453],[-76.6189449,39.3279299],[-76.6189489,39.3279311],[-76.6189527,39.3279324],[-76.6189639,39.327937],[-76.6189674,39.3279387],[-76.6189744,39.3279423],[-76.6189842,39.3279484],[-76.6189703,39.3279609],[-76.6189676,39.3279591],[-76.6189621,39.3279557],[-76.6189592,39.3279541],[-76.6189469,39.3279486],[-76.6189437,39.3279474],[-76.6189373,39.3279453]]]}},{"type":"Feature","properties":{"layer":"Stairs","_tile":"6/36/35"},"geometry":{"type":"Polygon","coordinates":[[[-76.6189907,39.327966],[-76.618995,39.3279633],[-76.618995,39.3279661],[-76.6189907,39.327966]]]}},{"type":"Feature","properties":{"layer":"Stairs","_tile":"6/36/35"},"geometry":{"type":"Polygon","coordinates":[[[-76.6189231,39.3278342],[-76.6189232,39.3278277],[-76.618923,39.3278246],[-76.6189231,39.3278214],[-76.6189225,39.3278117],[-76.6189213,39.327799],[-76.6189196,39.3277862],[-76.6189185,39.3277799],[-76.6189394,39.3277776],[-76.6189421,39.3277942],[-76.6189428,39.3278009],[-76.6189437,39.3278109],[-76.6189441,39.3278175],[-76.6189444,39.3278242],[-76.6189443,39.3278309],[-76.6189445,39.3278342],[-76.6189231,39.3278342]]]}},{"type":"Feature","properties":{"layer":"Stairs","_tile":"6/36/35"},"geometry":{"type":"Polygon","coordinates":[[[-76.6189346,39.3277559],[-76.6189139,39.3277592],[-76.618913,39.3277561],[-76.6189122,39.3277529],[-76.6189104,39.3277466],[-76.6189063,39.3277342],[-76.6189029,39.3277249],[-76.6188979,39.3277128],[-76.6189178,39.3277075],[-76.6189219,39.327717],[-76.6189268,39.3277299],[-76.618931,39.3277428],[-76.6189319,39.3277461],[-76.618933,39.3277493],[-76.6189346,39.3277559]]]}},{"type":"Feature","properties":{"layer":"Stairs","_tile":"6/36/35"},"geometry":{"type":"Polygon","coordinates":[[[-76.6183496,39.3274606],[-76.6183901,39.3274608],[-76.6183906,39.327464],[-76.6183835,39.3274646],[-76.6183731,39.3274658],[-76.6183695,39.3274662],[-76.6183591,39.3274676],[-76.6183522,39.3274686],[-76.6183496,39.3274691],[-76.6183496,39.3274606]]]}},{"type":"Feature","properties":{"layer":"Stairs","_tile":"6/36/36"},"geometry":{"type":"Polygon","coordinates":[[[-76.6183497,39.3274523],[-76.6183589,39.3274509],[-76.6183735,39.327449],[-76.6183772,39.3274487],[-76.6183807,39.3274482],[-76.6183881,39.3274475],[-76.6183906,39.327464],[-76.6183835,39.3274646],[-76.6183731,39.3274658],[-76.6183695,39.3274662],[-76.6183591,39.3274676],[-76.6183522,39.3274686],[-76.6183496,39.3274691],[-76.6183497,39.3274523]]]}},{"type":"Feature","properties":{"layer":"Stairs","_tile":"6/36/37"},"geometry":{"type":"Polygon","coordinates":[[[-76.6185804,39.3264852],[-76.618577,39.3264879],[-76.6185723,39.3264916],[-76.6185637,39.3264851],[-76.6185804,39.3264852]]]}},{"type":"Feature","properties":{"layer":"Stairs","_tile":"6/36/37"},"geometry":{"type":"Polygon","coordinates":[[[-76.6185679,39.3265258],[-76.618588,39.3265104],[-76.6185936,39.3265149],[-76.6186058,39.3265244],[-76.6185858,39.3265398],[-76.6185679,39.3265258]]]}},{"type":"Feature","properties":{"layer":"Stairs","_tile":"6/36/37"},"geometry":{"type":"Polygon","coordinates":[[[-76.6185892,39.326545],[-76.6186087,39.3265595],[-76.6186025,39.3265644],[-76.618577,39.3265854],[-76.6185694,39.3265915],[-76.6185499,39.3265771],[-76.6185605,39.3265683],[-76.6185688,39.3265617],[-76.6185892,39.326545]]]}},{"type":"Feature","properties":{"layer":"Stairs","_tile":"6/36/37"},"geometry":{"type":"Polygon","coordinates":[[[-76.6184973,39.3268225],[-76.618512,39.3268342],[-76.6184984,39.3268444],[-76.6184979,39.326844],[-76.6184839,39.3268327],[-76.6184856,39.3268315],[-76.6184973,39.3268225]]]}},{"type":"Feature","properties":{"layer":"Stairs","_tile":"6/36/37"},"geometry":{"type":"Polygon","coordinates":[[[-76.6184203,39.3268808],[-76.6184209,39.3268814],[-76.6184276,39.3268868],[-76.6184339,39.3268917],[-76.6184342,39.326892],[-76.6184352,39.3268927],[-76.6184342,39.3268937],[-76.6184334,39.3268942],[-76.6184195,39.3269047],[-76.6184189,39.3269044],[-76.6184105,39.3268975],[-76.6184044,39.3268928],[-76.6184203,39.3268808]]]}},{"type":"Feature","properties":{"layer":"Stairs","_tile":"6/36/38"},"geometry":{"type":"Polygon","coordinates":[[[-76.6187746,39.3264048],[-76.6187887,39.3264153],[-76.6187808,39.3264217],[-76.6187699,39.3264303],[-76.618756,39.3264198],[-76.6187746,39.3264048]]]}},{"type":"Feature","properties":{"layer":"Stairs","_tile":"6/36/38"},"geometry":{"type":"Polygon","coordinates":[[[-76.6185707,39.3264599],[-76.618592,39.3264761],[-76.618577,39.3264879],[-76.6185723,39.3264916],[-76.618551,39.3264755],[-76.6185707,39.3264599]]]}},{"type":"Feature","properties":{"layer":"Stairs","_tile":"6/36/39"},"geometry":{"type":"Polygon","coordinates":[[[-76.6184718,39.3255989],[-76.618486,39.3256101],[-76.6184732,39.3256197],[-76.6184729,39.3256201],[-76.6184686,39.3256233],[-76.6184646,39.3256261],[-76.6184641,39.3256264],[-76.6184505,39.3256148],[-76.6184547,39.3256118],[-76.6184632,39.3256054],[-76.6184635,39.3256053],[-76.6184684,39.3256014],[-76.6184718,39.3255989]]]}},{"type":"Feature","properties":{"layer":"Stairs","_tile":"6/36/39"},"geometry":{"type":"Polygon","coordinates":[[[-76.6184355,39.3256253],[-76.6184439,39.3256325],[-76.6184478,39.3256359],[-76.618449,39.3256371],[-76.6184447,39.32564],[-76.6184375,39.3256454],[-76.6184313,39.3256498],[-76.618425,39.3256537],[-76.6184124,39.3256413],[-76.6184174,39.3256383],[-76.6184282,39.3256304],[-76.6184287,39.3256302],[-76.6184304,39.3256289],[-76.6184328,39.3256272],[-76.618433,39.325627],[-76.6184355,39.3256253]]]}},{"type":"Feature","properties":{"layer":"Stairs","_tile":"6/36/42"},"geometry":{"type":"Polygon","coordinates":[[[-76.6183661,39.324396],[-76.6183764,39.3243943],[-76.6183878,39.324391],[-76.618391,39.3243898],[-76.6183936,39.324389],[-76.618397,39.3243877],[-76.6184047,39.3243851],[-76.6184059,39.324387],[-76.6184138,39.3244008],[-76.6184143,39.3244015],[-76.6183966,39.3244076],[-76.6183828,39.3244116],[-76.6183676,39.3244141],[-76.6183665,39.3244142],[-76.618366,39.3244143],[-76.6183661,39.324396]]]}},{"type":"Feature","properties":{"layer":"Stairs","_tile":"6/37/34"},"geometry":{"type":"Polygon","coordinates":[[[-76.6183652,39.328214],[-76.6183621,39.3282137],[-76.6183453,39.3282112],[-76.618341,39.3282105],[-76.6183455,39.3281944],[-76.6183653,39.3281973],[-76.6183652,39.328214]]]}},{"type":"Feature","properties":{"layer":"Stairs","_tile":"6/37/34"},"geometry":{"type":"Polygon","coordinates":[[[-76.618222,39.3281778],[-76.6182016,39.3281695],[-76.6181818,39.3281604],[-76.6181626,39.3281506],[-76.6181748,39.328137],[-76.6181815,39.3281406],[-76.6181884,39.3281441],[-76.6182025,39.3281508],[-76.6182168,39.3281572],[-76.6182314,39.3281632],[-76.618222,39.3281778]]]}},{"type":"Feature","properties":{"layer":"Stairs","_tile":"6/37/34"},"geometry":{"type":"Polygon","coordinates":[[[-76.6181476,39.3281422],[-76.6181295,39.3281313],[-76.6181121,39.3281195],[-76.6180954,39.3281073],[-76.6181104,39.3280956],[-76.6181193,39.3281023],[-76.6181315,39.3281109],[-76.6181347,39.3281129],[-76.6181378,39.3281151],[-76.6181538,39.3281252],[-76.6181604,39.328129],[-76.6181477,39.3281422],[-76.6181476,39.3281422]]]}},{"type":"Feature","properties":{"layer":"Stairs","_tile":"6/37/34"},"geometry":{"type":"Polygon","coordinates":[[[-76.6179038,39.3279728],[-76.6178998,39.3279732],[-76.6178938,39.3279472],[-76.6178979,39.3279472],[-76.6179038,39.3279728]]]}},{"type":"Feature","properties":{"layer":"Stairs","_tile":"6/37/34"},"geometry":{"type":"Polygon","coordinates":[[[-76.617919,39.3280206],[-76.6179149,39.3280212],[-76.6178978,39.3279472],[-76.6179021,39.3279473],[-76.617919,39.3280206]]]}},{"type":"Feature","properties":{"layer":"Stairs","_tile":"6/37/34"},"geometry":{"type":"Polygon","coordinates":[[[-76.6179235,39.3280214],[-76.6179193,39.328022],[-76.6179019,39.3279473],[-76.6179064,39.3279473],[-76.6179235,39.3280214]]]}},{"type":"Feature","properties":{"layer":"Stairs","_tile":"6/37/34"},"geometry":{"type":"Polygon","coordinates":[[[-76.6179277,39.3280222],[-76.6179238,39.3280228],[-76.6179064,39.3279473],[-76.6179103,39.3279473],[-76.6179277,39.3280222]]]}},{"type":"Feature","properties":{"layer":"Stairs","_tile":"6/37/34"},"geometry":{"type":"Polygon","coordinates":[[[-76.6179322,39.328023],[-76.617928,39.3280236],[-76.6179103,39.3279473],[-76.6179148,39.3279473],[-76.6179322,39.328023]]]}},{"type":"Feature","properties":{"layer":"Stairs","_tile":"6/37/34"},"geometry":{"type":"Polygon","coordinates":[[[-76.6179365,39.3280238],[-76.6179325,39.3280243],[-76.6179148,39.3279473],[-76.6179188,39.3279473],[-76.6179365,39.3280238]]]}},{"type":"Feature","properties":{"layer":"Stairs","_tile":"6/37/34"},"geometry":{"type":"Polygon","coordinates":[[[-76.6179409,39.3280246],[-76.6179368,39.3280252],[-76.6179188,39.3279473],[-76.6179231,39.3279473],[-76.6179409,39.3280246]]]}},{"type":"Feature","properties":{"layer":"Stairs","_tile":"6/37/34"},"geometry":{"type":"Polygon","coordinates":[[[-76.6179452,39.3280253],[-76.6179412,39.3280259],[-76.6179231,39.3279473],[-76.6179271,39.3279473],[-76.6179452,39.3280253]]]}},{"type":"Feature","properties":{"layer":"Stairs","_tile":"6/37/34"},"geometry":{"type":"Polygon","coordinates":[[[-76.6179497,39.3280262],[-76.6179455,39.3280268],[-76.6179271,39.3279473],[-76.6179315,39.3279474],[-76.6179497,39.3280262]]]}},{"type":"Feature","properties":{"layer":"Stairs","_tile":"6/37/34"},"geometry":{"type":"Polygon","coordinates":[[[-76.617954,39.3280269],[-76.61795,39.3280275],[-76.6179315,39.3279474],[-76.6179357,39.3279474],[-76.617954,39.3280269]]]}},{"type":"Feature","properties":{"layer":"Stairs","_tile":"6/37/34"},"geometry":{"type":"Polygon","coordinates":[[[-76.6179596,39.3280275],[-76.6179543,39.3280283],[-76.6179355,39.3279474],[-76.617941,39.3279474],[-76.6179596,39.3280275]]]}},{"type":"Feature","properties":{"layer":"Stairs","_tile":"6/37/35"},"geometry":{"type":"Polygon","coordinates":[[[-76.6179569,39.3277574],[-76.6179577,39.3277542],[-76.6179615,39.3277411],[-76.6179658,39.3277281],[-76.6179682,39.3277217],[-76.6179721,39.3277121],[-76.6179749,39.3277057],[-76.6179777,39.3276994],[-76.6179808,39.3276932],[-76.6180005,39.3276991],[-76.6179962,39.3277081],[-76.6179949,39.3277111],[-76.6179935,39.3277141],[-76.6179886,39.3277264],[-76.6179862,39.3277326],[-76.6179831,39.3277419],[-76.6179803,39.3277511],[-76.6179776,39.3277605],[-76.6179569,39.3277574]]]}},{"type":"Feature","properties":{"layer":"Stairs","_tile":"6/37/35"},"geometry":{"type":"Polygon","coordinates":[[[-76.6179476,39.3278409],[-76.6179476,39.3278375],[-76.6179475,39.3278343],[-76.6179477,39.327821],[-76.6179482,39.3278109],[-76.6179495,39.3277975],[-76.6179707,39.327799],[-76.6179697,39.3278087],[-76.6179692,39.327815],[-76.6179689,39.3278214],[-76.6179688,39.3278373],[-76.6179689,39.3278405],[-76.6179476,39.3278409]]]}},{"type":"Feature","properties":{"layer":"Stairs","_tile":"6/37/35"},"geometry":{"type":"Polygon","coordinates":[[[-76.6179026,39.3276551],[-76.6179141,39.3276564],[-76.6179108,39.3276727],[-76.6178991,39.3276713],[-76.6179026,39.3276551]]]}},{"type":"Feature","properties":{"layer":"Stairs","_tile":"6/37/35"},"geometry":{"type":"Polygon","coordinates":[[[-76.6179026,39.3276551],[-76.6179059,39.3276388],[-76.6179175,39.3276402],[-76.6179141,39.3276564],[-76.6179026,39.3276551]]]}},{"type":"Feature","properties":{"layer":"Stairs","_tile":"6/37/35"},"geometry":{"type":"Polygon","coordinates":[[[-76.6179059,39.3276388],[-76.6179092,39.3276224],[-76.6179208,39.3276239],[-76.6179174,39.3276402],[-76.6179059,39.3276388]]]}},{"type":"Feature","properties":{"layer":"Stairs","_tile":"6/37/35"},"geometry":{"type":"Polygon","coordinates":[[[-76.6179205,39.3276212],[-76.6179239,39.3276049],[-76.6179355,39.3276063],[-76.617932,39.3276225],[-76.6179205,39.3276212]]]}},{"type":"Feature","properties":{"layer":"Stairs","_tile":"6/37/35"},"geometry":{"type":"Polygon","coordinates":[[[-76.6179239,39.3276049],[-76.6179272,39.3275885],[-76.6179388,39.32759],[-76.6179355,39.3276063],[-76.6179239,39.3276049]]]}},{"type":"Feature","properties":{"layer":"Stairs","_tile":"6/37/35"},"geometry":{"type":"Polygon","coordinates":[[[-76.6179272,39.3275885],[-76.6179305,39.3275724],[-76.6179421,39.3275738],[-76.6179388,39.32759],[-76.6179272,39.3275885]]]}},{"type":"Feature","properties":{"layer":"Stairs","_tile":"6/37/35"},"geometry":{"type":"Polygon","coordinates":[[[-76.6179491,39.3275941],[-76.6179382,39.3275928],[-76.6179417,39.3275764],[-76.6179524,39.3275778],[-76.6179491,39.3275941]]]}},{"type":"Feature","properties":{"layer":"Stairs","_tile":"6/37/35"},"geometry":{"type":"Polygon","coordinates":[[[-76.6179349,39.3276089],[-76.6179383,39.3275928],[-76.6179491,39.3275941],[-76.6179456,39.3276103],[-76.6179349,39.3276089]]]}},{"type":"Feature","properties":{"layer":"Stairs","_tile":"6/37/35"},"geometry":{"type":"Polygon","coordinates":[[[-76.6179316,39.3276253],[-76.6179349,39.3276089],[-76.6179456,39.3276103],[-76.6179423,39.3276266],[-76.6179316,39.3276253]]]}},{"type":"Feature","properties":{"layer":"Stairs","_tile":"6/37/35"},"geometry":{"type":"Polygon","coordinates":[[[-76.6179283,39.3276416],[-76.6179316,39.3276253],[-76.6179423,39.3276266],[-76.6179388,39.3276429],[-76.6179283,39.3276416]]]}},{"type":"Feature","properties":{"layer":"Stairs","_tile":"6/37/35"},"geometry":{"type":"Polygon","coordinates":[[[-76.6179283,39.3276416],[-76.6179388,39.3276429],[-76.6179355,39.3276591],[-76.6179248,39.3276578],[-76.6179283,39.3276416]]]}},{"type":"Feature","properties":{"layer":"Stairs","_tile":"6/37/35"},"geometry":{"type":"Polygon","coordinates":[[[-76.6179226,39.3276686],[-76.617925,39.3276578],[-76.6179355,39.3276591],[-76.6179333,39.32767],[-76.6179226,39.3276686]]]}},{"type":"Feature","properties":{"layer":"Stairs","_tile":"6/37/35"},"geometry":{"type":"Polygon","coordinates":[[[-76.6179362,39.3276564],[-76.6179469,39.3276577],[-76.6179447,39.3276686],[-76.617934,39.3276672],[-76.6179362,39.3276564]]]}},{"type":"Feature","properties":{"layer":"Stairs","_tile":"6/37/35"},"geometry":{"type":"Polygon","coordinates":[[[-76.6179486,39.3276496],[-76.6179594,39.327651],[-76.617956,39.3276673],[-76.6179453,39.3276659],[-76.6179486,39.3276496]]]}},{"type":"Feature","properties":{"layer":"Stairs","_tile":"6/37/35"},"geometry":{"type":"Polygon","coordinates":[[[-76.6179519,39.3276333],[-76.6179554,39.3276171],[-76.6179661,39.3276185],[-76.6179627,39.3276347],[-76.6179519,39.3276333]]]}},{"type":"Feature","properties":{"layer":"Stairs","_tile":"6/37/35"},"geometry":{"type":"Polygon","coordinates":[[[-76.6179462,39.3276077],[-76.6179496,39.3275914],[-76.6179603,39.3275927],[-76.617957,39.327609],[-76.6179462,39.3276077]]]}},{"type":"Feature","properties":{"layer":"Stairs","_tile":"6/37/35"},"geometry":{"type":"Polygon","coordinates":[[[-76.6179587,39.3276008],[-76.617962,39.3275846],[-76.6179727,39.327586],[-76.6179694,39.3276021],[-76.6179587,39.3276008]]]}},{"type":"Feature","properties":{"layer":"Stairs","_tile":"6/37/35"},"geometry":{"type":"Polygon","coordinates":[[[-76.6179362,39.3276564],[-76.6179396,39.3276402],[-76.6179504,39.3276415],[-76.6179469,39.3276577],[-76.6179362,39.3276564]]]}},{"type":"Feature","properties":{"layer":"Stairs","_tile":"6/37/35"},"geometry":{"type":"Polygon","coordinates":[[[-76.6179429,39.3276239],[-76.6179537,39.3276252],[-76.6179502,39.3276415],[-76.6179395,39.3276402],[-76.6179429,39.3276239]]]}},{"type":"Feature","properties":{"layer":"Stairs","_tile":"6/37/35"},"geometry":{"type":"Polygon","coordinates":[[[-76.6179589,39.3276537],[-76.6179696,39.3276551],[-76.6179674,39.3276659],[-76.6179567,39.3276645],[-76.6179589,39.3276537]]]}},{"type":"Feature","properties":{"layer":"Stairs","_tile":"6/37/35"},"geometry":{"type":"Polygon","coordinates":[[[-76.6179589,39.3276537],[-76.6179622,39.3276374],[-76.6179729,39.3276387],[-76.6179696,39.3276551],[-76.6179589,39.3276537]]]}},{"type":"Feature","properties":{"layer":"Stairs","_tile":"6/37/35"},"geometry":{"type":"Polygon","coordinates":[[[-76.6179622,39.3276374],[-76.6179657,39.3276212],[-76.6179762,39.3276224],[-76.6179729,39.3276387],[-76.6179622,39.3276374]]]}},{"type":"Feature","properties":{"layer":"Stairs","_tile":"6/37/35"},"geometry":{"type":"Polygon","coordinates":[[[-76.617969,39.3276049],[-76.6179797,39.3276062],[-76.6179762,39.3276224],[-76.6179655,39.3276212],[-76.617969,39.3276049]]]}},{"type":"Feature","properties":{"layer":"Stairs","_tile":"6/37/35"},"geometry":{"type":"Polygon","coordinates":[[[-76.617969,39.3276049],[-76.6179723,39.3275886],[-76.617983,39.3275899],[-76.6179795,39.3276062],[-76.617969,39.3276049]]]}},{"type":"Feature","properties":{"layer":"Stairs","_tile":"6/37/35"},"geometry":{"type":"Polygon","coordinates":[[[-76.6179554,39.3276171],[-76.6179587,39.3276008],[-76.6179694,39.3276021],[-76.617966,39.3276185],[-76.6179554,39.3276171]]]}},{"type":"Feature","properties":{"layer":"Stairs","_tile":"6/37/35"},"geometry":{"type":"Polygon","coordinates":[[[-76.6179429,39.3276239],[-76.6179462,39.3276077],[-76.617957,39.327609],[-76.6179537,39.3276252],[-76.6179429,39.3276239]]]}},{"type":"Feature","properties":{"layer":"Stairs","_tile":"6/37/35"},"geometry":{"type":"Polygon","coordinates":[[[-76.6179486,39.3276496],[-76.6179519,39.3276333],[-76.6179627,39.3276347],[-76.6179594,39.327651],[-76.6179486,39.3276496]]]}},{"type":"Feature","properties":{"layer":"Stairs","_tile":"6/37/35"},"geometry":{"type":"Polygon","coordinates":[[[-76.6179496,39.3275914],[-76.6179518,39.3275805],[-76.6179626,39.3275819],[-76.6179603,39.3275927],[-76.6179496,39.3275914]]]}},{"type":"Feature","properties":{"layer":"Stairs","_tile":"6/37/35"},"geometry":{"type":"Polygon","coordinates":[[[-76.6179147,39.3276538],[-76.6179254,39.3276552],[-76.617925,39.3276578],[-76.6179226,39.3276686],[-76.6179221,39.3276713],[-76.6179114,39.32767],[-76.6179147,39.3276538]]]}},{"type":"Feature","properties":{"layer":"Stairs","_tile":"6/37/35"},"geometry":{"type":"Polygon","coordinates":[[[-76.6179147,39.3276538],[-76.617918,39.3276375],[-76.6179287,39.3276388],[-76.6179283,39.3276416],[-76.6179254,39.3276552],[-76.6179147,39.3276538]]]}},{"type":"Feature","properties":{"layer":"Stairs","_tile":"6/37/35"},"geometry":{"type":"Polygon","coordinates":[[[-76.617918,39.3276375],[-76.6179208,39.3276239],[-76.6179199,39.3276238],[-76.6179205,39.3276212],[-76.617932,39.3276225],[-76.6179316,39.3276253],[-76.6179287,39.3276388],[-76.617918,39.3276375]]]}},{"type":"Feature","properties":{"layer":"Stairs","_tile":"6/37/35"},"geometry":{"type":"Polygon","coordinates":[[[-76.6179134,39.3274966],[-76.617911,39.3274876],[-76.6179225,39.3274857],[-76.6179234,39.3274889],[-76.6179269,39.3275018],[-76.6179153,39.3275037],[-76.6179134,39.3274966]]]}},{"type":"Feature","properties":{"layer":"Stairs","_tile":"6/37/35"},"geometry":{"type":"Polygon","coordinates":[[[-76.617911,39.3274876],[-76.6179065,39.3274715],[-76.617918,39.3274696],[-76.6179189,39.3274727],[-76.6179225,39.3274857],[-76.617911,39.3274876]]]}},{"type":"Feature","properties":{"layer":"Stairs","_tile":"6/37/35"},"geometry":{"type":"Polygon","coordinates":[[[-76.6179065,39.3274715],[-76.6179032,39.3274592],[-76.6179153,39.3274592],[-76.617918,39.3274696],[-76.6179065,39.3274715]]]}},{"type":"Feature","properties":{"layer":"Stairs","_tile":"6/37/35"},"geometry":{"type":"Polygon","coordinates":[[[-76.6179263,39.3274593],[-76.6179296,39.3274709],[-76.6179189,39.3274727],[-76.617918,39.3274696],[-76.6179153,39.3274592],[-76.6179263,39.3274593]]]}},{"type":"Feature","properties":{"layer":"Stairs","_tile":"6/37/35"},"geometry":{"type":"Polygon","coordinates":[[[-76.6179189,39.3274727],[-76.6179296,39.3274709],[-76.6179302,39.3274732],[-76.617934,39.327487],[-76.6179234,39.3274889],[-76.6179225,39.3274857],[-76.6179189,39.3274727]]]}},{"type":"Feature","properties":{"layer":"Stairs","_tile":"6/37/35"},"geometry":{"type":"Polygon","coordinates":[[[-76.6179234,39.3274889],[-76.617934,39.327487],[-76.6179346,39.3274893],[-76.6179384,39.3275027],[-76.6179374,39.3275028],[-76.6179269,39.3275047],[-76.6179261,39.3275019],[-76.6179269,39.3275018],[-76.6179234,39.3274889]]]}},{"type":"Feature","properties":{"layer":"Stairs","_tile":"6/37/35"},"geometry":{"type":"Polygon","coordinates":[[[-76.6179374,39.3275028],[-76.6179384,39.3275027],[-76.6179346,39.3274893],[-76.6179452,39.3274876],[-76.6179475,39.3274952],[-76.6179497,39.3275037],[-76.6179382,39.3275055],[-76.6179374,39.3275028]]]}},{"type":"Feature","properties":{"layer":"Stairs","_tile":"6/37/35"},"geometry":{"type":"Polygon","coordinates":[[[-76.6179346,39.3274893],[-76.6179302,39.3274732],[-76.6179408,39.3274715],[-76.6179452,39.3274876],[-76.6179346,39.3274893]]]}},{"type":"Feature","properties":{"layer":"Stairs","_tile":"6/37/35"},"geometry":{"type":"Polygon","coordinates":[[[-76.6179302,39.3274732],[-76.6179263,39.3274593],[-76.6179374,39.3274593],[-76.6179408,39.3274715],[-76.6179302,39.3274732]]]}},{"type":"Feature","properties":{"layer":"Stairs","_tile":"6/37/35"},"geometry":{"type":"Polygon","coordinates":[[[-76.6178972,39.3279625],[-76.6178897,39.3279298],[-76.6178937,39.3279294],[-76.6179014,39.3279625],[-76.6178972,39.3279625]]]}},{"type":"Feature","properties":{"layer":"Stairs","_tile":"6/37/35"},"geometry":{"type":"Polygon","coordinates":[[[-76.6179014,39.3279625],[-76.617894,39.3279307],[-76.6178982,39.3279301],[-76.6179057,39.3279625],[-76.6179014,39.3279625]]]}},{"type":"Feature","properties":{"layer":"Stairs","_tile":"6/37/35"},"geometry":{"type":"Polygon","coordinates":[[[-76.6179055,39.3279625],[-76.6178983,39.3279314],[-76.6179026,39.3279308],[-76.61791,39.3279625],[-76.6179055,39.3279625]]]}},{"type":"Feature","properties":{"layer":"Stairs","_tile":"6/37/35"},"geometry":{"type":"Polygon","coordinates":[[[-76.61791,39.3279625],[-76.6179029,39.3279322],[-76.6179068,39.3279317],[-76.6179139,39.3279626],[-76.61791,39.3279625]]]}},{"type":"Feature","properties":{"layer":"Stairs","_tile":"6/37/35"},"geometry":{"type":"Polygon","coordinates":[[[-76.6179139,39.3279626],[-76.6179071,39.3279331],[-76.6179113,39.3279325],[-76.6179182,39.3279626],[-76.6179139,39.3279626]]]}},{"type":"Feature","properties":{"layer":"Stairs","_tile":"6/37/35"},"geometry":{"type":"Polygon","coordinates":[[[-76.6179182,39.3279626],[-76.6179116,39.3279338],[-76.6179155,39.3279332],[-76.6179222,39.3279626],[-76.6179182,39.3279626]]]}},{"type":"Feature","properties":{"layer":"Stairs","_tile":"6/37/35"},"geometry":{"type":"Polygon","coordinates":[[[-76.6179222,39.3279626],[-76.6179158,39.3279347],[-76.6179201,39.3279341],[-76.6179267,39.3279626],[-76.6179222,39.3279626]]]}},{"type":"Feature","properties":{"layer":"Stairs","_tile":"6/37/35"},"geometry":{"type":"Polygon","coordinates":[[[-76.6179267,39.3279626],[-76.6179204,39.3279354],[-76.6179242,39.3279348],[-76.6179307,39.3279626],[-76.6179267,39.3279626]]]}},{"type":"Feature","properties":{"layer":"Stairs","_tile":"6/37/35"},"geometry":{"type":"Polygon","coordinates":[[[-76.6179307,39.3279626],[-76.6179245,39.3279363],[-76.6179288,39.3279357],[-76.617935,39.3279626],[-76.6179307,39.3279626]]]}},{"type":"Feature","properties":{"layer":"Stairs","_tile":"6/37/35"},"geometry":{"type":"Polygon","coordinates":[[[-76.617935,39.3279626],[-76.6179291,39.327937],[-76.6179331,39.3279364],[-76.6179391,39.3279626],[-76.617935,39.3279626]]]}},{"type":"Feature","properties":{"layer":"Stairs","_tile":"6/37/35"},"geometry":{"type":"Polygon","coordinates":[[[-76.617939,39.3279626],[-76.6179333,39.3279378],[-76.6179386,39.327937],[-76.6179446,39.3279627],[-76.617939,39.3279626]]]}},{"type":"Feature","properties":{"layer":"Stairs","_tile":"6/37/35"},"geometry":{"type":"Polygon","coordinates":[[[-76.6182595,39.3274731],[-76.618263,39.3274719],[-76.6182735,39.3274688],[-76.6182908,39.3274641],[-76.6182979,39.3274624],[-76.6183061,39.3274605],[-76.6183163,39.3274605],[-76.6183212,39.3274744],[-76.6183077,39.3274773],[-76.6182975,39.3274798],[-76.6182874,39.3274825],[-76.6182742,39.3274862],[-76.6182709,39.3274873],[-76.6182676,39.3274882],[-76.6182595,39.3274731]]]}},{"type":"Feature","properties":{"layer":"Stairs","_tile":"6/37/35"},"geometry":{"type":"Polygon","coordinates":[[[-76.6183348,39.3274715],[-76.6183315,39.3274606],[-76.6183693,39.3274607],[-76.6183692,39.3274662],[-76.6183591,39.3274676],[-76.6183522,39.3274686],[-76.6183348,39.3274715]]]}},{"type":"Feature","properties":{"layer":"Stairs","_tile":"6/37/36"},"geometry":{"type":"Polygon","coordinates":[[[-76.6179074,39.3274744],[-76.6179065,39.3274715],[-76.617918,39.3274696],[-76.6179189,39.3274727],[-76.6179193,39.3274745],[-76.6179074,39.3274744]]]}},{"type":"Feature","properties":{"layer":"Stairs","_tile":"6/37/36"},"geometry":{"type":"Polygon","coordinates":[[[-76.6179065,39.3274715],[-76.6179021,39.3274554],[-76.6179136,39.3274535],[-76.6179145,39.3274566],[-76.617918,39.3274696],[-76.6179065,39.3274715]]]}},{"type":"Feature","properties":{"layer":"Stairs","_tile":"6/37/36"},"geometry":{"type":"Polygon","coordinates":[[[-76.6179136,39.3274535],[-76.6179021,39.3274554],[-76.6178976,39.3274393],[-76.6179091,39.3274374],[-76.6179136,39.3274535]]]}},{"type":"Feature","properties":{"layer":"Stairs","_tile":"6/37/36"},"geometry":{"type":"Polygon","coordinates":[[[-76.6179145,39.3274566],[-76.61791,39.3274405],[-76.6179208,39.3274387],[-76.6179251,39.3274548],[-76.6179145,39.3274566]]]}},{"type":"Feature","properties":{"layer":"Stairs","_tile":"6/37/36"},"geometry":{"type":"Polygon","coordinates":[[[-76.6179145,39.3274566],[-76.6179251,39.3274548],[-76.6179257,39.3274571],[-76.6179296,39.3274709],[-76.6179189,39.3274727],[-76.617918,39.3274696],[-76.6179145,39.3274566]]]}},{"type":"Feature","properties":{"layer":"Stairs","_tile":"6/37/36"},"geometry":{"type":"Polygon","coordinates":[[[-76.6179189,39.3274727],[-76.6179296,39.3274709],[-76.6179302,39.3274732],[-76.6179305,39.3274745],[-76.6179193,39.3274745],[-76.6179189,39.3274727]]]}},{"type":"Feature","properties":{"layer":"Stairs","_tile":"6/37/36"},"geometry":{"type":"Polygon","coordinates":[[[-76.6179305,39.3274745],[-76.6179302,39.3274732],[-76.6179408,39.3274715],[-76.6179417,39.3274746],[-76.6179305,39.3274745]]]}},{"type":"Feature","properties":{"layer":"Stairs","_tile":"6/37/36"},"geometry":{"type":"Polygon","coordinates":[[[-76.6179302,39.3274732],[-76.6179257,39.3274571],[-76.6179363,39.3274552],[-76.6179408,39.3274715],[-76.6179302,39.3274732]]]}},{"type":"Feature","properties":{"layer":"Stairs","_tile":"6/37/36"},"geometry":{"type":"Polygon","coordinates":[[[-76.6179257,39.3274571],[-76.6179214,39.327441],[-76.617932,39.3274391],[-76.6179344,39.327448],[-76.6179363,39.3274552],[-76.6179257,39.3274571]]]}},{"type":"Feature","properties":{"layer":"Stairs","_tile":"6/37/36"},"geometry":{"type":"Polygon","coordinates":[[[-76.6182595,39.3274731],[-76.618263,39.3274719],[-76.6182735,39.3274688],[-76.6182908,39.3274641],[-76.6182979,39.3274624],[-76.6183085,39.3274599],[-76.6183156,39.3274584],[-76.6183212,39.3274744],[-76.6183147,39.3274758],[-76.6182609,39.3274756],[-76.6182595,39.3274731]]]}},{"type":"Feature","properties":{"layer":"Stairs","_tile":"6/37/36"},"geometry":{"type":"Polygon","coordinates":[[[-76.6183348,39.3274715],[-76.61833,39.3274556],[-76.6183371,39.3274543],[-76.6183443,39.3274531],[-76.6183589,39.3274509],[-76.6183693,39.3274496],[-76.6183692,39.3274662],[-76.6183591,39.3274676],[-76.6183522,39.3274686],[-76.6183348,39.3274715]]]}},{"type":"Feature","properties":{"layer":"Stairs","_tile":"6/37/38"},"geometry":{"type":"Polygon","coordinates":[[[-76.6180059,39.3264369],[-76.6180059,39.3264377],[-76.6180061,39.3264383],[-76.6180061,39.3264433],[-76.6180062,39.3264443],[-76.6180062,39.3264489],[-76.6180063,39.3264513],[-76.617993,39.3264514],[-76.6179916,39.3264515],[-76.6179915,39.3264419],[-76.6179913,39.3264413],[-76.6179914,39.3264371],[-76.617995,39.3264369],[-76.6180004,39.326437],[-76.6180021,39.3264369],[-76.6180059,39.3264369]]]}},{"type":"Feature","properties":{"layer":"Stairs","_tile":"6/37/38"},"geometry":{"type":"Polygon","coordinates":[[[-76.6178213,39.3259946],[-76.6177995,39.3259958],[-76.6177888,39.3259964],[-76.6177786,39.3259969],[-76.617778,39.325997],[-76.617774,39.3259972],[-76.6177722,39.3259972],[-76.6177714,39.3259973],[-76.6177713,39.3259968],[-76.6177711,39.3259945],[-76.6178213,39.3259946]]]}},{"type":"Feature","properties":{"layer":"Stairs","_tile":"6/37/39"},"geometry":{"type":"Polygon","coordinates":[[[-76.617959,39.3259723],[-76.6179598,39.3259744],[-76.6179607,39.3259775],[-76.6179624,39.3259824],[-76.6179624,39.3259827],[-76.6179643,39.3259884],[-76.6179553,39.3259888],[-76.617949,39.3259889],[-76.617945,39.3259891],[-76.6179424,39.3259891],[-76.6179412,39.3259892],[-76.6179352,39.3259893],[-76.6179234,39.3259897],[-76.6179212,39.3259897],[-76.6179209,39.3259898],[-76.6179207,39.3259893],[-76.6179208,39.3259885],[-76.6179193,39.3259757],[-76.6179299,39.3259747],[-76.6179323,39.3259746],[-76.6179325,39.3259745],[-76.6179486,39.3259733],[-76.617959,39.3259723]]]}},{"type":"Feature","properties":{"layer":"Stairs","_tile":"6/37/39"},"geometry":{"type":"Polygon","coordinates":[[[-76.6178199,39.3259782],[-76.6178213,39.3259946],[-76.6177995,39.3259958],[-76.6177888,39.3259964],[-76.6177786,39.3259969],[-76.617778,39.325997],[-76.617774,39.3259972],[-76.6177722,39.3259972],[-76.6177714,39.3259973],[-76.6177713,39.3259968],[-76.6177704,39.3259871],[-76.61777,39.3259809],[-76.6177746,39.3259806],[-76.6177764,39.3259806],[-76.6177809,39.3259802],[-76.6177827,39.3259802],[-76.6177829,39.3259801],[-76.617787,39.32598],[-76.6177915,39.3259797],[-76.6178016,39.3259791],[-76.6178033,39.3259791],[-76.6178105,39.3259786],[-76.6178139,39.3259785],[-76.6178142,39.3259784],[-76.6178199,39.3259782]]]}},{"type":"Feature","properties":{"layer":"Stairs","_tile":"6/37/42"},"geometry":{"type":"Polygon","coordinates":[[[-76.6181742,39.3243097],[-76.6181893,39.3243216],[-76.6181938,39.324325],[-76.6181941,39.3243253],[-76.6181962,39.3243269],[-76.618199,39.3243292],[-76.6181997,39.3243296],[-76.6182008,39.3243306],[-76.6181965,39.3243338],[-76.6181957,39.3243345],[-76.6181806,39.3243461],[-76.6181797,39.3243467],[-76.6181723,39.3243418],[-76.6181713,39.324341],[-76.6181702,39.3243404],[-76.6181649,39.3243367],[-76.6181647,39.3243367],[-76.6181607,39.3243338],[-76.6181519,39.3243267],[-76.6181742,39.3243097]]]}},{"type":"Feature","properties":{"layer":"Stairs","_tile":"6/37/42"},"geometry":{"type":"Polygon","coordinates":[[[-76.6182385,39.3243865],[-76.6182398,39.3243854],[-76.618253,39.3243726],[-76.6182591,39.3243764],[-76.6182656,39.3243799],[-76.6182688,39.3243818],[-76.6182711,39.3243828],[-76.618278,39.3243861],[-76.6182823,39.3243878],[-76.618285,39.324389],[-76.618291,39.3243913],[-76.6182922,39.3243917],[-76.6182947,39.3243926],[-76.6182956,39.3243929],[-76.6182977,39.3243937],[-76.6183023,39.324395],[-76.6183043,39.3243955],[-76.6183048,39.3243958],[-76.6183107,39.3243967],[-76.6183202,39.3243977],[-76.618333,39.3243982],[-76.6183443,39.3243983],[-76.6183486,39.3243979],[-76.6183503,39.3243977],[-76.6183571,39.3243972],[-76.6183586,39.324397],[-76.6183608,39.3243969],[-76.6183764,39.3243943],[-76.6183858,39.3243916],[-76.6183857,39.3244108],[-76.6183828,39.3244116],[-76.6183676,39.3244141],[-76.6183665,39.3244142],[-76.6183636,39.3244148],[-76.6183556,39.3244153],[-76.6183456,39.3244163],[-76.6183323,39.3244162],[-76.6183251,39.324416],[-76.618322,39.3244157],[-76.618318,39.3244156],[-76.6183125,39.3244151],[-76.6183067,39.3244145],[-76.6182987,39.324413],[-76.6182982,39.324413],[-76.6182869,39.3244096],[-76.6182772,39.3244062],[-76.6182749,39.3244051],[-76.6182733,39.3244045],[-76.6182655,39.3244012],[-76.6182625,39.3243998],[-76.618256,39.3243968],[-76.6182451,39.3243907],[-76.6182385,39.3243865]]]}}]}