{"type":"FeatureCollection","features":[{"type":"Feature","properties":{"layer":"Trees","_tile":"6/26/32"},"geometry":{"type":"MultiPoint","coordinates":[[-76.6248583,39.3289674],[-76.6248704,39.3289696],[-76.6248695,39.3289885]]}},{"type":"Feature","properties":{"layer":"Trees","_tile":"6/26/33"},"geometry":{"type":"MultiPoint","coordinates":[[-76.625137,39.3286507],[-76.6251555,39.3286782],[-76.6248946,39.3287134],[-76.6249605,39.3287341],[-76.6249138,39.3287346],[-76.6248344,39.3287506],[-76.6248334,39.3287718],[-76.62498,39.3287739],[-76.6249998,39.3287746],[-76.6247801,39.3287782],[-76.6249504,39.3287994],[-76.6250096,39.3288335],[-76.6249809,39.3288427],[-76.6248511,39.328845],[-76.6249163,39.3288455],[-76.6248578,39.3289079],[-76.6248516,39.3289428]]}},{"type":"Feature","properties":{"layer":"Trees","_tile":"6/26/38"},"geometry":{"type":"MultiPoint","coordinates":[[-76.6247288,39.3260326],[-76.6248851,39.3260411],[-76.6250814,39.3260916],[-76.6249939,39.3260978],[-76.624706,39.3261404],[-76.6250488,39.3261564],[-76.6251607,39.3261824]]}},{"type":"Feature","properties":{"layer":"Trees","_tile":"6/26/39"},"geometry":{"type":"MultiPoint","coordinates":[[-76.6251921,39.3255441],[-76.6250941,39.3256033],[-76.6251848,39.3257688],[-76.6247652,39.3258209],[-76.624676,39.3258614],[-76.624824,39.3259028],[-76.6247357,39.3259428],[-76.6249999,39.3259799]]}},{"type":"Feature","properties":{"layer":"Trees","_tile":"6/26/40"},"geometry":{"type":"MultiPoint","coordinates":[[-76.6249863,39.3251343],[-76.6250364,39.3251923],[-76.6250085,39.3252152],[-76.6247294,39.3252563],[-76.6247621,39.3253054],[-76.6251898,39.3254855],[-76.6252642,39.3255011]]}},{"type":"Feature","properties":{"layer":"Trees","_tile":"6/26/41"},"geometry":{"type":"MultiPoint","coordinates":[[-76.6251474,39.3246691],[-76.6252385,39.3248468],[-76.6247947,39.3248898],[-76.6248286,39.3249131],[-76.6251985,39.3249227],[-76.6252767,39.324932],[-76.6248353,39.324965],[-76.6248782,39.3249736]]}},{"type":"Feature","properties":{"layer":"Trees","_tile":"6/26/42"},"geometry":{"type":"MultiPoint","coordinates":[[-76.6247942,39.324077],[-76.6248119,39.3240821],[-76.6248672,39.324095],[-76.6249756,39.324111],[-76.6248753,39.3241486],[-76.6249944,39.324197],[-76.6249161,39.3242215]]}},{"type":"Feature","properties":{"layer":"Trees","_tile":"6/26/43"},"geometry":{"type":"MultiPoint","coordinates":[[-76.6249989,39.3236373],[-76.6250438,39.3237014],[-76.6251469,39.3237748],[-76.6250578,39.3237855],[-76.6250555,39.323817],[-76.624703,39.3238265],[-76.6247741,39.3238599],[-76.625127,39.3238816],[-76.6246784,39.3238841],[-76.6250238,39.3238934],[-76.6247837,39.3239261],[-76.6250741,39.323928]]}},{"type":"Feature","properties":{"layer":"Trees","_tile":"6/27/34"},"geometry":{"type":"MultiPoint","coordinates":[[-76.6241088,39.328068],[-76.6240372,39.3280885],[-76.624176,39.3281117],[-76.6243353,39.328138],[-76.6241797,39.3281464],[-76.6244167,39.3281512],[-76.6241706,39.328178],[-76.6241028,39.3282115],[-76.6241908,39.3282138],[-76.6241983,39.3282504],[-76.6243988,39.3283153],[-76.6244486,39.3283876]]}},{"type":"Feature","properties":{"layer":"Trees","_tile":"6/27/35"},"geometry":{"type":"Point","coordinates":[-76.6241242,39.3277975]}},{"type":"Feature","properties":{"layer":"Trees","_tile":"6/27/36"},"geometry":{"type":"MultiPoint","coordinates":[[-76.6242818,39.3270008],[-76.6241062,39.327055]]}},{"type":"Feature","properties":{"layer":"Trees","_tile":"6/27/37"},"geometry":{"type":"MultiPoint","coordinates":[[-76.6245626,39.3265573],[-76.6241644,39.3265796],[-76.6241567,39.326724],[-76.6240192,39.3268083],[-76.6242036,39.3268403],[-76.6246094,39.3268553],[-76.6242348,39.3269053],[-76.6240766,39.3269624],[-76.6243418,39.3269671],[-76.624374,39.326985],[-76.6240907,39.3269893],[-76.624039,39.3269922],[-76.6243332,39.3269944]]}},{"type":"Feature","properties":{"layer":"Trees","_tile":"6/27/38"},"geometry":{"type":"MultiPoint","coordinates":[[-76.6245336,39.3260349],[-76.6242764,39.3260491],[-76.6244383,39.3260806],[-76.6241712,39.3260957],[-76.6243414,39.3261265],[-76.6245258,39.3261321],[-76.6240705,39.3261455],[-76.6246261,39.326164],[-76.6242311,39.3261789],[-76.6244695,39.3261873],[-76.6245414,39.3262179],[-76.6243297,39.3262173],[-76.6241345,39.3262244],[-76.6240311,39.3262741],[-76.6241743,39.3262996],[-76.6242638,39.3263487],[-76.6240221,39.3263599],[-76.6240787,39.3263851],[-76.6242057,39.3264617]]}},{"type":"Feature","properties":{"layer":"Trees","_tile":"6/27/39"},"geometry":{"type":"MultiPoint","coordinates":[[-76.6245705,39.3259106],[-76.6244702,39.325956],[-76.6246296,39.3259904],[-76.6243773,39.3259989]]}},{"type":"Feature","properties":{"layer":"Trees","_tile":"6/27/40"},"geometry":{"type":"MultiPoint","coordinates":[[-76.6245661,39.3250558],[-76.6246152,39.3251194]]}},{"type":"Feature","properties":{"layer":"Trees","_tile":"6/27/41"},"geometry":{"type":"MultiPoint","coordinates":[[-76.6245578,39.3245815],[-76.6240536,39.3246756],[-76.6246427,39.3246776],[-76.6241035,39.3247399],[-76.6241468,39.3247953],[-76.6241868,39.3248443],[-76.6245419,39.3250174]]}},{"type":"Feature","properties":{"layer":"Trees","_tile":"6/27/42"},"geometry":{"type":"MultiPoint","coordinates":[[-76.6242619,39.3240924],[-76.6242107,39.3241207],[-76.6243767,39.3242067],[-76.6240806,39.3244289],[-76.6244655,39.3244471],[-76.6244446,39.3244553],[-76.624432,39.3244603],[-76.624172,39.3245374]]}},{"type":"Feature","properties":{"layer":"Trees","_tile":"6/27/43"},"geometry":{"type":"MultiPoint","coordinates":[[-76.6246573,39.3236096],[-76.6245916,39.3236418],[-76.624519,39.3236748],[-76.6245266,39.3237195],[-76.6243174,39.3238242],[-76.6243013,39.323842],[-76.6245993,39.323926],[-76.6244066,39.3239522]]}},{"type":"Feature","properties":{"layer":"Trees","_tile":"6/28/32"},"geometry":{"type":"MultiPoint","coordinates":[[-76.6236556,39.3289581],[-76.6237924,39.3290867],[-76.623844,39.329134],[-76.6239086,39.3292373],[-76.6234515,39.3292496],[-76.6234996,39.32929],[-76.6239292,39.3292943],[-76.6235255,39.3293163],[-76.6235335,39.329401],[-76.6234483,39.3294135],[-76.6234644,39.3294224]]}},{"type":"Feature","properties":{"layer":"Trees","_tile":"6/28/33"},"geometry":{"type":"MultiPoint","coordinates":[[-76.6234,39.3285052],[-76.6234166,39.3285743],[-76.6235374,39.3286432],[-76.6234083,39.3286917],[-76.6236453,39.3286978],[-76.6235969,39.3287048],[-76.6234902,39.3287122],[-76.6234915,39.3287581],[-76.6235696,39.3287863]]}},{"type":"Feature","properties":{"layer":"Trees","_tile":"6/28/34"},"geometry":{"type":"Point","coordinates":[-76.6234581,39.3279759]}},{"type":"Feature","properties":{"layer":"Trees","_tile":"6/28/35"},"geometry":{"type":"MultiPoint","coordinates":[[-76.6234838,39.3276064],[-76.6234552,39.3276539],[-76.6235316,39.3276807],[-76.6235504,39.3276988],[-76.6235187,39.3277182],[-76.6237148,39.3277655],[-76.6236385,39.3277748],[-76.623954,39.3277942],[-76.6234707,39.3277952],[-76.6236482,39.3278327],[-76.6236847,39.3278359],[-76.6235435,39.3278412],[-76.6236149,39.3278573],[-76.623954,39.3278762]]}},{"type":"Feature","properties":{"layer":"Trees","_tile":"6/28/36"},"geometry":{"type":"MultiPoint","coordinates":[[-76.6239603,39.3270212],[-76.6238388,39.3270209],[-76.6233916,39.3270378],[-76.6239087,39.3270441],[-76.6238284,39.3271438],[-76.6237686,39.3271674]]}},{"type":"Feature","properties":{"layer":"Trees","_tile":"6/28/37"},"geometry":{"type":"MultiPoint","coordinates":[[-76.6238831,39.3265886],[-76.6239285,39.3267022],[-76.6236829,39.3267925],[-76.6238035,39.3268127],[-76.6236626,39.3268213],[-76.6239292,39.3268418],[-76.6237084,39.3268413],[-76.6237676,39.3268924],[-76.6236961,39.3268972],[-76.6238806,39.3269207],[-76.6238492,39.3269575],[-76.6237783,39.3269632],[-76.6233933,39.326968],[-76.6239951,39.3269891],[-76.6239158,39.3269911]]}},{"type":"Feature","properties":{"layer":"Trees","_tile":"6/28/38"},"geometry":{"type":"MultiPoint","coordinates":[[-76.6239739,39.3261891],[-76.6236909,39.3263192],[-76.6236006,39.3263629],[-76.6237506,39.3264028],[-76.6235034,39.3264096],[-76.6236589,39.3264445],[-76.6235628,39.3264902]]}},{"type":"Feature","properties":{"layer":"Trees","_tile":"6/28/40"},"geometry":{"type":"MultiPoint","coordinates":[[-76.6235001,39.3251784],[-76.6236362,39.3251988],[-76.6234017,39.3252162]]}},{"type":"Feature","properties":{"layer":"Trees","_tile":"6/28/41"},"geometry":{"type":"MultiPoint","coordinates":[[-76.6239621,39.3245588],[-76.6240008,39.324608],[-76.6237224,39.3250028]]}},{"type":"Feature","properties":{"layer":"Trees","_tile":"6/28/42"},"geometry":{"type":"MultiPoint","coordinates":[[-76.6235413,39.324235],[-76.623711,39.3242393],[-76.6234153,39.324281],[-76.6237607,39.324301],[-76.6238106,39.324366],[-76.6236517,39.3243695],[-76.6238628,39.3244319],[-76.6238019,39.324456],[-76.623913,39.3244981]]}},{"type":"Feature","properties":{"layer":"Trees","_tile":"6/28/43"},"geometry":{"type":"MultiPoint","coordinates":[[-76.6239086,39.323602],[-76.6238503,39.3236048],[-76.6237879,39.3236243],[-76.6237693,39.3236338],[-76.6234287,39.3236339],[-76.6238135,39.3236499],[-76.6238473,39.3236995],[-76.6234839,39.3237001],[-76.6235391,39.3237277],[-76.6235643,39.3237517],[-76.6235335,39.3237631],[-76.6238927,39.3237649],[-76.623886,39.3238102],[-76.6235745,39.3238194],[-76.6239048,39.3238284],[-76.6238313,39.3238608],[-76.6236189,39.3238748],[-76.6237695,39.3238893],[-76.6234313,39.3238968],[-76.6237307,39.3239149],[-76.6239941,39.3239198],[-76.6238999,39.3239647],[-76.623468,39.3240379]]}},{"type":"Feature","properties":{"layer":"Trees","_tile":"6/29/32"},"geometry":{"type":"MultiPoint","coordinates":[[-76.6228829,39.3291245],[-76.6232194,39.3291863],[-76.6233596,39.3292064],[-76.6229076,39.329236],[-76.6231032,39.3292509],[-76.622889,39.3292728],[-76.6230213,39.3293471],[-76.6228965,39.3293591],[-76.6228704,39.3293612],[-76.6227592,39.329362],[-76.6228279,39.3293632],[-76.6227715,39.329363],[-76.6227837,39.3293659],[-76.6227972,39.3293679],[-76.6228095,39.3293698],[-76.6228875,39.3293884],[-76.6229469,39.3293908],[-76.6233615,39.3294269],[-76.6229232,39.329428],[-76.6228021,39.3294331]]}},{"type":"Feature","properties":{"layer":"Trees","_tile":"6/29/33"},"geometry":{"type":"MultiPoint","coordinates":[[-76.6233564,39.3284854],[-76.6231804,39.3285527],[-76.6232762,39.328562],[-76.6233504,39.3286003],[-76.6232369,39.3286089]]}},{"type":"Feature","properties":{"layer":"Trees","_tile":"6/29/34"},"geometry":{"type":"MultiPoint","coordinates":[[-76.6230241,39.3280452],[-76.6233193,39.3280497],[-76.6227695,39.3280624],[-76.6228203,39.3281158],[-76.6233295,39.3281809],[-76.6232475,39.3281937],[-76.6231385,39.3282052],[-76.6231459,39.3282589],[-76.6231695,39.328284],[-76.6231531,39.3283381],[-76.6231482,39.3284066]]}},{"type":"Feature","properties":{"layer":"Trees","_tile":"6/29/35"},"geometry":{"type":"MultiPoint","coordinates":[[-76.6227994,39.3275153],[-76.6228293,39.3276162],[-76.622816,39.327685],[-76.6229434,39.3277277],[-76.6233841,39.3277598],[-76.6227653,39.3277613],[-76.6230354,39.3277729],[-76.6228465,39.3278109],[-76.6229919,39.3279057],[-76.6233736,39.3279094],[-76.6229589,39.3279311]]}},{"type":"Feature","properties":{"layer":"Trees","_tile":"6/29/36"},"geometry":{"type":"MultiPoint","coordinates":[[-76.622823,39.327012],[-76.6232999,39.3270194],[-76.6231023,39.3270266],[-76.6233506,39.3270436],[-76.6231439,39.3270837],[-76.622785,39.3271041],[-76.6231488,39.3271693],[-76.6231055,39.3271725],[-76.6230574,39.3272692],[-76.6230434,39.3272981],[-76.6227814,39.3274134],[-76.6230278,39.3274339],[-76.6230613,39.3274694]]}},{"type":"Feature","properties":{"layer":"Trees","_tile":"6/29/37"},"geometry":{"type":"MultiPoint","coordinates":[[-76.6228261,39.3265618],[-76.6227905,39.3265878],[-76.6228384,39.3265952],[-76.6229365,39.3266094],[-76.6229525,39.3266274],[-76.6230093,39.3266445],[-76.6229795,39.3266822],[-76.6228208,39.3269478],[-76.6228269,39.3269671],[-76.6230822,39.3269865],[-76.6231868,39.3269957]]}},{"type":"Feature","properties":{"layer":"Trees","_tile":"6/29/39"},"geometry":{"type":"Point","coordinates":[-76.6229474,39.3256509]}},{"type":"Feature","properties":{"layer":"Trees","_tile":"6/29/40"},"geometry":{"type":"MultiPoint","coordinates":[[-76.6232499,39.325317],[-76.6233169,39.3254121],[-76.6233313,39.3254676]]}},{"type":"Feature","properties":{"layer":"Trees","_tile":"6/29/41"},"geometry":{"type":"MultiPoint","coordinates":[[-76.6230472,39.3245659],[-76.6230474,39.3245663],[-76.6230113,39.324574],[-76.6230267,39.3245902],[-76.6230456,39.3246183],[-76.6230923,39.3246219],[-76.6230639,39.3246409],[-76.6231408,39.3246477]]}},{"type":"Feature","properties":{"layer":"Trees","_tile":"6/29/42"},"geometry":{"type":"MultiPoint","coordinates":[[-76.6233562,39.3240846],[-76.6228184,39.324087],[-76.6227952,39.3240926],[-76.6231614,39.3241867],[-76.6231286,39.3242026],[-76.6230154,39.3242525],[-76.6228918,39.3242993],[-76.6228811,39.3243051],[-76.6228085,39.324343],[-76.622951,39.3244865],[-76.6228155,39.3245488]]}},{"type":"Feature","properties":{"layer":"Trees","_tile":"6/29/43"},"geometry":{"type":"MultiPoint","coordinates":[[-76.6230183,39.3236259],[-76.6232432,39.3236348],[-76.623265,39.3236645],[-76.6228739,39.3236895],[-76.6232352,39.3237015],[-76.6228333,39.3237105],[-76.6233072,39.3237187],[-76.6232758,39.3238169],[-76.6232634,39.3238223],[-76.6229789,39.3238352],[-76.6228304,39.3238551],[-76.6229454,39.3238564],[-76.6231954,39.3238586],[-76.6230315,39.3239375],[-76.6227859,39.3240605]]}},{"type":"Feature","properties":{"layer":"Trees","_tile":"6/30/32"},"geometry":{"type":"MultiPoint","coordinates":[[-76.6222486,39.3291186],[-76.6222386,39.3291586],[-76.6221852,39.3292459],[-76.622195,39.3292488],[-76.622206,39.3292526],[-76.6222183,39.3292546],[-76.622233,39.3292585],[-76.622244,39.3292614],[-76.6222575,39.3292633],[-76.6222686,39.3292671],[-76.6222833,39.3292691],[-76.6222955,39.329272],[-76.6223078,39.3292739],[-76.6223201,39.3292768],[-76.6223311,39.3292778],[-76.6223434,39.3292817],[-76.6223569,39.3292836],[-76.6223691,39.3292856],[-76.6223814,39.3292885],[-76.6223924,39.3292904],[-76.6226059,39.329331],[-76.622617,39.329333],[-76.6226305,39.3293359],[-76.6226439,39.3293397],[-76.6226574,39.3293426],[-76.6226697,39.3293446],[-76.6226832,39.3293475],[-76.6226967,39.3293485],[-76.6227102,39.3293523],[-76.6227224,39.3293543],[-76.6221727,39.3293543],[-76.6227347,39.3293572],[-76.6227469,39.3293591],[-76.622238,39.3293606],[-76.6223197,39.329371],[-76.6226088,39.3294302]]}},{"type":"Feature","properties":{"layer":"Trees","_tile":"6/30/33"},"geometry":{"type":"Point","coordinates":[-76.6221563,39.328855]}},{"type":"Feature","properties":{"layer":"Trees","_tile":"6/30/34"},"geometry":{"type":"MultiPoint","coordinates":[[-76.6227269,39.3280588],[-76.6225683,39.3280662],[-76.6226225,39.3281148],[-76.6226702,39.3281334],[-76.6223922,39.3281455],[-76.6224556,39.3281458],[-76.6222983,39.3281567],[-76.6224018,39.3282756]]}},{"type":"Feature","properties":{"layer":"Trees","_tile":"6/30/35"},"geometry":{"type":"MultiPoint","coordinates":[[-76.6227049,39.3275227],[-76.6227037,39.3275868],[-76.6227411,39.3275938],[-76.6221292,39.3276562],[-76.6227096,39.3276917],[-76.6221309,39.3277512],[-76.6226204,39.3277667],[-76.6224784,39.3277784],[-76.6221515,39.3278038],[-76.6221329,39.327809],[-76.6227232,39.3278252],[-76.6221353,39.3278243],[-76.6224737,39.3278332],[-76.6226131,39.3278738],[-76.6225069,39.3278833],[-76.622174,39.3279014],[-76.6222358,39.3279222],[-76.6221499,39.3279256]]}},{"type":"Feature","properties":{"layer":"Trees","_tile":"6/30/36"},"geometry":{"type":"MultiPoint","coordinates":[[-76.6224974,39.3270612],[-76.6224138,39.3270711],[-76.6224114,39.3271127],[-76.6225398,39.3271648],[-76.6221599,39.3271753],[-76.6221329,39.3272626],[-76.6225327,39.3272686],[-76.6227264,39.3273289],[-76.6224541,39.3273598],[-76.6225818,39.3274005],[-76.6225301,39.3274347],[-76.6224773,39.3274383],[-76.6225054,39.3274565]]}},{"type":"Feature","properties":{"layer":"Trees","_tile":"6/30/37"},"geometry":{"type":"MultiPoint","coordinates":[[-76.6223507,39.3265469],[-76.622553,39.326659],[-76.6224888,39.32667],[-76.6226104,39.3267331],[-76.6223827,39.326767],[-76.6227315,39.3267897],[-76.6224816,39.3268349],[-76.6223837,39.3268564],[-76.6224905,39.3269576],[-76.6227226,39.3269818]]}},{"type":"Feature","properties":{"layer":"Trees","_tile":"6/30/38"},"geometry":{"type":"MultiPoint","coordinates":[[-76.622547,39.3261008],[-76.6222985,39.32613],[-76.6224778,39.3261421],[-76.6223181,39.3261963],[-76.6225548,39.326231],[-76.6223368,39.3262793],[-76.6226293,39.3262934],[-76.6226044,39.3263596],[-76.6226256,39.326378],[-76.6226971,39.3263805],[-76.6227135,39.3263894],[-76.6223999,39.3263903],[-76.622188,39.3263934],[-76.6222648,39.3264691],[-76.6224559,39.3264703],[-76.6221425,39.3264708],[-76.6223212,39.3264715],[-76.6223594,39.3264998]]}},{"type":"Feature","properties":{"layer":"Trees","_tile":"6/30/39"},"geometry":{"type":"MultiPoint","coordinates":[[-76.6227274,39.3255381],[-76.6221486,39.3256135],[-76.6226036,39.3256681],[-76.6222968,39.3257266],[-76.6226576,39.325736],[-76.622252,39.325786],[-76.6223179,39.325791],[-76.6223684,39.3258189],[-76.6223039,39.3258297]]}},{"type":"Feature","properties":{"layer":"Trees","_tile":"6/30/40"},"geometry":{"type":"MultiPoint","coordinates":[[-76.6224227,39.3250798],[-76.6225901,39.3251049],[-76.622564,39.3251048],[-76.6224311,39.3251173],[-76.6223669,39.3251211],[-76.6223046,39.3251264],[-76.6227164,39.3252948],[-76.6226741,39.3254],[-76.6224438,39.3254378],[-76.622596,39.3254974]]}},{"type":"Feature","properties":{"layer":"Trees","_tile":"6/30/41"},"geometry":{"type":"MultiPoint","coordinates":[[-76.6221971,39.3245598],[-76.6222464,39.3245633],[-76.6221914,39.3245996],[-76.6222301,39.3248859],[-76.6224034,39.3250161]]}},{"type":"Feature","properties":{"layer":"Trees","_tile":"6/30/42"},"geometry":{"type":"MultiPoint","coordinates":[[-76.6226276,39.324082],[-76.6226844,39.324105],[-76.622581,39.3241052],[-76.6225206,39.3241264],[-76.6221646,39.3241352],[-76.6226822,39.3241397],[-76.6225695,39.3241655],[-76.6225396,39.3242116],[-76.622474,39.3242273],[-76.6222509,39.3242265],[-76.6224305,39.3242448],[-76.6223619,39.32425],[-76.6224037,39.3242898],[-76.622316,39.3243116],[-76.6227305,39.3243801],[-76.6226482,39.3244165],[-76.6222689,39.3244316],[-76.6226085,39.3244357],[-76.6225681,39.3244541]]}},{"type":"Feature","properties":{"layer":"Trees","_tile":"6/30/43"},"geometry":{"type":"MultiPoint","coordinates":[[-76.622153,39.3236295],[-76.6221713,39.3236545],[-76.6221774,39.3236653],[-76.6221835,39.3236725],[-76.6222018,39.323694],[-76.6222078,39.3237047],[-76.6222276,39.3237322],[-76.6227304,39.3237583],[-76.6222505,39.323762],[-76.6221612,39.3237683],[-76.6222596,39.3237728],[-76.6226232,39.3237799],[-76.6222688,39.3237847],[-76.6226048,39.323787],[-76.62264,39.3237907],[-76.6226231,39.323799],[-76.6225739,39.3238143],[-76.6222886,39.3238134],[-76.6224787,39.3238402],[-76.6225063,39.3238415],[-76.6222459,39.3238457],[-76.6225154,39.3238558],[-76.6224294,39.3238663],[-76.6224693,39.3238748],[-76.6224033,39.3238757],[-76.6223895,39.323884],[-76.6223648,39.3238947],[-76.6223924,39.3239019],[-76.622612,39.3239634],[-76.6221988,39.3239978],[-76.622433,39.3240398]]}},{"type":"Feature","properties":{"layer":"Trees","_tile":"6/31/32"},"geometry":{"type":"MultiPoint","coordinates":[[-76.6219558,39.3291119],[-76.6220735,39.329217],[-76.6218171,39.329302],[-76.6216797,39.3293845],[-76.6215201,39.3294082],[-76.6219565,39.3294118]]}},{"type":"Feature","properties":{"layer":"Trees","_tile":"6/31/33"},"geometry":{"type":"MultiPoint","coordinates":[[-76.6216151,39.3285676],[-76.6216275,39.3286105],[-76.6215949,39.3286159],[-76.621913,39.3286194],[-76.6214986,39.3286202],[-76.6219424,39.3286299],[-76.6216453,39.3286395],[-76.6219332,39.3288239]]}},{"type":"Feature","properties":{"layer":"Trees","_tile":"6/31/34"},"geometry":{"type":"MultiPoint","coordinates":[[-76.6220611,39.328093],[-76.6219709,39.3280927],[-76.6220426,39.3281086],[-76.6217799,39.3281974],[-76.6216828,39.3282912],[-76.6220613,39.3284018]]}},{"type":"Feature","properties":{"layer":"Trees","_tile":"6/31/35"},"geometry":{"type":"MultiPoint","coordinates":[[-76.622114,39.3274936],[-76.6221184,39.3275517],[-76.6219301,39.3275965],[-76.6217269,39.3276458],[-76.6215317,39.3276468],[-76.6215614,39.3276531],[-76.6218642,39.3276621],[-76.6218317,39.3276691],[-76.6219401,39.3276854],[-76.6218071,39.3277522],[-76.6220036,39.3277746],[-76.6217734,39.3277812],[-76.6215233,39.3277842],[-76.6218315,39.3278263],[-76.6217582,39.3278302],[-76.6215868,39.3278496],[-76.6215151,39.3278757],[-76.6215882,39.3278991],[-76.6220111,39.3279471]]}},{"type":"Feature","properties":{"layer":"Trees","_tile":"6/31/36"},"geometry":{"type":"MultiPoint","coordinates":[[-76.6216509,39.3270097],[-76.6216755,39.3270121],[-76.6217782,39.3270166],[-76.621699,39.3270209],[-76.6215243,39.3270212],[-76.6217275,39.3270284],[-76.6220519,39.3270604],[-76.6219161,39.3270635],[-76.621837,39.3270722],[-76.6220832,39.3270772],[-76.6217645,39.3270868],[-76.6217048,39.3270902],[-76.621514,39.3271003],[-76.6218944,39.3271034],[-76.6218114,39.3271035],[-76.6219641,39.3271257],[-76.6221006,39.3271333],[-76.6221133,39.3273418],[-76.6220898,39.3273723],[-76.6221081,39.3273914]]}},{"type":"Feature","properties":{"layer":"Trees","_tile":"6/31/37"},"geometry":{"type":"MultiPoint","coordinates":[[-76.6220463,39.3265188],[-76.6219065,39.3265493],[-76.622018,39.3266516],[-76.6219075,39.326653],[-76.6218811,39.3267185],[-76.6220873,39.3267406],[-76.6220535,39.3267637],[-76.621992,39.326773],[-76.6216688,39.3268149],[-76.6220452,39.3268787],[-76.6220804,39.3268859],[-76.6220006,39.3268892],[-76.6217942,39.3269053],[-76.6220756,39.3269306],[-76.6219136,39.3269575],[-76.6220423,39.3269758]]}},{"type":"Feature","properties":{"layer":"Trees","_tile":"6/31/38"},"geometry":{"type":"MultiPoint","coordinates":[[-76.6216018,39.3260146],[-76.6219446,39.3260299],[-76.6216354,39.3260367],[-76.6219036,39.3260858],[-76.6215643,39.3261132],[-76.6219362,39.3261681],[-76.6217574,39.3261783],[-76.6219314,39.3261937],[-76.6220111,39.3262154],[-76.6218736,39.3262579],[-76.6220108,39.326278],[-76.6218899,39.3263556],[-76.622037,39.326389],[-76.6221277,39.3263923],[-76.6219337,39.3264279],[-76.622065,39.326467],[-76.6220933,39.3264761],[-76.6220289,39.3264758]]}},{"type":"Feature","properties":{"layer":"Trees","_tile":"6/31/39"},"geometry":{"type":"MultiPoint","coordinates":[[-76.622089,39.3255615],[-76.6218428,39.3255625],[-76.6217483,39.3255735],[-76.6216415,39.3256405],[-76.6219365,39.325676],[-76.6216882,39.3257693],[-76.6217371,39.3258124],[-76.6219448,39.325853],[-76.6218343,39.325858],[-76.6217636,39.3258685],[-76.6219483,39.3259036],[-76.6218371,39.3259086],[-76.6217633,39.3259334],[-76.6220115,39.3260039]]}},{"type":"Feature","properties":{"layer":"Trees","_tile":"6/31/40"},"geometry":{"type":"MultiPoint","coordinates":[[-76.6217622,39.3250541],[-76.6217019,39.325077],[-76.622113,39.3250888],[-76.6217676,39.3251237],[-76.6216878,39.3251313],[-76.6218265,39.3251866],[-76.6217203,39.325372],[-76.6218075,39.3254182],[-76.6219238,39.3254656],[-76.621853,39.3255053]]}},{"type":"Feature","properties":{"layer":"Trees","_tile":"6/31/41"},"geometry":{"type":"MultiPoint","coordinates":[[-76.621886,39.3245518],[-76.6218037,39.3245526],[-76.6219018,39.3245892],[-76.6219625,39.3245984],[-76.6221187,39.324634],[-76.6219644,39.3246394],[-76.6215268,39.3246869],[-76.6216613,39.3247156],[-76.62161,39.3247391],[-76.6218745,39.3247572],[-76.6217286,39.3248172],[-76.6215285,39.3248188],[-76.621568,39.3248364],[-76.6215459,39.3248655],[-76.6220731,39.3249181],[-76.6215893,39.3249284],[-76.6215474,39.3249303],[-76.6219884,39.3249709],[-76.6219125,39.3249931],[-76.6218909,39.32502]]}},{"type":"Feature","properties":{"layer":"Trees","_tile":"6/31/42"},"geometry":{"type":"MultiPoint","coordinates":[[-76.6219992,39.324103],[-76.6218905,39.3241245],[-76.6216699,39.3241482],[-76.6220939,39.3241868],[-76.6217031,39.3241968],[-76.6217395,39.3242323],[-76.6220234,39.3243701],[-76.6220117,39.3243801],[-76.6216255,39.3244345]]}},{"type":"Feature","properties":{"layer":"Trees","_tile":"6/31/43"},"geometry":{"type":"MultiPoint","coordinates":[[-76.6220416,39.3235795],[-76.6217139,39.3235841],[-76.6221332,39.3236032],[-76.6221408,39.3236139],[-76.6215976,39.3236297],[-76.6218275,39.3236565],[-76.6216689,39.3237224],[-76.6215916,39.3237461],[-76.6219328,39.3238388],[-76.6218899,39.3238541],[-76.6217773,39.3238607],[-76.6219764,39.3238831],[-76.6218192,39.3239149],[-76.6220263,39.3239166],[-76.62186,39.3239627],[-76.6218154,39.3239813],[-76.6218947,39.3240007],[-76.6215546,39.3240158],[-76.622047,39.3240262],[-76.6221406,39.3240367],[-76.6219519,39.3240553]]}},{"type":"Feature","properties":{"layer":"Trees","_tile":"6/32/32"},"geometry":{"type":"MultiPoint","coordinates":[[-76.6212023,39.3291071],[-76.6209423,39.3291706],[-76.6212092,39.3292001],[-76.6208654,39.3292195],[-76.6212808,39.3292237],[-76.6212959,39.3292757],[-76.6211688,39.3292796],[-76.621073,39.329294],[-76.6208857,39.3293135],[-76.6214482,39.3293211],[-76.6209428,39.3293208],[-76.6213014,39.3293303],[-76.6211781,39.329337],[-76.6214243,39.3294294]]}},{"type":"Feature","properties":{"layer":"Trees","_tile":"6/32/33"},"geometry":{"type":"MultiPoint","coordinates":[[-76.621496,39.3284676],[-76.6211324,39.3285233],[-76.6211383,39.3285431],[-76.621147,39.3285661],[-76.6212533,39.3285786],[-76.6211654,39.3285829],[-76.6214792,39.3286182],[-76.62126,39.3286497],[-76.6211353,39.328657],[-76.6209264,39.3287011],[-76.6212645,39.3287146],[-76.6210418,39.3287139],[-76.6211418,39.328718],[-76.6212489,39.3287774],[-76.6211843,39.3287944],[-76.6209347,39.3288851],[-76.6211906,39.3288878]]}},{"type":"Feature","properties":{"layer":"Trees","_tile":"6/32/34"},"geometry":{"type":"MultiPoint","coordinates":[[-76.6214591,39.3280242],[-76.6213485,39.3280553],[-76.6213585,39.3282365],[-76.6214831,39.3282465],[-76.6213484,39.3282892],[-76.6211161,39.3282998],[-76.6213185,39.3283183],[-76.6211189,39.3283417],[-76.6212549,39.328362],[-76.6213558,39.3283672],[-76.6211207,39.3283824],[-76.6214088,39.3284113],[-76.6211242,39.3284244],[-76.6212541,39.3284268],[-76.621321,39.3284309]]}},{"type":"Feature","properties":{"layer":"Trees","_tile":"6/32/35"},"geometry":{"type":"MultiPoint","coordinates":[[-76.6210846,39.3274966],[-76.6212284,39.3275429],[-76.6209461,39.3275804],[-76.6211475,39.3275932],[-76.6213947,39.3276156],[-76.6213281,39.3276354],[-76.6212624,39.327658],[-76.6214069,39.3276794],[-76.6214752,39.3277716],[-76.6211659,39.3277945],[-76.6213059,39.3278139],[-76.6209662,39.3278665],[-76.6213275,39.3278724],[-76.6214141,39.3278828],[-76.6211301,39.3278886],[-76.6214413,39.327905],[-76.6214142,39.3279239],[-76.6214461,39.3279279],[-76.6213399,39.3279593]]}},{"type":"Feature","properties":{"layer":"Trees","_tile":"6/32/36"},"geometry":{"type":"MultiPoint","coordinates":[[-76.621483,39.3270026],[-76.6214284,39.327028],[-76.621383,39.327038],[-76.6214567,39.3270418],[-76.6213246,39.3270569],[-76.621376,39.327097],[-76.6214379,39.3271043],[-76.6212891,39.3271068],[-76.6213113,39.3271116],[-76.6214655,39.3271143],[-76.6213888,39.3271156],[-76.6213611,39.3271169],[-76.6212549,39.3271308],[-76.6210925,39.3271372],[-76.6212159,39.3271662],[-76.6209254,39.3272516],[-76.6212238,39.3272699],[-76.6210387,39.3273116],[-76.6211775,39.3273126],[-76.6211695,39.3273686],[-76.6212217,39.3273711],[-76.62094,39.3273919]]}},{"type":"Feature","properties":{"layer":"Trees","_tile":"6/32/37"},"geometry":{"type":"MultiPoint","coordinates":[[-76.6210775,39.3265061],[-76.6211987,39.3265137],[-76.6210512,39.326546],[-76.6211834,39.3266042],[-76.6210784,39.3266223],[-76.6212154,39.3266782],[-76.6212773,39.3267344],[-76.6211373,39.3267977],[-76.6214763,39.3268202],[-76.6212618,39.3269047],[-76.6211466,39.3269252],[-76.6213322,39.3269371],[-76.6212285,39.3269553],[-76.6211249,39.3269728],[-76.6212775,39.3269769],[-76.6212322,39.3269857]]}},{"type":"Feature","properties":{"layer":"Trees","_tile":"6/32/38"},"geometry":{"type":"MultiPoint","coordinates":[[-76.6213483,39.3260167],[-76.6210195,39.326021],[-76.6213019,39.3260296],[-76.6213853,39.3260442],[-76.6211957,39.3260549],[-76.6211366,39.3260732],[-76.6214489,39.3261163],[-76.6211906,39.3261544],[-76.6213062,39.3261994],[-76.621042,39.3262528],[-76.6212099,39.3262808],[-76.6211835,39.3263319],[-76.6212087,39.326363],[-76.6210504,39.326406],[-76.621166,39.3264297],[-76.6210731,39.326462]]}},{"type":"Feature","properties":{"layer":"Trees","_tile":"6/32/39"},"geometry":{"type":"MultiPoint","coordinates":[[-76.6211209,39.3255619],[-76.6211883,39.3255848],[-76.621333,39.3256426],[-76.6210708,39.3257429],[-76.6209264,39.3257865],[-76.6213076,39.3257895],[-76.6209492,39.3258307],[-76.621266,39.3258347],[-76.6212388,39.3258864],[-76.6209457,39.3258956],[-76.6208819,39.3259329],[-76.6212415,39.3259567]]}},{"type":"Feature","properties":{"layer":"Trees","_tile":"6/32/40"},"geometry":{"type":"MultiPoint","coordinates":[[-76.621007,39.3250611],[-76.6210516,39.3250948],[-76.6211034,39.3250965],[-76.6212371,39.3251225],[-76.6212099,39.3251344],[-76.6209711,39.3251718],[-76.6212317,39.3252108],[-76.6209077,39.3252651],[-76.621001,39.3254686],[-76.6211242,39.3255083]]}},{"type":"Feature","properties":{"layer":"Trees","_tile":"6/32/41"},"geometry":{"type":"MultiPoint","coordinates":[[-76.6213318,39.3245628],[-76.6212454,39.3246022],[-76.6209796,39.3246169],[-76.6214344,39.324628],[-76.6213023,39.3246833],[-76.6210156,39.3247289],[-76.6210606,39.3247526],[-76.6210536,39.3247828],[-76.6214572,39.324787],[-76.6214102,39.3249077],[-76.621036,39.3250333]]}},{"type":"Feature","properties":{"layer":"Trees","_tile":"6/32/42"},"geometry":{"type":"MultiPoint","coordinates":[[-76.6213427,39.3240743],[-76.6209292,39.3241162],[-76.621446,39.3241915],[-76.6210029,39.3242105],[-76.6214685,39.3242144],[-76.6213964,39.3242228],[-76.6211572,39.3242588],[-76.6211667,39.3242801],[-76.6214833,39.3242994],[-76.6211812,39.3243003],[-76.6211934,39.3243113],[-76.6212219,39.3243486],[-76.6212291,39.3243547],[-76.6209579,39.3243648],[-76.6209706,39.3243671],[-76.6209821,39.3243737],[-76.6209495,39.3243806],[-76.6209788,39.3243863],[-76.6212539,39.3244098],[-76.6212054,39.3244744],[-76.6213311,39.3244887],[-76.6209895,39.3245076],[-76.6213876,39.3245098],[-76.6210433,39.3245413]]}},{"type":"Feature","properties":{"layer":"Trees","_tile":"6/32/43"},"geometry":{"type":"MultiPoint","coordinates":[[-76.6210772,39.3235827],[-76.6209657,39.3235883],[-76.6209934,39.3236145],[-76.6210074,39.3236655],[-76.6211556,39.3236811],[-76.6213312,39.323733],[-76.6212474,39.3237662],[-76.6213678,39.3237691],[-76.6210854,39.3237699],[-76.6211203,39.3237751],[-76.6213548,39.3237998],[-76.6211192,39.323816],[-76.6210898,39.3238273],[-76.6211022,39.323829],[-76.621116,39.3238609],[-76.6211641,39.3238832],[-76.6212119,39.3239227],[-76.6208969,39.3239457],[-76.6215042,39.3239765],[-76.6212063,39.3239914],[-76.6214294,39.32402],[-76.6215172,39.3240326],[-76.6214635,39.3240589],[-76.6209919,39.3240589],[-76.6213431,39.3240607]]}},{"type":"Feature","properties":{"layer":"Trees","_tile":"6/33/32"},"geometry":{"type":"MultiPoint","coordinates":[[-76.6205621,39.3291203],[-76.6203178,39.32913],[-76.6205812,39.3292167],[-76.620282,39.3292169],[-76.6207413,39.3292363],[-76.6203288,39.3292468],[-76.6206016,39.3293149],[-76.6206378,39.3293198],[-76.6208507,39.3293243],[-76.6206899,39.3293281],[-76.6207997,39.3293346],[-76.6207463,39.3293359],[-76.620267,39.3293353],[-76.6203676,39.3293418]]}},{"type":"Feature","properties":{"layer":"Trees","_tile":"6/33/33"},"geometry":{"type":"MultiPoint","coordinates":[[-76.6203287,39.3284605],[-76.6204871,39.3284767],[-76.6202831,39.3284934],[-76.6204922,39.3285053],[-76.6206466,39.3287012],[-76.6208178,39.3287036],[-76.6207085,39.3287061],[-76.6202387,39.3287148],[-76.6205778,39.3287171],[-76.6208436,39.3288143],[-76.620727,39.3288158],[-76.6205631,39.3288219],[-76.6202813,39.3288353],[-76.6208065,39.3288628],[-76.6205557,39.3289325]]}},{"type":"Feature","properties":{"layer":"Trees","_tile":"6/33/34"},"geometry":{"type":"MultiPoint","coordinates":[[-76.6204489,39.3279938],[-76.620698,39.3280359],[-76.6206198,39.3280799],[-76.620489,39.3280924],[-76.6206345,39.328213],[-76.6205511,39.328243],[-76.6208452,39.3283133],[-76.6207292,39.3283183],[-76.6204951,39.3283308],[-76.6202912,39.3283405],[-76.6204838,39.3283608],[-76.6202861,39.3283616],[-76.6202885,39.3283879],[-76.620488,39.3284007],[-76.6205057,39.3284157],[-76.6202914,39.3284206],[-76.620465,39.3284479]]}},{"type":"Feature","properties":{"layer":"Trees","_tile":"6/33/35"},"geometry":{"type":"MultiPoint","coordinates":[[-76.6205846,39.3275488],[-76.6204595,39.3275886],[-76.6205899,39.327622],[-76.6204689,39.3277076],[-76.6206026,39.3278559],[-76.6206064,39.3278894],[-76.620484,39.3278922],[-76.6206072,39.3279204],[-76.6202511,39.3279499]]}},{"type":"Feature","properties":{"layer":"Trees","_tile":"6/33/36"},"geometry":{"type":"MultiPoint","coordinates":[[-76.6205632,39.3270727],[-76.6204757,39.3270798],[-76.6204824,39.3272085],[-76.6205685,39.3272273],[-76.6205649,39.3273098],[-76.6204942,39.3273214],[-76.6207561,39.3273931],[-76.6206964,39.3273948],[-76.620822,39.3273977],[-76.6205883,39.3274014],[-76.6204427,39.3274016]]}},{"type":"Feature","properties":{"layer":"Trees","_tile":"6/33/37"},"geometry":{"type":"MultiPoint","coordinates":[[-76.6206914,39.326542],[-76.620608,39.3265659],[-76.620602,39.3267367],[-76.6204843,39.3267522],[-76.6205364,39.3267546],[-76.620507,39.3267928],[-76.620648,39.3268279],[-76.6205495,39.3268537],[-76.6205427,39.3269767]]}},{"type":"Feature","properties":{"layer":"Trees","_tile":"6/33/38"},"geometry":{"type":"MultiPoint","coordinates":[[-76.6206487,39.3260645],[-76.6205826,39.3260923],[-76.6206284,39.3261299],[-76.6203198,39.3261741],[-76.6206158,39.3262038],[-76.6206169,39.326286],[-76.6206241,39.3263635],[-76.6206422,39.3264315]]}},{"type":"Feature","properties":{"layer":"Trees","_tile":"6/33/39"},"geometry":{"type":"MultiPoint","coordinates":[[-76.620782,39.325534],[-76.6208563,39.3255492],[-76.6207771,39.3255763],[-76.6208477,39.3255861],[-76.6207157,39.325586],[-76.6207592,39.3256335],[-76.6208328,39.3256349],[-76.6208057,39.3256813],[-76.6207948,39.3257164],[-76.620413,39.3257237],[-76.6207809,39.3257378],[-76.6207634,39.3257449],[-76.6207363,39.3257621],[-76.6204238,39.3257738],[-76.6205029,39.3257955],[-76.62028,39.3258105],[-76.6206983,39.3258239],[-76.6203223,39.325825],[-76.6206707,39.3258334],[-76.62064,39.3258356],[-76.6205358,39.3258385],[-76.6203277,39.3258507],[-76.6206161,39.325857],[-76.6208569,39.3258649],[-76.6204933,39.3258713],[-76.6204601,39.3258712],[-76.6202999,39.3258735],[-76.6205262,39.3258746],[-76.6203312,39.3258822],[-76.6205377,39.3258901],[-76.6205529,39.3259086],[-76.6202869,39.3259078],[-76.6202666,39.3259192],[-76.6205643,39.3259295],[-76.6208381,39.3259346],[-76.6203154,39.325941],[-76.6204077,39.3259421],[-76.6204161,39.3259642],[-76.6203976,39.3259779],[-76.6203331,39.3259848],[-76.6203859,39.3260011],[-76.620735,39.3260028]]}},{"type":"Feature","properties":{"layer":"Trees","_tile":"6/33/40"},"geometry":{"type":"MultiPoint","coordinates":[[-76.6204762,39.3250464],[-76.6206701,39.3250588],[-76.6203419,39.3250598],[-76.6207335,39.3250771],[-76.6203443,39.3250959],[-76.620706,39.3251081],[-76.6205703,39.3251282],[-76.6207418,39.325149],[-76.6203613,39.3251898],[-76.6206603,39.3251994],[-76.6202748,39.3252017],[-76.6206683,39.3252673],[-76.6206708,39.3253871],[-76.6207459,39.3253987],[-76.6207235,39.3254188],[-76.6207464,39.3254445],[-76.6207747,39.3254679],[-76.6207699,39.3254994],[-76.6208213,39.3255002]]}},{"type":"Feature","properties":{"layer":"Trees","_tile":"6/33/41"},"geometry":{"type":"MultiPoint","coordinates":[[-76.6205994,39.3245556],[-76.6203954,39.324717],[-76.6205742,39.3248047],[-76.6204376,39.3248294],[-76.6204953,39.3249176],[-76.620579,39.3249542],[-76.6207405,39.3249637],[-76.6206335,39.3249861],[-76.6206489,39.3250238]]}},{"type":"Feature","properties":{"layer":"Trees","_tile":"6/33/42"},"geometry":{"type":"MultiPoint","coordinates":[[-76.620768,39.3241009],[-76.6208576,39.3242219],[-76.6207084,39.3242247],[-76.6203579,39.3242449],[-76.6206047,39.324257],[-76.6208657,39.3244144],[-76.620507,39.3245079]]}},{"type":"Feature","properties":{"layer":"Trees","_tile":"6/33/43"},"geometry":{"type":"MultiPoint","coordinates":[[-76.6205487,39.3236313],[-76.6203577,39.3236308],[-76.6206021,39.3237013],[-76.6204821,39.3237461],[-76.6203401,39.3237818],[-76.6206774,39.3237925],[-76.6202656,39.3238358],[-76.6205526,39.3238462],[-76.6208261,39.3238752],[-76.6202854,39.3238924],[-76.6206492,39.3239441],[-76.6207979,39.3239535],[-76.6202831,39.323984],[-76.6204801,39.3239975],[-76.6207054,39.324026],[-76.6208714,39.324045]]}},{"type":"Feature","properties":{"layer":"Trees","_tile":"6/34/32"},"geometry":{"type":"MultiPoint","coordinates":[[-76.6199272,39.32894],[-76.6197971,39.3289472],[-76.6198212,39.3291523],[-76.6201509,39.3292262],[-76.6198152,39.329229],[-76.6200588,39.3292412],[-76.6202275,39.3292522],[-76.6198937,39.3292516],[-76.620117,39.3292547],[-76.6199636,39.3292633],[-76.6201344,39.3293425],[-76.6201969,39.329356],[-76.6198672,39.329355],[-76.6200354,39.3293636],[-76.6199311,39.3293685],[-76.6201158,39.3293725],[-76.6196615,39.3293953]]}},{"type":"Feature","properties":{"layer":"Trees","_tile":"6/34/33"},"geometry":{"type":"MultiPoint","coordinates":[[-76.620165,39.3287189],[-76.6199901,39.3287269],[-76.6196828,39.3287428],[-76.6198615,39.3287512],[-76.6196863,39.3287734],[-76.620096,39.3288309],[-76.6198748,39.3288736],[-76.6201917,39.3288977],[-76.6200502,39.3288985]]}},{"type":"Feature","properties":{"layer":"Trees","_tile":"6/34/34"},"geometry":{"type":"MultiPoint","coordinates":[[-76.6201966,39.3279754],[-76.6201165,39.3279873],[-76.6201056,39.3281013],[-76.6201234,39.3282358],[-76.6202119,39.3282534],[-76.6200263,39.3283179],[-76.6199249,39.3283183],[-76.619962,39.3283243]]}},{"type":"Feature","properties":{"layer":"Trees","_tile":"6/34/35"},"geometry":{"type":"MultiPoint","coordinates":[[-76.6197501,39.3274737],[-76.6196442,39.3274764],[-76.6201528,39.3275115],[-76.6200919,39.3275378],[-76.6200972,39.3276105],[-76.6201725,39.3276608],[-76.6201053,39.3276951],[-76.6201057,39.3277275],[-76.620222,39.3277833],[-76.6201065,39.32779],[-76.620105,39.327829],[-76.6201897,39.3278896],[-76.6201157,39.3279025]]}},{"type":"Feature","properties":{"layer":"Trees","_tile":"6/34/36"},"geometry":{"type":"MultiPoint","coordinates":[[-76.620173,39.3270353],[-76.6200444,39.3270551],[-76.6201247,39.3270781],[-76.6200263,39.3270909],[-76.6201454,39.3272331],[-76.6200493,39.3272351],[-76.6200576,39.3272816],[-76.6201421,39.3273336],[-76.6197124,39.3273497],[-76.6200617,39.3273523],[-76.6196632,39.327361],[-76.6198905,39.3274276],[-76.619863,39.3274384],[-76.6197004,39.3274459],[-76.620154,39.3274554]]}},{"type":"Feature","properties":{"layer":"Trees","_tile":"6/34/37"},"geometry":{"type":"MultiPoint","coordinates":[[-76.6200271,39.3265968],[-76.6198372,39.3266117],[-76.6196271,39.3266571],[-76.6199157,39.3266841],[-76.6197353,39.3267124],[-76.6200788,39.3267746],[-76.6200309,39.3267745],[-76.6198719,39.3268191],[-76.6200417,39.3268723],[-76.6197003,39.3268811],[-76.6198333,39.3269126],[-76.6198974,39.3269436],[-76.6200217,39.3269672],[-76.6201357,39.3269827]]}},{"type":"Feature","properties":{"layer":"Trees","_tile":"6/34/38"},"geometry":{"type":"MultiPoint","coordinates":[[-76.6201435,39.3260142],[-76.6201013,39.326038],[-76.6200664,39.3260716],[-76.6200352,39.3260937],[-76.6199726,39.3261481],[-76.6199261,39.3261821],[-76.6198053,39.3262666],[-76.6198188,39.32628],[-76.6198113,39.3262904],[-76.6197634,39.3263008],[-76.6197978,39.3263028],[-76.6197842,39.3263132],[-76.6197707,39.3263227],[-76.6197559,39.3263322],[-76.6197423,39.3263426],[-76.6197288,39.3263559],[-76.6197115,39.3263654],[-76.619671,39.3263701],[-76.6197004,39.326374],[-76.6196881,39.3263825],[-76.619677,39.3263891],[-76.6196659,39.3264005],[-76.6196229,39.3264061],[-76.6196536,39.3264072],[-76.6196401,39.3264167],[-76.6196302,39.3264243],[-76.6198631,39.3264745]]}},{"type":"Feature","properties":{"layer":"Trees","_tile":"6/34/39"},"geometry":{"type":"MultiPoint","coordinates":[[-76.6202462,39.325932],[-76.6202415,39.325961],[-76.620178,39.3259739]]}},{"type":"Feature","properties":{"layer":"Trees","_tile":"6/34/40"},"geometry":{"type":"MultiPoint","coordinates":[[-76.6200549,39.3250398],[-76.6197337,39.3250566],[-76.6196813,39.3251105],[-76.6199993,39.3251134],[-76.6196382,39.3251247],[-76.6198396,39.3251377],[-76.6196549,39.3251371],[-76.6196696,39.3251471],[-76.6200295,39.3251568],[-76.6199132,39.3251777],[-76.6197818,39.3251921],[-76.6197313,39.3251961],[-76.619753,39.3252143],[-76.6197651,39.3252212],[-76.6198339,39.3252391],[-76.6197394,39.3252547],[-76.6197024,39.325284],[-76.619741,39.3253068],[-76.6196628,39.3253134],[-76.62007,39.3253567],[-76.6199402,39.3254575]]}},{"type":"Feature","properties":{"layer":"Trees","_tile":"6/34/41"},"geometry":{"type":"MultiPoint","coordinates":[[-76.6197307,39.3245568],[-76.6197588,39.3245581],[-76.6197145,39.3245797],[-76.6197211,39.3247142],[-76.6198529,39.3248405],[-76.619865,39.3248956],[-76.6198379,39.3249191],[-76.6201748,39.324921],[-76.6198114,39.3249381],[-76.6197776,39.3249639],[-76.6201467,39.3249699],[-76.6197511,39.3249839],[-76.6197231,39.3250032]]}},{"type":"Feature","properties":{"layer":"Trees","_tile":"6/34/42"},"geometry":{"type":"MultiPoint","coordinates":[[-76.6199466,39.3240903],[-76.6197322,39.3240913],[-76.6198167,39.3241428],[-76.6196977,39.3241448],[-76.6199304,39.3241977],[-76.6200431,39.3243057],[-76.6196907,39.3244097],[-76.6197701,39.3244217],[-76.6198337,39.3244916],[-76.6196956,39.3244931],[-76.6198007,39.3245003]]}},{"type":"Feature","properties":{"layer":"Trees","_tile":"6/34/43"},"geometry":{"type":"MultiPoint","coordinates":[[-76.6202226,39.3236386],[-76.6196461,39.3236525],[-76.6197664,39.3236905],[-76.6202478,39.323748],[-76.619838,39.3237587],[-76.6197078,39.3237712],[-76.6197184,39.3238611],[-76.619847,39.3238814],[-76.6196763,39.3239431],[-76.6197018,39.3239736],[-76.6199635,39.3239869],[-76.6197213,39.3240346],[-76.6198315,39.3240445]]}},{"type":"Feature","properties":{"layer":"Trees","_tile":"6/35/32"},"geometry":{"type":"MultiPoint","coordinates":[[-76.6191881,39.3289752],[-76.6192461,39.3290147],[-76.6192516,39.3291319],[-76.6192061,39.3291789],[-76.6191818,39.3292369],[-76.6190771,39.3292976],[-76.6191931,39.3293042],[-76.6189793,39.3293469],[-76.6192788,39.3293488],[-76.619113,39.3293625],[-76.6195798,39.3294027]]}},{"type":"Feature","properties":{"layer":"Trees","_tile":"6/35/33"},"geometry":{"type":"MultiPoint","coordinates":[[-76.6191485,39.3284713],[-76.6191727,39.3285343],[-76.6191664,39.3285581],[-76.6191983,39.3285706],[-76.619108,39.3285794],[-76.6192178,39.3285879],[-76.6192509,39.3285899],[-76.619163,39.328632],[-76.6192064,39.3286517],[-76.6191726,39.3286687],[-76.6192429,39.3287252],[-76.6189918,39.328732],[-76.619193,39.3287451],[-76.6191392,39.3288288],[-76.6191491,39.3289218]]}},{"type":"Feature","properties":{"layer":"Trees","_tile":"6/35/34"},"geometry":{"type":"MultiPoint","coordinates":[[-76.6195027,39.3281164],[-76.619269,39.3281991],[-76.6191747,39.3282178],[-76.6191676,39.3282197],[-76.6194277,39.3282511],[-76.6191746,39.3282965]]}},{"type":"Feature","properties":{"layer":"Trees","_tile":"6/35/36"},"geometry":{"type":"Point","coordinates":[-76.6196105,39.3273546]}},{"type":"Feature","properties":{"layer":"Trees","_tile":"6/35/37"},"geometry":{"type":"MultiPoint","coordinates":[[-76.6192806,39.3265191],[-76.619318,39.3265264],[-76.6192579,39.3265284],[-76.6192347,39.3265351],[-76.6192762,39.3265418],[-76.6194353,39.3265462],[-76.619349,39.3265623],[-76.6194714,39.3267138],[-76.6195501,39.3267188],[-76.6194206,39.3267479],[-76.6192592,39.3267727],[-76.619585,39.3268092],[-76.6194848,39.326818],[-76.6190495,39.3268199],[-76.6190092,39.3268704],[-76.6196154,39.3268858],[-76.6195306,39.3268885],[-76.6192114,39.326904],[-76.6192519,39.3269314],[-76.6194125,39.3269641]]}},{"type":"Feature","properties":{"layer":"Trees","_tile":"6/35/38"},"geometry":{"type":"MultiPoint","coordinates":[[-76.6196191,39.3264328],[-76.6196031,39.3264413],[-76.6195908,39.3264518],[-76.6195785,39.3264594],[-76.6195661,39.3264669],[-76.6195538,39.3264745],[-76.6195366,39.3264812]]}},{"type":"Feature","properties":{"layer":"Trees","_tile":"6/35/39"},"geometry":{"type":"MultiPoint","coordinates":[[-76.6190908,39.3256408],[-76.6192207,39.3256491],[-76.6191816,39.3256773],[-76.6191422,39.3257081],[-76.6190742,39.3257611],[-76.6191036,39.325779],[-76.6190398,39.3257876],[-76.6190033,39.3258155]]}},{"type":"Feature","properties":{"layer":"Trees","_tile":"6/35/40"},"geometry":{"type":"MultiPoint","coordinates":[[-76.6195788,39.3250484],[-76.6191311,39.3250865],[-76.6192186,39.3250977],[-76.6194234,39.3251677],[-76.6196172,39.3252406],[-76.6195103,39.3253196],[-76.619592,39.3253641],[-76.6195527,39.3253961],[-76.6195201,39.3254188]]}},{"type":"Feature","properties":{"layer":"Trees","_tile":"6/35/41"},"geometry":{"type":"MultiPoint","coordinates":[[-76.6195681,39.3245886],[-76.6196252,39.3247165],[-76.6194904,39.3248338],[-76.6195577,39.3248414],[-76.6193366,39.3249048],[-76.619316,39.3249348],[-76.6193271,39.3250162]]}},{"type":"Feature","properties":{"layer":"Trees","_tile":"6/35/42"},"geometry":{"type":"MultiPoint","coordinates":[[-76.6195068,39.3240569],[-76.619622,39.3240906],[-76.6195978,39.3242583],[-76.6196,39.3244971]]}},{"type":"Feature","properties":{"layer":"Trees","_tile":"6/35/43"},"geometry":{"type":"MultiPoint","coordinates":[[-76.6194605,39.3236583],[-76.6194387,39.3236628],[-76.6194969,39.3236683],[-76.6194912,39.3236766],[-76.6194214,39.3236979],[-76.6195797,39.3237381],[-76.6195428,39.3239562]]}},{"type":"Feature","properties":{"layer":"Trees","_tile":"6/36/32"},"geometry":{"type":"MultiPoint","coordinates":[[-76.6189069,39.3292203],[-76.6188906,39.3292903],[-76.618957,39.3293925]]}},{"type":"Feature","properties":{"layer":"Trees","_tile":"6/36/33"},"geometry":{"type":"MultiPoint","coordinates":[[-76.6187286,39.3284843],[-76.6185715,39.3284923],[-76.6186905,39.3285032],[-76.6185996,39.3285039],[-76.6184845,39.3285071],[-76.618537,39.3285075],[-76.6187873,39.3285293],[-76.6187136,39.3285462],[-76.6185208,39.3285484],[-76.6184779,39.3285492],[-76.6188215,39.3285599],[-76.6185342,39.3285685],[-76.6185784,39.3285734],[-76.6187207,39.3285834],[-76.6188545,39.3285905],[-76.6184764,39.328595],[-76.6187586,39.3286073],[-76.6186831,39.32862],[-76.6187744,39.328636],[-76.6188811,39.3286606],[-76.6184622,39.3287478],[-76.6189779,39.3288097],[-76.6186556,39.3288329],[-76.6187659,39.328849]]}},{"type":"Feature","properties":{"layer":"Trees","_tile":"6/36/34"},"geometry":{"type":"MultiPoint","coordinates":[[-76.6187456,39.3282908],[-76.6187861,39.3283009],[-76.6187516,39.3283166],[-76.6186686,39.3283382]]}},{"type":"Feature","properties":{"layer":"Trees","_tile":"6/36/36"},"geometry":{"type":"Point","coordinates":[-76.6183961,39.3270951]}},{"type":"Feature","properties":{"layer":"Trees","_tile":"6/36/37"},"geometry":{"type":"MultiPoint","coordinates":[[-76.6184208,39.3264925],[-76.6186475,39.3265604],[-76.618433,39.3265662],[-76.6185186,39.3265673],[-76.6187059,39.3265842],[-76.6187943,39.3265976],[-76.6186395,39.3266247],[-76.6186997,39.326637],[-76.6188067,39.3266923],[-76.6183935,39.3267018],[-76.6185363,39.3267255],[-76.618771,39.3267327],[-76.6189006,39.326747],[-76.6184901,39.3267545],[-76.618839,39.326783],[-76.6185766,39.3268521],[-76.6185496,39.3268849],[-76.6186074,39.326925]]}},{"type":"Feature","properties":{"layer":"Trees","_tile":"6/36/38"},"geometry":{"type":"MultiPoint","coordinates":[[-76.6187542,39.3260935],[-76.6188136,39.3260971],[-76.6186863,39.326162],[-76.6189014,39.3261656],[-76.6184265,39.3262839],[-76.6187638,39.3263146],[-76.6183843,39.3263152],[-76.6184712,39.3263682],[-76.6185511,39.3263813],[-76.6187227,39.3263826],[-76.6185781,39.326406],[-76.6187522,39.326407],[-76.6189032,39.326441],[-76.6189447,39.3264423],[-76.6185581,39.326448],[-76.6183756,39.3264527],[-76.6186657,39.3264683],[-76.6189457,39.3264841],[-76.6186959,39.3264859],[-76.618609,39.326486]]}},{"type":"Feature","properties":{"layer":"Trees","_tile":"6/36/39"},"geometry":{"type":"MultiPoint","coordinates":[[-76.6184523,39.325684],[-76.6189801,39.3257233],[-76.6188328,39.325738],[-76.6188522,39.3257532],[-76.618808,39.325756],[-76.6188698,39.3257677],[-76.6188306,39.3257759],[-76.6188477,39.3257902],[-76.6189263,39.3258107],[-76.618945,39.3258271],[-76.6189047,39.3258332],[-76.6189647,39.3258394],[-76.618721,39.3258427],[-76.6189222,39.3258447],[-76.6189466,39.3258614],[-76.618824,39.3259189]]}},{"type":"Feature","properties":{"layer":"Trees","_tile":"6/36/40"},"geometry":{"type":"Point","coordinates":[-76.6187853,39.3254276]}},{"type":"Feature","properties":{"layer":"Trees","_tile":"6/37/32"},"geometry":{"type":"MultiPoint","coordinates":[[-76.6180314,39.3289482],[-76.6180128,39.3289779],[-76.617995,39.3290154],[-76.6177836,39.3290945],[-76.6177909,39.3291373],[-76.6177885,39.3291732],[-76.618,39.3292203],[-76.6180174,39.3292562],[-76.6180403,39.3292886],[-76.6180708,39.3293161],[-76.6181045,39.3293383],[-76.6182414,39.3293831],[-76.6182997,39.3293837]]}},{"type":"Feature","properties":{"layer":"Trees","_tile":"6/37/33"},"geometry":{"type":"MultiPoint","coordinates":[[-76.6177279,39.3284631],[-76.6179823,39.3284904],[-76.6182382,39.3285027],[-76.6177336,39.3285412],[-76.6180997,39.3285642],[-76.618219,39.3285788],[-76.6181941,39.328586],[-76.6179572,39.3285928],[-76.6182934,39.3286163],[-76.618081,39.3286166],[-76.6182479,39.3286252],[-76.6179435,39.3286309],[-76.6182055,39.3286351],[-76.6181687,39.3286426],[-76.6177729,39.3286539],[-76.617974,39.3286629],[-76.6177456,39.328745],[-76.6180066,39.3287603],[-76.6182223,39.3288191],[-76.6183228,39.3288524],[-76.6181876,39.3288958],[-76.6180576,39.3289197]]}},{"type":"Feature","properties":{"layer":"Trees","_tile":"6/37/34"},"geometry":{"type":"Point","coordinates":[-76.6182678,39.3283488]}},{"type":"Feature","properties":{"layer":"Trees","_tile":"6/37/36"},"geometry":{"type":"Point","coordinates":[-76.6183335,39.3270347]}},{"type":"Feature","properties":{"layer":"Trees","_tile":"6/37/37"},"geometry":{"type":"MultiPoint","coordinates":[[-76.6180672,39.3265438],[-76.6180618,39.3265501],[-76.618055,39.3265506],[-76.6179123,39.3265543],[-76.6179016,39.3265606],[-76.6179236,39.3265643],[-76.6182859,39.3265666],[-76.6178777,39.3265945],[-76.6183134,39.3266036],[-76.6178825,39.3266044],[-76.618075,39.3266988],[-76.6182083,39.3268082],[-76.618241,39.326856],[-76.6183057,39.3268698],[-76.618328,39.3268879],[-76.6182798,39.3268896],[-76.6181991,39.3269139]]}},{"type":"Feature","properties":{"layer":"Trees","_tile":"6/37/38"},"geometry":{"type":"MultiPoint","coordinates":[[-76.6183224,39.3264276],[-76.6180528,39.3264513],[-76.6180609,39.3264549]]}},{"type":"Feature","properties":{"layer":"Trees","_tile":"6/37/43"},"geometry":{"type":"MultiPoint","coordinates":[[-76.6179781,39.3235937],[-76.6177868,39.3235962],[-76.6182446,39.3236566],[-76.6181579,39.3236916],[-76.6180267,39.3237323],[-76.6180998,39.3237443],[-76.6180699,39.323791],[-76.6182547,39.3238957],[-76.6177857,39.3239656],[-76.6177509,39.3240004],[-76.617814,39.3240165]]}}]}