{"type":"FeatureCollection","features":[{"type":"Feature","properties":{"trip":"malone-to-san-martin-garage","mode":"accessible","modeLabel":"Fully accessible","from":"Malone Hall North","to":"San Martin Garage (building centre)","status":"ok","minutes":11.05,"metres":869.5,"feet":2853,"stairSegments":0,"risers":0,"fullyCompliantShare":0.71,"shortcutMetres":0.0,"shortcutSpaces":[],"grades":{"FullyCompliant":73,"PartiallyCompliant":37}},"geometry":{"type":"LineString","coordinates":[[-76.62087,39.32644],[-76.62088,39.3265],[-76.62112,39.32649],[-76.62113,39.32654],[-76.62114,39.32662],[-76.62116,39.32671],[-76.62117,39.32676],[-76.62117,39.32686],[-76.62117,39.32697],[-76.62116,39.32708],[-76.62112,39.32722],[-76.62109,39.32736],[-76.62111,39.32744],[-76.62116,39.3275],[-76.62119,39.32753],[-76.62121,39.32761],[-76.62121,39.3277],[-76.6212,39.32782],[-76.62115,39.3279],[-76.62116,39.32802],[-76.62116,39.32804],[-76.62116,39.32814],[-76.62116,39.32825],[-76.6212,39.32853],[-76.62121,39.3286],[-76.62121,39.32861],[-76.62121,39.32862],[-76.62122,39.32875],[-76.62123,39.32883],[-76.62124,39.32899],[-76.62139,39.32898],[-76.6214,39.32916],[-76.62142,39.32917],[-76.62144,39.32919],[-76.62173,39.32918],[-76.62172,39.32904],[-76.62188,39.32903],[-76.62188,39.32906],[-76.62188,39.32907],[-76.62189,39.32907],[-76.62189,39.32908],[-76.62189,39.32911],[-76.62191,39.32912],[-76.62194,39.32915],[-76.62196,39.32917],[-76.62194,39.3292],[-76.62203,39.32924],[-76.62206,39.32925],[-76.62208,39.32925],[-76.62211,39.32926],[-76.62209,39.32936],[-76.62196,39.32977],[-76.62196,39.32978],[-76.62194,39.32982],[-76.62192,39.32986],[-76.62192,39.32988],[-76.62197,39.32991],[-76.62208,39.32996],[-76.62234,39.33002],[-76.62251,39.33005],[-76.62252,39.33007],[-76.62253,39.33008],[-76.62255,39.3301],[-76.62257,39.33011],[-76.62259,39.33012],[-76.6226,39.33012],[-76.62261,39.33012],[-76.62263,39.33014],[-76.62265,39.33016],[-76.62269,39.33018],[-76.6227,39.33021],[-76.62272,39.33024],[-76.62274,39.33029],[-76.62279,39.3303],[-76.62313,39.33039],[-76.62314,39.33039],[-76.6233,39.33033],[-76.62335,39.33038],[-76.62339,39.33043],[-76.62349,39.33055],[-76.62344,39.33058],[-76.62339,39.3306],[-76.62328,39.33067],[-76.62323,39.33072],[-76.62322,39.33075],[-76.62319,39.33081],[-76.6232,39.33083],[-76.62321,39.33085],[-76.62329,39.33091],[-76.62333,39.33093],[-76.62339,39.33095],[-76.62355,39.33093],[-76.62357,39.33093],[-76.6236,39.33093],[-76.62364,39.33092],[-76.62374,39.3309],[-76.62385,39.33087],[-76.62386,39.33087],[-76.62392,39.33085],[-76.62398,39.33083],[-76.62404,39.33082],[-76.62413,39.33083],[-76.62426,39.33084],[-76.62429,39.33085],[-76.62428,39.33082],[-76.62427,39.33079],[-76.62425,39.33072],[-76.62422,39.33069],[-76.6242,39.33065],[-76.62431,39.33061],[-76.62427,39.33052]]}}]}