{"type":"FeatureCollection","features":[{"type":"Feature","properties":{"trip":"malone-to-clark","mode":"accessible","modeLabel":"Fully accessible","from":"Malone Hall North","to":"Clark Hall Main","status":"ok","minutes":2.29,"metres":181.0,"feet":594,"stairSegments":0,"risers":0,"fullyCompliantShare":1.0,"shortcutMetres":0.0,"shortcutSpaces":[],"grades":{"FullyCompliant":22}},"geometry":{"type":"LineString","coordinates":[[-76.62087,39.32644],[-76.62088,39.3265],[-76.62112,39.32649],[-76.62113,39.32654],[-76.62114,39.32662],[-76.62116,39.32671],[-76.62122,39.32677],[-76.62125,39.32682],[-76.62128,39.32685],[-76.62138,39.3269],[-76.62147,39.32693],[-76.62159,39.32693],[-76.62168,39.32692],[-76.62179,39.32695],[-76.62187,39.32699],[-76.6219,39.32702],[-76.62199,39.32707],[-76.62199,39.32703],[-76.62199,39.32701],[-76.62197,39.32692],[-76.62197,39.32689],[-76.62196,39.32682],[-76.62212,39.32682]]}}]}