{"type":"FeatureCollection","features":[{"type":"Feature","properties":{"trip":"malone-to-clark","mode":"walking","modeLabel":"Walking","from":"Malone Hall North","to":"Clark Hall Main","status":"ok","minutes":1.9,"metres":149.0,"feet":489,"stairSegments":1,"risers":3,"fullyCompliantShare":0.933,"shortcutMetres":0.0,"shortcutSpaces":[],"grades":{"FullyCompliant":15,"NonCompliant":3}},"geometry":{"type":"LineString","coordinates":[[-76.62087,39.32644],[-76.62088,39.3265],[-76.62112,39.32649],[-76.62113,39.32654],[-76.62114,39.32662],[-76.62116,39.32671],[-76.62122,39.32677],[-76.62125,39.32682],[-76.62128,39.32685],[-76.62138,39.3269],[-76.62147,39.32693],[-76.62159,39.32693],[-76.62168,39.32692],[-76.62176,39.32688],[-76.62185,39.32683],[-76.62193,39.32683],[-76.62194,39.32682],[-76.62196,39.32682],[-76.62212,39.32682]]}}]}