{"type":"FeatureCollection","features":[{"type":"Feature","properties":{"trip":"malone-to-clark","from":"Malone Hall North","to":"Clark Hall Main","status":"ok","label":"Malone Hall \u2192 Clark Hall","toKind":"entrance","minutes":1.8,"metres":122.4,"feet":401,"steps":0,"stepsBesideShortcut":3,"shortcutMetres":79.5,"shortcutSpaces":["Decker Quad"],"warnings":["79 m of this route crosses open lawn (Decker Quad).","A shortcut joins the paved network beside a 3-step flight. This data has no elevation, so whether you meet those steps depends on the level of the grass."]},"geometry":{"type":"LineString","coordinates":[[-76.62087,39.32644],[-76.62088,39.3265],[-76.62112,39.32649],[-76.62194,39.32682],[-76.62196,39.32682],[-76.62212,39.32682]]}}]}