{"type":"FeatureCollection","features":[{"type":"Feature","properties":{"trip":"malone-to-clark","mode":"smart","modeLabel":"Walking (shortcuts)","from":"Malone Hall North","to":"Clark Hall Main","status":"ok","minutes":1.8,"metres":122.4,"feet":401,"stairSegments":0,"risers":0,"shortcutMetres":79.5,"shortcutSpaces":["Decker Quad"],"fullyCompliantShare":0.336,"warnings":["79 m of this route crosses open lawn (Decker Quad). No surface, kerb or slope data backs those segments."]},"geometry":{"type":"LineString","coordinates":[[-76.62087,39.32644],[-76.62088,39.3265],[-76.62112,39.32649],[-76.62194,39.32682],[-76.62196,39.32682],[-76.62212,39.32682]]}}]}