{"type":"FeatureCollection","features":[{"geometry":{"type":"Point","coordinates":[-76.620952,39.328571],"crs":null},"id":1,"type":"Feature","properties":{"last_edited_user":"indoors_owner","created_user":"indoors_owner","vertical_order":0,"image_url":null,"level_id":null,"globalid":"{838EC1BE-DB9F-4CC1-A795-3B153634C7A4}","description":"Ames Hall Elevator","facility_id":null,"last_edited_date":1787797895000,"created_date":1787797895000,"facility_name":null,"objectid":1}},{"geometry":{"type":"Point","coordinates":[-76.619904,39.328594],"crs":null},"id":2,"type":"Feature","properties":{"last_edited_user":"indoors_owner","created_user":"indoors_owner","vertical_order":0,"image_url":null,"level_id":null,"globalid":"{DD534787-D6FD-44FC-BA98-296719282A1E}","description":"Krieger Hall Elevator","facility_id":null,"last_edited_date":1787797895000,"created_date":1787797895000,"facility_name":null,"objectid":2}},{"geometry":{"type":"Point","coordinates":[-76.619565,39.328417],"crs":null},"id":3,"type":"Feature","properties":{"last_edited_user":"indoors_owner","created_user":"indoors_owner","vertical_order":0,"image_url":null,"level_id":null,"globalid":"{D2BACF48-1DE9-482D-BCE6-4C620C7BFD38}","description":"Brody Learning Commons Elevator","facility_id":null,"last_edited_date":1787797895000,"created_date":1787797895000,"facility_name":null,"objectid":3}},{"geometry":{"type":"Point","coordinates":[-76.620149,39.326698],"crs":null},"id":4,"type":"Feature","properties":{"last_edited_user":"indoors_owner","created_user":"indoors_owner","vertical_order":0,"image_url":null,"level_id":null,"globalid":"{81C4BBA5-0CC6-4E89-86C4-083215D16FFF}","description":"Shriver Hall Elevator","facility_id":null,"last_edited_date":1787797895000,"created_date":1787797895000,"facility_name":null,"objectid":4}},{"geometry":{"type":"Point","coordinates":[-76.622438,39.327744],"crs":null},"id":5,"type":"Feature","properties":{"last_edited_user":"indoors_owner","created_user":"indoors_owner","vertical_order":0,"image_url":null,"level_id":null,"globalid":"{05D0CA57-7F1A-4603-8028-D98C9F10F749}","description":"Hodson Hall Elevator","facility_id":null,"last_edited_date":1787797895000,"created_date":1787797895000,"facility_name":null,"objectid":5}},{"geometry":{"type":"Point","coordinates":[-76.621429,39.329134],"crs":null},"id":6,"type":"Feature","properties":{"last_edited_user":"indoors_owner","created_user":"indoors_owner","vertical_order":0,"image_url":null,"level_id":null,"globalid":"{972B201E-1C5B-48CD-BF13-288E7857D5BF}","description":"Gilman Hall North Elevator","facility_id":null,"last_edited_date":1787797895000,"created_date":1787797895000,"facility_name":null,"objectid":6}},{"geometry":{"type":"Point","coordinates":[-76.621409,39.328831],"crs":null},"id":7,"type":"Feature","properties":{"last_edited_user":"indoors_owner","created_user":"indoors_owner","vertical_order":0,"image_url":null,"level_id":null,"globalid":"{77B0C55E-FF99-4A08-9F6A-193E68ECAC0E}","description":"Gilman Hall South Elevator","facility_id":null,"last_edited_date":1787797895000,"created_date":1787797895000,"facility_name":null,"objectid":7}},{"geometry":{"type":"Point","coordinates":[-76.620738,39.329474],"crs":null},"id":8,"type":"Feature","properties":{"last_edited_user":"indoors_owner","created_user":"indoors_owner","vertical_order":0,"image_url":null,"level_id":null,"globalid":"{F0FD8B17-8FE2-462B-B8B1-8E8590CF47B3}","description":"Jenkins-Mergenthaler Hall Elevator","facility_id":null,"last_edited_date":1787797895000,"created_date":1787797895000,"facility_name":null,"objectid":8}},{"geometry":{"type":"Point","coordinates":[-76.619861,39.32716],"crs":null},"id":9,"type":"Feature","properties":{"last_edited_user":"indoors_owner","created_user":"indoors_owner","vertical_order":0,"image_url":null,"level_id":null,"globalid":"{A7C081B5-5CAA-4300-A6D6-E28B6BD94D1E}","description":"Shaffer Hall Elevator","facility_id":null,"last_edited_date":1787797895000,"created_date":1787797895000,"facility_name":null,"objectid":9}},{"geometry":{"type":"Point","coordinates":[-76.621585,39.325929],"crs":null},"id":10,"type":"Feature","properties":{"last_edited_user":"indoors_owner","created_user":"indoors_owner","vertical_order":0,"image_url":null,"level_id":null,"globalid":"{87E80D6B-FD8E-4D9F-9565-E7F30222A144}","description":"Mason Hall / South Garage Elevator","facility_id":null,"last_edited_date":1787797895000,"created_date":1787797895000,"facility_name":null,"objectid":10}},{"geometry":{"type":"Point","coordinates":[-76.620979,39.32681],"crs":null},"id":11,"type":"Feature","properties":{"last_edited_user":"indoors_owner","created_user":"indoors_owner","vertical_order":0,"image_url":null,"level_id":null,"globalid":"{3031BF98-0505-44C0-897A-68CD53D850BD}","description":"Hackerman Hall Elevator","facility_id":null,"last_edited_date":1787797895000,"created_date":1787797895000,"facility_name":null,"objectid":11}},{"geometry":{"type":"Point","coordinates":[-76.618319,39.327959],"crs":null},"id":257,"type":"Feature","properties":{"last_edited_user":"indoors_owner","created_user":"indoors_owner","vertical_order":0,"image_url":null,"level_id":null,"globalid":"{D596CDB8-56A2-4794-B5C2-A3DB1E468544}","description":"Bloomberg Student Center Elevator EL3","facility_id":null,"last_edited_date":1787797895000,"created_date":1787797895000,"facility_name":null,"objectid":257}},{"geometry":{"type":"Point","coordinates":[-76.618296,39.327942],"crs":null},"id":258,"type":"Feature","properties":{"last_edited_user":"indoors_owner","created_user":"indoors_owner","vertical_order":0,"image_url":null,"level_id":null,"globalid":"{32FD4DCD-854C-4810-B348-6619F2995635}","description":"Bloomberg Student Center Elevator EL4","facility_id":null,"last_edited_date":1787797895000,"created_date":1787797895000,"facility_name":null,"objectid":258}},{"geometry":{"type":"Point","coordinates":[-76.618668,39.327777],"crs":null},"id":261,"type":"Feature","properties":{"last_edited_user":"indoors_owner","created_user":"indoors_owner","vertical_order":0,"image_url":null,"level_id":null,"globalid":"{FF01F33F-8C22-41FD-8229-9BFE8D303E18}","description":"Bloomberg Student Center Elevator EL1","facility_id":null,"last_edited_date":1787797895000,"created_date":1787797895000,"facility_name":null,"objectid":261}},{"geometry":{"type":"Point","coordinates":[-76.623523,39.330622],"crs":null},"id":262,"type":"Feature","properties":{"last_edited_user":"indoors_owner","created_user":"indoors_owner","vertical_order":0,"image_url":null,"level_id":null,"globalid":"{21C2A85B-0434-4589-9EAB-2552895F2933}","description":"San Martin Garage Elevator EL2","facility_id":null,"last_edited_date":1787797895000,"created_date":1787797895000,"facility_name":null,"objectid":262}}]}