{"type":"FeatureCollection","features":[{"geometry":{"type":"Polygon","coordinates":[[[-76.618464,39.329522],[-76.618522,39.329524],[-76.618576,39.329519],[-76.618638,39.329507],[-76.618705,39.329485],[-76.618755,39.329462],[-76.618781,39.329445],[-76.618811,39.329426],[-76.618842,39.3294],[-76.61889,39.329349],[-76.618919,39.329305],[-76.618935,39.329271],[-76.618948,39.329237],[-76.61896,39.329199],[-76.618968,39.329156],[-76.618968,39.329111],[-76.618961,39.329049],[-76.618944,39.328998],[-76.618916,39.32894],[-76.61888,39.328888],[-76.618845,39.32885],[-76.618769,39.32879],[-76.618727,39.328763],[-76.618671,39.328738],[-76.618603,39.328716],[-76.618527,39.328703],[-76.618474,39.3287],[-76.618406,39.328705],[-76.618342,39.328714],[-76.618277,39.328734],[-76.618232,39.328753],[-76.61818,39.328783],[-76.618133,39.328814],[-76.618054,39.328873],[-76.618005,39.328915],[-76.617972,39.328961],[-76.61796,39.328977],[-76.61794,39.329032],[-76.617934,39.329084],[-76.617934,39.329091],[-76.617933,39.329129],[-76.617933,39.329136],[-76.617934,39.329143],[-76.617938,39.329173],[-76.61794,39.329188],[-76.617961,39.329253],[-76.617972,39.32927],[-76.617998,39.329308],[-76.618038,39.329345],[-76.618097,39.329377],[-76.618164,39.329415],[-76.618216,39.329444],[-76.61826,39.329468],[-76.618287,39.329481],[-76.61834,39.329501],[-76.618401,39.329515],[-76.618442,39.329522],[-76.618464,39.329522]]],"crs":null},"id":1,"type":"Feature","properties":{"address":null,"below_grade":"N","levels_above_ground":null,"created_user":"DSTEPLE1","primary_use":null,"campus":"Homewood","image_url":null,"height_relative":null,"level_id":null,"globalid":"{2D2DFFEE-CCBD-402F-87F6-B71AEA60E6FD}","last_edited_user":"JDANDOI1","archibus_id":"00X13","name_long":"The Beach","name":"The Beach","site_id":null,"facility_id":"00X13","last_edited_date":1602251134000,"validationstatus":6,"created_date":1578407171000,"SHAPE__Length":925.8228980120898,"objectid":1,"SHAPE__Area":67674.6132312285}},{"geometry":{"type":"Polygon","coordinates":[[[-76.619311,39.330372],[-76.619309,39.330373],[-76.619184,39.330433],[-76.619182,39.330433],[-76.619181,39.330433],[-76.61918,39.330433],[-76.619179,39.330434],[-76.619177,39.330434],[-76.619176,39.330435],[-76.619174,39.330436],[-76.619169,39.330439],[-76.61916,39.330444],[-76.61914,39.330456],[-76.619134,39.330459],[-76.619128,39.330463],[-76.619121,39.330467],[-76.619114,39.330471],[-76.619107,39.330474],[-76.619101,39.330478],[-76.619095,39.33048],[-76.61909,39.330483],[-76.619086,39.330485],[-76.61908,39.330487],[-76.619075,39.33049],[-76.619069,39.330492],[-76.619063,39.330494],[-76.619057,39.330497],[-76.619052,39.330498],[-76.619048,39.3305],[-76.619044,39.330501],[-76.61904,39.330503],[-76.619035,39.330504],[-76.61903,39.330505],[-76.619024,39.330507],[-76.619019,39.330508],[-76.619015,39.330509],[-76.619011,39.330509],[-76.619007,39.33051],[-76.619001,39.330511],[-76.618995,39.330511],[-76.618983,39.330512],[-76.618972,39.330513],[-76.618972,39.330513],[-76.618971,39.330514],[-76.618968,39.330514],[-76.618965,39.330515],[-76.618962,39.330515],[-76.61896,39.330516],[-76.618959,39.330516],[-76.618958,39.330516],[-76.618957,39.330516],[-76.618955,39.330517],[-76.618955,39.330517],[-76.618953,39.330518],[-76.618951,39.330519],[-76.61895,39.33052],[-76.618949,39.33052],[-76.618949,39.330521],[-76.618956,39.330617],[-76.61896,39.330704],[-76.618961,39.330738],[-76.618966,39.330832],[-76.61897,39.330875],[-76.61898,39.331055],[-76.618991,39.331061],[-76.619129,39.331057],[-76.619218,39.331052],[-76.619263,39.331048],[-76.619323,39.331041],[-76.619381,39.33103],[-76.619492,39.331006],[-76.619532,39.331002],[-76.619567,39.331],[-76.619613,39.330999],[-76.619628,39.330996],[-76.619712,39.331012],[-76.619765,39.331026],[-76.6198,39.331039],[-76.619849,39.331054],[-76.619877,39.331059],[-76.619897,39.331063],[-76.619927,39.331059],[-76.619944,39.331057],[-76.619959,39.331047],[-76.619966,39.331027],[-76.619963,39.331],[-76.619953,39.330936],[-76.619946,39.330904],[-76.619932,39.330839],[-76.619915,39.330768],[-76.619894,39.330699],[-76.619847,39.33056],[-76.619839,39.330532],[-76.619823,39.330492],[-76.619817,39.330479],[-76.61979,39.330397],[-76.619776,39.330333],[-76.619766,39.330279],[-76.619766,39.330276],[-76.619763,39.330204],[-76.619763,39.330161],[-76.619763,39.33016],[-76.619763,39.330159],[-76.619762,39.330157],[-76.619761,39.330156],[-76.61976,39.330154],[-76.619759,39.330153],[-76.619758,39.330152],[-76.619757,39.330151],[-76.619755,39.33015],[-76.619754,39.330149],[-76.619752,39.330148],[-76.619751,39.330147],[-76.619749,39.330146],[-76.619747,39.330146],[-76.619745,39.330145],[-76.619742,39.330144],[-76.61974,39.330144],[-76.619738,39.330144],[-76.619736,39.330143],[-76.619735,39.330143],[-76.619734,39.330143],[-76.619731,39.330144],[-76.619729,39.330144],[-76.619727,39.330144],[-76.619726,39.330144],[-76.619724,39.330145],[-76.619724,39.330145],[-76.619723,39.330145],[-76.619722,39.330146],[-76.61972,39.330147],[-76.619718,39.330148],[-76.619713,39.330152],[-76.619711,39.330153],[-76.61971,39.330154],[-76.619705,39.330157],[-76.619689,39.330169],[-76.619686,39.330171],[-76.619678,39.330176],[-76.619669,39.330181],[-76.619661,39.330186],[-76.619652,39.330191],[-76.619644,39.330196],[-76.619635,39.330201],[-76.619624,39.330207],[-76.619613,39.330213],[-76.6196,39.33022],[-76.619587,39.330226],[-76.619575,39.330232],[-76.619563,39.330238],[-76.619553,39.330243],[-76.61954,39.330248],[-76.619527,39.330254],[-76.619499,39.330266],[-76.619495,39.330268],[-76.619484,39.330273],[-76.619472,39.330278],[-76.619463,39.330283],[-76.619456,39.330286],[-76.619448,39.33029],[-76.619438,39.330296],[-76.619427,39.330301],[-76.619415,39.330308],[-76.619401,39.330315],[-76.619395,39.330319],[-76.619366,39.330337],[-76.619355,39.330344],[-76.619351,39.330346],[-76.619345,39.33035],[-76.619336,39.330355],[-76.619329,39.33036],[-76.619322,39.330365],[-76.619316,39.330369],[-76.619311,39.330372]]],"crs":null},"id":2,"type":"Feature","properties":{"address":null,"below_grade":"N","levels_above_ground":null,"created_user":"DSTEPLE1","primary_use":null,"campus":"Homewood","image_url":null,"height_relative":null,"level_id":null,"globalid":"{89E02C94-6C48-4922-A12E-9847E0F73AF6}","last_edited_user":"JDANDOI1","archibus_id":"00X03","name_long":"Freshman Quad North","name":"Freshman Quad North","site_id":null,"facility_id":"00X03","last_edited_date":1602251068000,"validationstatus":6,"created_date":1578407687000,"SHAPE__Length":1084.7031190386526,"objectid":2,"SHAPE__Area":66012.48445120278}},{"geometry":{"type":"Polygon","coordinates":[[[-76.621513,39.326094],[-76.621511,39.326094],[-76.621416,39.326097],[-76.621415,39.326093],[-76.621399,39.326098],[-76.621361,39.326113],[-76.621322,39.326131],[-76.621279,39.326159],[-76.621257,39.326175],[-76.621231,39.326199],[-76.621205,39.326234],[-76.621191,39.326254],[-76.621176,39.326283],[-76.621164,39.326317],[-76.621159,39.326338],[-76.621152,39.326368],[-76.621143,39.326405],[-76.62114,39.326429],[-76.62114,39.32648],[-76.621142,39.326507],[-76.621147,39.326543],[-76.621154,39.326578],[-76.621164,39.326621],[-76.621172,39.326642],[-76.621187,39.326677],[-76.6212,39.326706],[-76.62121,39.326722],[-76.621227,39.326745],[-76.621257,39.326779],[-76.621294,39.326812],[-76.621323,39.326832],[-76.62137,39.326855],[-76.621387,39.326863],[-76.621393,39.326865],[-76.621419,39.326873],[-76.62145,39.326883],[-76.621492,39.32689],[-76.621531,39.326894],[-76.621573,39.326894],[-76.621612,39.326892],[-76.621643,39.326888],[-76.621683,39.326879],[-76.621731,39.326863],[-76.621762,39.32685],[-76.621797,39.326831],[-76.621803,39.326827],[-76.62184,39.326804],[-76.621858,39.326787],[-76.62188,39.326765],[-76.621907,39.326725],[-76.621923,39.326696],[-76.62194,39.326648],[-76.621948,39.32662],[-76.621956,39.326588],[-76.621964,39.326529],[-76.621964,39.326488],[-76.621962,39.326459],[-76.621961,39.326441],[-76.621958,39.32642],[-76.621947,39.326374],[-76.621939,39.326347],[-76.621924,39.326306],[-76.621913,39.326282],[-76.621895,39.32625],[-76.621865,39.326209],[-76.621842,39.326184],[-76.621821,39.326165],[-76.62179,39.326145],[-76.621742,39.326119],[-76.62171,39.326106],[-76.621678,39.326095],[-76.621636,39.326084],[-76.621636,39.32609],[-76.621558,39.326092],[-76.621534,39.326093],[-76.621513,39.326094]]],"crs":null},"id":3,"type":"Feature","properties":{"address":null,"below_grade":"N","levels_above_ground":null,"created_user":"DSTEPLE1","primary_use":null,"campus":"Homewood","image_url":null,"height_relative":null,"level_id":null,"globalid":"{E7134EE4-00DF-4DDA-9B23-290F9161A5C8}","last_edited_user":"JDANDOI1","archibus_id":"00X01","name_long":"Decker Quad","name":"Decker Quad","site_id":null,"facility_id":"00X01","last_edited_date":1602251028000,"validationstatus":6,"created_date":1578409796000,"SHAPE__Length":851.0599926354657,"objectid":3,"SHAPE__Area":55680.31209782667}},{"geometry":{"type":"Polygon","coordinates":[[[-76.619161,39.33042],[-76.619302,39.33034],[-76.619303,39.33034],[-76.619304,39.330339],[-76.619306,39.330339],[-76.619309,39.330337],[-76.619313,39.330334],[-76.619336,39.33032],[-76.619374,39.330297],[-76.619381,39.330293],[-76.619394,39.330286],[-76.619407,39.330279],[-76.619418,39.330273],[-76.619428,39.330268],[-76.619437,39.330263],[-76.619444,39.330259],[-76.619454,39.330255],[-76.619467,39.330249],[-76.619482,39.330242],[-76.61949,39.330239],[-76.61951,39.33023],[-76.619523,39.330225],[-76.619535,39.330219],[-76.619545,39.330215],[-76.619556,39.330209],[-76.619568,39.330203],[-76.619581,39.330197],[-76.619593,39.33019],[-76.619604,39.330185],[-76.619615,39.330179],[-76.619624,39.330174],[-76.619631,39.33017],[-76.619639,39.330165],[-76.619648,39.33016],[-76.619656,39.330155],[-76.619663,39.33015],[-76.61967,39.330145],[-76.619676,39.330141],[-76.619681,39.330138],[-76.619685,39.330135],[-76.619692,39.330129],[-76.619698,39.330125],[-76.619702,39.330121],[-76.619705,39.330118],[-76.619708,39.330115],[-76.619711,39.330112],[-76.619714,39.330108],[-76.619717,39.330104],[-76.61972,39.330101],[-76.619723,39.330097],[-76.619725,39.330093],[-76.619727,39.33009],[-76.619729,39.330087],[-76.619731,39.330083],[-76.619733,39.330078],[-76.619736,39.330073],[-76.619738,39.330069],[-76.619739,39.330064],[-76.619741,39.33006],[-76.619742,39.330057],[-76.619743,39.330052],[-76.619745,39.330047],[-76.619746,39.330042],[-76.619749,39.330021],[-76.619748,39.330018],[-76.619742,39.329978],[-76.619731,39.329943],[-76.619706,39.329888],[-76.619698,39.329874],[-76.619683,39.329849],[-76.619675,39.329836],[-76.619649,39.329792],[-76.619615,39.329748],[-76.619573,39.329707],[-76.619526,39.329667],[-76.619472,39.329671],[-76.619386,39.329676],[-76.619347,39.329676],[-76.619315,39.329678],[-76.619313,39.329678],[-76.619307,39.32968],[-76.619298,39.329682],[-76.619281,39.32969],[-76.619248,39.329705],[-76.619234,39.329711],[-76.619182,39.329738],[-76.619152,39.329756],[-76.619138,39.329772],[-76.619127,39.329791],[-76.619126,39.329793],[-76.619116,39.329814],[-76.6191,39.329826],[-76.618993,39.329886],[-76.618972,39.329886],[-76.618934,39.329889],[-76.618911,39.329896],[-76.61891,39.329897],[-76.618899,39.329904],[-76.618871,39.329921],[-76.618864,39.329925],[-76.618834,39.329941],[-76.618799,39.329957],[-76.618698,39.329993],[-76.618688,39.329997],[-76.618724,39.330028],[-76.618761,39.33006],[-76.618784,39.330081],[-76.618801,39.330095],[-76.618834,39.330139],[-76.618854,39.330154],[-76.618884,39.330215],[-76.618911,39.330268],[-76.618926,39.330311],[-76.618937,39.330371],[-76.618946,39.330492],[-76.618947,39.330494],[-76.618947,39.330494],[-76.618947,39.330495],[-76.618948,39.330495],[-76.618948,39.330495],[-76.618949,39.330496],[-76.61895,39.330496],[-76.618952,39.330497],[-76.618955,39.330498],[-76.61896,39.330499],[-76.618975,39.330498],[-76.61898,39.330498],[-76.618983,39.330498],[-76.618993,39.330497],[-76.618999,39.330496],[-76.619003,39.330496],[-76.619007,39.330495],[-76.61901,39.330495],[-76.619014,39.330494],[-76.619019,39.330493],[-76.619024,39.330491],[-76.619029,39.33049],[-76.619033,39.330489],[-76.619037,39.330488],[-76.619041,39.330487],[-76.619044,39.330485],[-76.619049,39.330483],[-76.619054,39.330481],[-76.61906,39.330479],[-76.619066,39.330477],[-76.619071,39.330474],[-76.619076,39.330472],[-76.619077,39.330472],[-76.619102,39.330459],[-76.619122,39.330448],[-76.619127,39.330445],[-76.619131,39.330443],[-76.619135,39.33044],[-76.61914,39.330437],[-76.619144,39.330434],[-76.619147,39.330432],[-76.619152,39.330427],[-76.619155,39.330425],[-76.619158,39.330423],[-76.619161,39.33042]]],"crs":null},"id":4,"type":"Feature","properties":{"address":null,"below_grade":"N","levels_above_ground":null,"created_user":"JDANDOI1","primary_use":null,"campus":"Homewood","image_url":null,"height_relative":null,"level_id":null,"globalid":"{9FF29A02-0C8C-4D57-A57D-4B755C4C1F45}","last_edited_user":"JDANDOI1","archibus_id":"00X04","name_long":"Freshman Quad South","name":"Freshman Quad South","site_id":null,"facility_id":"00X04","last_edited_date":1602251075000,"validationstatus":6,"created_date":1585588215000,"SHAPE__Length":924.209948172836,"objectid":4,"SHAPE__Area":51133.83282940929}},{"geometry":{"type":"Polygon","coordinates":[[[-76.61838,39.330524],[-76.618388,39.330524],[-76.618375,39.330352],[-76.618485,39.330347],[-76.618485,39.330351],[-76.618729,39.33034],[-76.618728,39.330336],[-76.618715,39.330155],[-76.618165,39.33018],[-76.618192,39.330532],[-76.61838,39.330524]]],"crs":null},"id":5,"type":"Feature","properties":{"address":null,"below_grade":"N","levels_above_ground":null,"created_user":"JDANDOI1","primary_use":null,"campus":"Homewood","image_url":null,"height_relative":null,"level_id":null,"globalid":"{0983CBFA-8E51-40BE-8F46-67F3C5C61BED}","last_edited_user":"JDANDOI1","archibus_id":"00X05","name_long":"Gazebo & BBQ Pit Area","name":"Gazebo & BBQ Pit Area","site_id":null,"facility_id":"00X05","last_edited_date":1602251081000,"validationstatus":6,"created_date":1585588968000,"SHAPE__Length":571.6436277428536,"objectid":5,"SHAPE__Area":13884.001007673343}},{"geometry":{"type":"Polygon","coordinates":[[[-76.620493,39.328695],[-76.620489,39.328644],[-76.620332,39.328651],[-76.620335,39.328702],[-76.620493,39.328695]]],"crs":null},"id":6,"type":"Feature","properties":{"address":null,"below_grade":"N","levels_above_ground":null,"created_user":"JDANDOI1","primary_use":null,"campus":"Homewood","image_url":null,"height_relative":null,"level_id":null,"globalid":"{4CB89209-E3E0-4BD6-B38C-2CE7BED537D2}","last_edited_user":"JDANDOI1","archibus_id":"00X12","name_long":"Breezeway","name":"Breezeway","site_id":null,"facility_id":"00X12","last_edited_date":1602251129000,"validationstatus":6,"created_date":1585589996000,"SHAPE__Length":127.02904748308823,"objectid":6,"SHAPE__Area":841.7076632288757}},{"geometry":{"type":"Polygon","coordinates":[[[-76.619489,39.328232],[-76.619468,39.328218],[-76.6194,39.328206],[-76.619259,39.328208],[-76.61916,39.328247],[-76.619082,39.328293],[-76.619118,39.328357],[-76.619489,39.328232]]],"crs":null},"id":7,"type":"Feature","properties":{"address":null,"below_grade":"N","levels_above_ground":null,"created_user":"JDANDOI1","primary_use":null,"campus":"Homewood","image_url":null,"height_relative":null,"level_id":null,"globalid":"{3337E05B-192D-44F0-9554-2385CB489D34}","last_edited_user":"JDANDOI1","archibus_id":"00X15","name_long":"Brody Patio","name":"Brody Patio","site_id":null,"facility_id":"00X15","last_edited_date":1602251151000,"validationstatus":6,"created_date":1585590059000,"SHAPE__Length":266.74192870880626,"objectid":7,"SHAPE__Area":3003.463219375782}},{"geometry":{"type":"Polygon","coordinates":[[[-76.621424,39.328251],[-76.621414,39.328022],[-76.621044,39.328032],[-76.621054,39.328261],[-76.621424,39.328251]]],"crs":null},"id":8,"type":"Feature","properties":{"address":null,"below_grade":"N","levels_above_ground":null,"created_user":"JDANDOI1","primary_use":null,"campus":"Homewood","image_url":null,"height_relative":null,"level_id":null,"globalid":"{0160B465-7050-4AD6-8413-255A907F899B}","last_edited_user":"JDANDOI1","archibus_id":"00X11","name_long":"Levering Courtyard","name":"Levering Courtyard","site_id":null,"facility_id":"00X11","last_edited_date":1602251122000,"validationstatus":6,"created_date":1585590112000,"SHAPE__Length":376.33480136291206,"objectid":8,"SHAPE__Area":8740.280802120444}},{"geometry":{"type":"Polygon","coordinates":[[[-76.621118,39.329271],[-76.621083,39.328728],[-76.619754,39.32878],[-76.61979,39.329323],[-76.621118,39.329271]]],"crs":null},"id":9,"type":"Feature","properties":{"address":null,"below_grade":"N","levels_above_ground":null,"created_user":"JDANDOI1","primary_use":null,"campus":"Homewood","image_url":null,"height_relative":null,"level_id":null,"globalid":"{02C3CD1D-B276-4AB5-BFA2-17A3AB1B246D}","last_edited_user":"JDANDOI1","archibus_id":"00X02","name_long":"Keyser Quad","name":"Keyser Quad","site_id":null,"facility_id":"00X02","last_edited_date":1602251036000,"validationstatus":6,"created_date":1585590482000,"SHAPE__Length":1148.6801921652234,"objectid":9,"SHAPE__Area":74529.10057084098}},{"geometry":{"type":"Polygon","coordinates":[[[-76.621957,39.329814],[-76.62268,39.329951],[-76.622847,39.32942],[-76.622124,39.329282],[-76.621957,39.329814]]],"crs":null},"id":10,"type":"Feature","properties":{"address":null,"below_grade":"N","levels_above_ground":null,"created_user":"JDANDOI1","primary_use":null,"campus":"Homewood","image_url":null,"height_relative":null,"level_id":null,"globalid":"{B90D7387-F63B-4465-BD25-5A72FBA4A042}","last_edited_user":"JDANDOI1","archibus_id":"00X06","name_long":"Decker Garden","name":"Decker Garden","site_id":null,"facility_id":"00X06","last_edited_date":1602251087000,"validationstatus":6,"created_date":1585590501000,"SHAPE__Length":819.7364722087112,"objectid":10,"SHAPE__Area":41966.73882256974}},{"geometry":{"type":"Polygon","coordinates":[[[-76.620583,39.328228],[-76.620509,39.326931],[-76.620099,39.326945],[-76.620173,39.328242],[-76.620583,39.328228]]],"crs":null},"id":11,"type":"Feature","properties":{"address":null,"below_grade":"N","levels_above_ground":null,"created_user":"JDANDOI1","primary_use":null,"campus":"Homewood","image_url":null,"height_relative":null,"level_id":null,"globalid":"{2CE29E5D-718A-400A-828B-F9085F358B76}","last_edited_user":"JDANDOI1","archibus_id":"00X07","name_long":"Wyman Quad","name":"Wyman Quad","site_id":null,"facility_id":"00X07","last_edited_date":1602251095000,"validationstatus":6,"created_date":1585590598000,"SHAPE__Length":1178.1682092143676,"objectid":11,"SHAPE__Area":54921.80817309102}},{"geometry":{"type":"Polygon","coordinates":[[[-76.620659,39.33226],[-76.620655,39.332219],[-76.620642,39.332181],[-76.620621,39.332145],[-76.620593,39.332114],[-76.620577,39.332101],[-76.620559,39.332089],[-76.62054,39.332078],[-76.62052,39.33207],[-76.6205,39.332063],[-76.620478,39.332058],[-76.620457,39.332055],[-76.620435,39.332054],[-76.620413,39.332056],[-76.620391,39.332059],[-76.62037,39.332064],[-76.62035,39.33207],[-76.62033,39.332079],[-76.620311,39.33209],[-76.620294,39.332102],[-76.620278,39.332115],[-76.62025,39.332147],[-76.62023,39.332182],[-76.620217,39.332221],[-76.620213,39.332261],[-76.620218,39.332301],[-76.620231,39.33234],[-76.620251,39.332376],[-76.620279,39.332407],[-76.620296,39.33242],[-76.620313,39.332432],[-76.620332,39.332443],[-76.620352,39.332451],[-76.620373,39.332458],[-76.620394,39.332463],[-76.620416,39.332466],[-76.620437,39.332466],[-76.620459,39.332465],[-76.620481,39.332462],[-76.620502,39.332457],[-76.620523,39.33245],[-76.620542,39.332442],[-76.620561,39.332431],[-76.620579,39.332419],[-76.620595,39.332405],[-76.620622,39.332374],[-76.620643,39.332338],[-76.620655,39.3323],[-76.620659,39.33226]]],"crs":null},"id":12,"type":"Feature","properties":{"address":null,"below_grade":"N","levels_above_ground":null,"created_user":"JDANDOI1","primary_use":null,"campus":"Homewood","image_url":null,"height_relative":null,"level_id":null,"globalid":"{848DF246-E032-41C2-95E5-625C900E520E}","last_edited_user":"JDANDOI1","archibus_id":"00X10","name_long":"Athletic Center Circle","name":"Athletic Center Circle","site_id":null,"facility_id":"00X10","last_edited_date":1602251115000,"validationstatus":6,"created_date":1585591393000,"SHAPE__Length":434.3579663246963,"objectid":12,"SHAPE__Area":14813.174205255524}},{"geometry":{"type":"Polygon","coordinates":[[[-76.619019,39.332009],[-76.618884,39.331933],[-76.618628,39.331946],[-76.618635,39.33204],[-76.618848,39.332173],[-76.619019,39.332009]]],"crs":null},"id":13,"type":"Feature","properties":{"address":null,"below_grade":"N","levels_above_ground":null,"created_user":"JDANDOI1","primary_use":null,"campus":"Homewood","image_url":null,"height_relative":null,"level_id":null,"globalid":"{6153341A-FDEE-4424-BE1D-DFB7991FFC3F}","last_edited_user":"JDANDOI1","archibus_id":"00X14","name_long":"Baseball Field Patio","name":"Baseball Field Patio","site_id":null,"facility_id":"00X14","last_edited_date":1602251145000,"validationstatus":6,"created_date":1585591515000,"SHAPE__Length":308.57201709938687,"objectid":13,"SHAPE__Area":5944.384947173339}},{"geometry":{"type":"Polygon","coordinates":[[[-76.621797,39.331372],[-76.621789,39.331372],[-76.621781,39.331372],[-76.621774,39.331372],[-76.621767,39.331373],[-76.62176,39.331373],[-76.621756,39.331373],[-76.621751,39.331374],[-76.621745,39.331374],[-76.62174,39.331375],[-76.621728,39.331376],[-76.621716,39.331377],[-76.621715,39.331377],[-76.621704,39.331379],[-76.621699,39.33138],[-76.621694,39.331381],[-76.621689,39.331382],[-76.621684,39.331382],[-76.62168,39.331383],[-76.621677,39.331384],[-76.621673,39.331385],[-76.621668,39.331386],[-76.621663,39.331388],[-76.621657,39.33139],[-76.62165,39.331392],[-76.621648,39.331393],[-76.621644,39.331394],[-76.621637,39.331397],[-76.621632,39.331399],[-76.621626,39.331401],[-76.62162,39.331404],[-76.621612,39.331407],[-76.621604,39.331411],[-76.621596,39.331416],[-76.621586,39.331421],[-76.621576,39.331426],[-76.621565,39.331432],[-76.621557,39.331437],[-76.621548,39.331442],[-76.621539,39.331447],[-76.621529,39.331454],[-76.621519,39.33146],[-76.621509,39.331467],[-76.621497,39.331475],[-76.621486,39.331484],[-76.621476,39.331491],[-76.621465,39.331499],[-76.621455,39.331506],[-76.621443,39.331515],[-76.621435,39.331522],[-76.621418,39.331534],[-76.62141,39.331541],[-76.621387,39.331558],[-76.621378,39.331565],[-76.621363,39.331577],[-76.621354,39.331583],[-76.621348,39.331588],[-76.621342,39.331592],[-76.621341,39.331593],[-76.621336,39.331597],[-76.621335,39.331597],[-76.621334,39.331598],[-76.621321,39.331607],[-76.6213,39.331621],[-76.621299,39.331623],[-76.621279,39.331636],[-76.62123,39.331669],[-76.621215,39.331679],[-76.621209,39.331701],[-76.621216,39.331706],[-76.62122,39.331709],[-76.621245,39.33173],[-76.621245,39.33173],[-76.621251,39.331735],[-76.621299,39.331775],[-76.621314,39.331787],[-76.621326,39.331797],[-76.621328,39.331799],[-76.621335,39.331805],[-76.621347,39.331814],[-76.621371,39.331834],[-76.621395,39.331854],[-76.621402,39.331865],[-76.621419,39.331877],[-76.621424,39.331881],[-76.621429,39.331884],[-76.621434,39.331888],[-76.621439,39.331892],[-76.621445,39.331897],[-76.621452,39.331903],[-76.621461,39.33191],[-76.62147,39.331917],[-76.62148,39.331925],[-76.621488,39.331932],[-76.621498,39.33194],[-76.621521,39.331959],[-76.621526,39.331968],[-76.621552,39.331987],[-76.621581,39.332011],[-76.621598,39.332025],[-76.621624,39.332047],[-76.621653,39.332071],[-76.621668,39.332083],[-76.621708,39.332116],[-76.621726,39.332131],[-76.621737,39.332141],[-76.621752,39.332153],[-76.621782,39.332178],[-76.621802,39.332195],[-76.621823,39.332213],[-76.621849,39.332234],[-76.621923,39.332297],[-76.621951,39.332321],[-76.621968,39.332334],[-76.621983,39.332346],[-76.621996,39.332357],[-76.622007,39.332349],[-76.622084,39.332293],[-76.622093,39.332287],[-76.622101,39.332281],[-76.622516,39.331979],[-76.62252,39.331965],[-76.622524,39.331949],[-76.622524,39.331924],[-76.622514,39.331852],[-76.622506,39.331809],[-76.622497,39.331751],[-76.622425,39.331667],[-76.622294,39.33157],[-76.622195,39.331507],[-76.622109,39.331442],[-76.622007,39.3314],[-76.621913,39.331381],[-76.621861,39.331374],[-76.621856,39.331373],[-76.621848,39.331373],[-76.62184,39.331373],[-76.621832,39.331372],[-76.621823,39.331372],[-76.621814,39.331372],[-76.621806,39.331372],[-76.621797,39.331372]]],"crs":null},"id":14,"type":"Feature","properties":{"address":null,"below_grade":"N","levels_above_ground":null,"created_user":"JDANDOI1","primary_use":null,"campus":"Homewood","image_url":null,"height_relative":null,"level_id":null,"globalid":"{AC718EF9-8A35-4114-BDED-55C53AE291FD}","last_edited_user":"JDANDOI1","archibus_id":"00X20","name_long":"Practice Fields","name":"Practice Fields","site_id":null,"facility_id":"00X20","last_edited_date":1602251188000,"validationstatus":6,"created_date":1595527559000,"SHAPE__Length":1076.040537610241,"objectid":14,"SHAPE__Area":78690.43762328738}},{"geometry":{"type":"Polygon","coordinates":[[[-76.622585,39.327753],[-76.622712,39.327756],[-76.622849,39.327765],[-76.622961,39.327751],[-76.62301,39.327668],[-76.623036,39.327593],[-76.622984,39.327522],[-76.622943,39.327467],[-76.622908,39.32742],[-76.62286,39.327356],[-76.622833,39.32732],[-76.622815,39.327296],[-76.622799,39.327274],[-76.62277,39.327258],[-76.622574,39.32726],[-76.622574,39.32753],[-76.622571,39.327544],[-76.622565,39.327558],[-76.622556,39.32757],[-76.622546,39.327581],[-76.622529,39.327598],[-76.622511,39.327612],[-76.622491,39.327623],[-76.622479,39.327628],[-76.622467,39.327632],[-76.622465,39.327632],[-76.622453,39.327635],[-76.622453,39.327636],[-76.622449,39.327636],[-76.622457,39.327753],[-76.622557,39.327749],[-76.622585,39.327753]]],"crs":null},"id":16,"type":"Feature","properties":{"address":null,"below_grade":"N","levels_above_ground":null,"created_user":"JDANDOI1","primary_use":null,"campus":"Homewood","image_url":null,"height_relative":null,"level_id":null,"globalid":"{881F6830-B6EA-4894-AF0A-BFC2DE352FE6}","last_edited_user":"JDANDOI1","archibus_id":"00X08","name_long":"Hodson West Green","name":"Hodson West Green","site_id":null,"facility_id":"00X08","last_edited_date":1602251101000,"validationstatus":6,"created_date":1585590345000,"SHAPE__Length":601.3159774935866,"objectid":16,"SHAPE__Area":20727.83773077113}},{"geometry":{"type":"Polygon","coordinates":[[[-76.622472,39.328001],[-76.622527,39.32799],[-76.622534,39.327982],[-76.622535,39.327975],[-76.622529,39.327934],[-76.622449,39.327941],[-76.622448,39.327919],[-76.622438,39.327811],[-76.622276,39.327818],[-76.62228,39.327853],[-76.622286,39.327909],[-76.622293,39.328015],[-76.622298,39.328051],[-76.622376,39.328026],[-76.622472,39.328001]]],"crs":null},"id":17,"type":"Feature","properties":{"address":null,"below_grade":"N","levels_above_ground":null,"created_user":null,"primary_use":null,"campus":"Homewood","image_url":null,"height_relative":null,"level_id":null,"globalid":"{1B39AC09-17EE-42E4-B476-E86F0F0D6E38}","last_edited_user":null,"archibus_id":null,"name_long":"Hodson Terrace","name":"Hodson Terrace","site_id":null,"facility_id":" ","last_edited_date":null,"validationstatus":6,"created_date":null,"SHAPE__Length":290.48225210851245,"objectid":17,"SHAPE__Area":4039.3591789408297}}]}