{"type":"FeatureCollection","features":[{"geometry":{"type":"Point","coordinates":[-76.620952,39.328571],"crs":null},"id":1,"type":"Feature","properties":{"last_edited_user":"portaladmin","created_user":"portaladmin","vertical_order":0,"level_id":"0","description":"Ames Hall Elevator","last_edited_date":1759258604000,"created_date":1759258604000,"objectid":1,"landmark_type":"Elevator"}},{"geometry":{"type":"Point","coordinates":[-76.619904,39.328594],"crs":null},"id":2,"type":"Feature","properties":{"last_edited_user":"portaladmin","created_user":"portaladmin","vertical_order":0,"level_id":null,"description":"Krieger Hall Elevator","last_edited_date":1759258604000,"created_date":1759258604000,"objectid":2,"landmark_type":"Elevator"}},{"geometry":{"type":"Point","coordinates":[-76.619565,39.328417],"crs":null},"id":3,"type":"Feature","properties":{"last_edited_user":"portaladmin","created_user":"portaladmin","vertical_order":0,"level_id":null,"description":"Brody Learning Commons Elevator","last_edited_date":1759258604000,"created_date":1759258604000,"objectid":3,"landmark_type":"Elevator"}},{"geometry":{"type":"Point","coordinates":[-76.620149,39.326698],"crs":null},"id":4,"type":"Feature","properties":{"last_edited_user":"portaladmin","created_user":"portaladmin","vertical_order":0,"level_id":null,"description":"Shriver Hall Elevator","last_edited_date":1759258604000,"created_date":1759258604000,"objectid":4,"landmark_type":"Elevator"}},{"geometry":{"type":"Point","coordinates":[-76.622438,39.327744],"crs":null},"id":5,"type":"Feature","properties":{"last_edited_user":"portaladmin","created_user":"portaladmin","vertical_order":0,"level_id":null,"description":"Hodson Hall Elevator","last_edited_date":1759258604000,"created_date":1759258604000,"objectid":5,"landmark_type":"Elevator"}},{"geometry":{"type":"Point","coordinates":[-76.621429,39.329134],"crs":null},"id":6,"type":"Feature","properties":{"last_edited_user":"portaladmin","created_user":"portaladmin","vertical_order":0,"level_id":null,"description":"Gilman Hall North Elevator","last_edited_date":1759258604000,"created_date":1759258604000,"objectid":6,"landmark_type":"Elevator"}},{"geometry":{"type":"Point","coordinates":[-76.621409,39.328831],"crs":null},"id":7,"type":"Feature","properties":{"last_edited_user":"portaladmin","created_user":"portaladmin","vertical_order":0,"level_id":null,"description":"Gilman Hall South Elevator","last_edited_date":1759258604000,"created_date":1759258604000,"objectid":7,"landmark_type":"Elevator"}},{"geometry":{"type":"Point","coordinates":[-76.620738,39.329474],"crs":null},"id":8,"type":"Feature","properties":{"last_edited_user":"portaladmin","created_user":"portaladmin","vertical_order":0,"level_id":null,"description":"Jenkins-Mergenthaler Hall Elevator","last_edited_date":1759258604000,"created_date":1759258604000,"objectid":8,"landmark_type":"Elevator"}},{"geometry":{"type":"Point","coordinates":[-76.619935,39.327186],"crs":null},"id":9,"type":"Feature","properties":{"last_edited_user":"portaladmin","created_user":"portaladmin","vertical_order":0,"level_id":null,"description":"Shaffer Hall Elevator","last_edited_date":1759258604000,"created_date":1759258604000,"objectid":9,"landmark_type":"Elevator"}},{"geometry":{"type":"Point","coordinates":[-76.621585,39.325929],"crs":null},"id":10,"type":"Feature","properties":{"last_edited_user":"portaladmin","created_user":"portaladmin","vertical_order":0,"level_id":null,"description":"Mason Hall - South Garage Elevator","last_edited_date":1759258604000,"created_date":1759258604000,"objectid":10,"landmark_type":"Elevator"}},{"geometry":{"type":"Point","coordinates":[-76.620979,39.32681],"crs":null},"id":11,"type":"Feature","properties":{"last_edited_user":"portaladmin","created_user":"portaladmin","vertical_order":0,"level_id":null,"description":"Hackerman Hall Elevator","last_edited_date":1759258604000,"created_date":1759258604000,"objectid":11,"landmark_type":"Elevator"}},{"geometry":{"type":"Point","coordinates":[-76.621558,39.326549],"crs":null},"id":12,"type":"Feature","properties":{"last_edited_user":"portaladmin","created_user":"portaladmin","vertical_order":0,"level_id":null,"description":"Decker Quad","last_edited_date":1759258604000,"created_date":1759258604000,"objectid":12,"landmark_type":"Quad"}},{"geometry":{"type":"Point","coordinates":[-76.620397,39.327794],"crs":null},"id":13,"type":"Feature","properties":{"last_edited_user":"portaladmin","created_user":"portaladmin","vertical_order":0,"level_id":null,"description":"Wyman Quad","last_edited_date":1759258604000,"created_date":1759258604000,"objectid":13,"landmark_type":"Quad"}},{"geometry":{"type":"Point","coordinates":[-76.62075,39.329024],"crs":null},"id":16,"type":"Feature","properties":{"last_edited_user":"portaladmin","created_user":"portaladmin","vertical_order":0,"level_id":null,"description":"Keyser Quad","last_edited_date":1759258604000,"created_date":1759258604000,"objectid":16,"landmark_type":"Quad"}},{"geometry":{"type":"Point","coordinates":[-76.619986,39.329042],"crs":null},"id":17,"type":"Feature","properties":{"last_edited_user":"portaladmin","created_user":"portaladmin","vertical_order":0,"level_id":null,"description":"Keyser Quad","last_edited_date":1759258604000,"created_date":1759258604000,"objectid":17,"landmark_type":"Quad"}},{"geometry":{"type":"Point","coordinates":[-76.620323,39.327152],"crs":null},"id":19,"type":"Feature","properties":{"last_edited_user":"portaladmin","created_user":"portaladmin","vertical_order":0,"level_id":null,"description":"Wyman Quad","last_edited_date":1759258604000,"created_date":1759258604000,"objectid":19,"landmark_type":"Quad"}},{"geometry":{"type":"Point","coordinates":[-76.621286,39.329408],"crs":null},"id":254,"type":"Feature","properties":{"last_edited_user":"portaladmin","created_user":"portaladmin","vertical_order":0,"level_id":null,"description":"Gilman Tunnel North Entrance","last_edited_date":1759258604000,"created_date":1759258604000,"objectid":254,"landmark_type":"Tunnel Entrance"}},{"geometry":{"type":"Point","coordinates":[-76.621208,39.328621],"crs":null},"id":255,"type":"Feature","properties":{"last_edited_user":"portaladmin","created_user":"portaladmin","vertical_order":0,"level_id":null,"description":"Gilman Tunnel South Entrance","last_edited_date":1759258604000,"created_date":1759258604000,"objectid":255,"landmark_type":"Tunnel Entrance"}},{"geometry":{"type":"Point","coordinates":[-76.619496,39.330609],"crs":null},"id":256,"type":"Feature","properties":{"last_edited_user":"portaladmin","created_user":"portaladmin","vertical_order":0,"level_id":null,"description":"Freshman Quad","last_edited_date":1759258604000,"created_date":1759258604000,"objectid":256,"landmark_type":"Quad"}},{"geometry":{"type":"Point","coordinates":[-76.618319,39.327959],"crs":null},"id":257,"type":"Feature","properties":{"last_edited_user":"portaladmin","created_user":"portaladmin","vertical_order":0,"level_id":null,"description":"Bloomberg Student Center Elevator EL3","last_edited_date":1759258604000,"created_date":1759258604000,"objectid":257,"landmark_type":"Elevator"}},{"geometry":{"type":"Point","coordinates":[-76.618296,39.327942],"crs":null},"id":258,"type":"Feature","properties":{"last_edited_user":"portaladmin","created_user":"portaladmin","vertical_order":0,"level_id":null,"description":"Bloomberg Student Center Elevator EL4","last_edited_date":1759258604000,"created_date":1759258604000,"objectid":258,"landmark_type":"Elevator"}},{"geometry":{"type":"Point","coordinates":[-76.618668,39.327777],"crs":null},"id":261,"type":"Feature","properties":{"last_edited_user":"portaladmin","created_user":"portaladmin","vertical_order":0,"level_id":null,"description":"Bloomberg Student Center Elevator EL1","last_edited_date":1759258604000,"created_date":1759258604000,"objectid":261,"landmark_type":"Elevator"}}]}