{"type":"FeatureCollection","features":[{"geometry":{"type":"Polygon","coordinates":[[[-76.62319,39.325453],[-76.623192,39.325456],[-76.623747,39.326249],[-76.623418,39.326405],[-76.623438,39.326435],[-76.62377,39.326281],[-76.623855,39.326243],[-76.623971,39.326353],[-76.624423,39.326137],[-76.624682,39.326016],[-76.624937,39.3259],[-76.624814,39.325733],[-76.624882,39.325703],[-76.624613,39.325369],[-76.624385,39.325079],[-76.62426,39.324919],[-76.624065,39.324672],[-76.623643,39.324132],[-76.623602,39.324153],[-76.624025,39.324688],[-76.623803,39.324793],[-76.623601,39.324536],[-76.623258,39.32469],[-76.623048,39.324792],[-76.622875,39.324565],[-76.622699,39.324643],[-76.622795,39.324762],[-76.622615,39.324847],[-76.622763,39.325035],[-76.623137,39.324871],[-76.62325,39.325022],[-76.622879,39.325187],[-76.62297,39.325302],[-76.623064,39.325422],[-76.623244,39.325337],[-76.623297,39.325404],[-76.62319,39.325453]]],"crs":null},"id":1,"type":"Feature","properties":{"expected_start_date":null,"globalid":"{59917E4A-5E0B-4C86-8BC6-4F67894868E7}","expected_end_date":null,"project_name":"DSAI","objectid":1,"hub_link":"https://jhfre.jhu.edu/capital-projects/projects/dsai/"}},{"geometry":{"type":"Polygon","coordinates":[[[-76.61971,39.328829],[-76.619704,39.328755],[-76.619696,39.328639],[-76.619543,39.328645],[-76.619552,39.328777],[-76.619517,39.328778],[-76.619284,39.328787],[-76.61904,39.328794],[-76.618908,39.328828],[-76.619026,39.328989],[-76.61908,39.329011],[-76.619081,39.32905],[-76.619088,39.329102],[-76.619093,39.329173],[-76.619133,39.329259],[-76.619177,39.329331],[-76.6192,39.329353],[-76.619248,39.329414],[-76.619301,39.329424],[-76.619357,39.329441],[-76.619414,39.329448],[-76.619492,39.329452],[-76.619567,39.329453],[-76.619612,39.329447],[-76.619672,39.329433],[-76.619736,39.329377],[-76.619787,39.329294],[-76.619813,39.329274],[-76.619829,39.329253],[-76.61985,39.329209],[-76.61991,39.329119],[-76.619953,39.329057],[-76.619982,39.329019],[-76.619925,39.328948],[-76.620135,39.328875],[-76.620242,39.3288],[-76.619837,39.328824],[-76.61971,39.328829]]],"crs":null},"id":7,"type":"Feature","properties":{"expected_start_date":null,"globalid":"{F46504BB-8B69-46D0-83C3-DBFFAFEEDEE9}","expected_end_date":1798776000000,"project_name":"MSEL Renovation","objectid":7,"hub_link":"https://jhfre.jhu.edu/capital-projects/projects/mse-library/"}},{"geometry":{"type":"Polygon","coordinates":[[[-76.62115,39.329914],[-76.62118,39.329914],[-76.621176,39.329878],[-76.62114,39.329876],[-76.62115,39.329914]]],"crs":null},"id":10,"type":"Feature","properties":{"expected_start_date":null,"globalid":"{DAB40704-2EC8-4D86-AC2D-F318E08D0F60}","expected_end_date":null,"project_name":"Manhole","objectid":10,"hub_link":null}},{"geometry":{"type":"Polygon","coordinates":[[[-76.619748,39.328697],[-76.619745,39.328636],[-76.61972,39.328636],[-76.619724,39.328698],[-76.619748,39.328697]]],"crs":null},"id":13,"type":"Feature","properties":{"expected_start_date":null,"globalid":"{699FC7F2-B123-474B-A8AF-E6CFEB8E8DBA}","expected_end_date":1793160000000,"project_name":"Krieger Ramp","objectid":13,"hub_link":"https://jhfre.jhu.edu/alerts/overhead-protection-walkway-installation-msel/"}},{"geometry":{"type":"Polygon","coordinates":[[[-76.623334,39.33217],[-76.623308,39.33215],[-76.623294,39.33216],[-76.623216,39.332137],[-76.623197,39.332121],[-76.623179,39.332133],[-76.623126,39.332087],[-76.623097,39.332108],[-76.623251,39.332232],[-76.623334,39.33217]]],"crs":null},"id":41,"type":"Feature","properties":{"expected_start_date":1776052800000,"globalid":"{FEB02F7E-38DA-48A1-AF57-193C4A94100B}","expected_end_date":null,"project_name":"Stair Closure","objectid":41,"hub_link":null}},{"geometry":{"type":"Polygon","coordinates":[[[-76.619272,39.329831],[-76.619304,39.329913],[-76.619393,39.329916],[-76.61942,39.32983],[-76.619335,39.329798],[-76.619272,39.329831]]],"crs":null},"id":43,"type":"Feature","properties":{"expected_start_date":1779378691446,"globalid":"{88209CBA-7641-4B0B-8CEF-60CC1AD51A5B}","expected_end_date":null,"project_name":"Fire Hydrant","objectid":43,"hub_link":null}},{"geometry":{"type":"Polygon","coordinates":[[[-76.618617,39.33115],[-76.618613,39.33111],[-76.618948,39.331099],[-76.619217,39.331087],[-76.619231,39.331059],[-76.619298,39.331035],[-76.619651,39.330983],[-76.619654,39.330946],[-76.619665,39.330825],[-76.61958,39.330744],[-76.619506,39.330672],[-76.619387,39.330558],[-76.619256,39.330456],[-76.619203,39.330393],[-76.619168,39.330351],[-76.61896,39.330211],[-76.618736,39.330018],[-76.61868,39.33004],[-76.61828,39.32969],[-76.618185,39.329708],[-76.618081,39.329727],[-76.618,39.32973],[-76.618075,39.331089],[-76.618103,39.331161],[-76.618111,39.331335],[-76.618285,39.331326],[-76.618623,39.331316],[-76.618617,39.33115]]],"crs":null},"id":44,"type":"Feature","properties":{"expected_start_date":1779321601000,"globalid":"{C46321EB-3C16-416A-86DB-BD0D755165DF}","expected_end_date":1851292800000,"project_name":"AMR 1 Replacement","objectid":44,"hub_link":"https://jhfre.jhu.edu/alerts/construction-begins-amr-i-hopkins-dining-project/"}}]}