{"type":"FeatureCollection","features":[{"type":"Feature","id":1,"geometry":{"type":"Polygon","coordinates":[[[-76.620547,39.325636],[-76.620558,39.325668],[-76.620502,39.325711],[-76.620458,39.325744],[-76.620336,39.325836],[-76.620281,39.325878],[-76.619507,39.326461],[-76.617791,39.326463],[-76.617788,39.326537],[-76.617804,39.326787],[-76.617834,39.327231],[-76.617892,39.328105],[-76.617948,39.328953],[-76.618095,39.331138],[-76.618109,39.331355],[-76.61811,39.331369],[-76.618181,39.332515],[-76.618856,39.332959],[-76.619284,39.333239],[-76.619311,39.333254],[-76.619399,39.333302],[-76.623877,39.336202],[-76.623877,39.3362],[-76.623918,39.335372],[-76.623917,39.335344],[-76.623908,39.335154],[-76.623872,39.334952],[-76.623808,39.334755],[-76.623718,39.334564],[-76.623603,39.334381],[-76.623464,39.334208],[-76.623302,39.334048],[-76.623273,39.334022],[-76.623173,39.333784],[-76.623118,39.333653],[-76.623818,39.3329],[-76.62383,39.332888],[-76.623835,39.332872],[-76.623989,39.332441],[-76.623991,39.332435],[-76.623999,39.332414],[-76.624039,39.332313],[-76.624099,39.332201],[-76.624175,39.332094],[-76.624265,39.331994],[-76.624367,39.331902],[-76.624481,39.331818],[-76.624606,39.331745],[-76.62474,39.331682],[-76.624882,39.33163],[-76.625003,39.331596],[-76.625346,39.331494],[-76.625443,39.331463],[-76.625534,39.331425],[-76.625637,39.331368],[-76.625708,39.331322],[-76.625825,39.33122],[-76.625902,39.331124],[-76.62595,39.331006],[-76.625961,39.330885],[-76.625925,39.330733],[-76.625837,39.330555],[-76.625741,39.330405],[-76.625566,39.330123],[-76.625499,39.330005],[-76.62535,39.329618],[-76.625286,39.329155],[-76.625289,39.329095],[-76.625231,39.328955],[-76.625229,39.328949],[-76.625069,39.328563],[-76.625003,39.328493],[-76.624938,39.328426],[-76.625002,39.327123],[-76.625045,39.326536],[-76.62505,39.326471],[-76.625283,39.326295],[-76.625002,39.325936],[-76.624843,39.325744],[-76.623599,39.324164],[-76.623139,39.32438],[-76.622852,39.324514],[-76.621632,39.325087],[-76.62146,39.325193],[-76.621339,39.325145],[-76.62116,39.32507],[-76.62091,39.324961],[-76.620896,39.324955],[-76.620861,39.324938],[-76.62083,39.324923],[-76.620789,39.324904],[-76.62074,39.324881],[-76.620729,39.324874],[-76.620605,39.324807],[-76.620525,39.324761],[-76.620436,39.324707],[-76.620377,39.324688],[-76.620336,39.324677],[-76.620318,39.324675],[-76.620272,39.324672],[-76.620218,39.324672],[-76.620268,39.32482],[-76.620328,39.324998],[-76.620336,39.32502],[-76.620531,39.32559],[-76.620547,39.325636]]]},"properties":{"ObjectID":1,"SITE_ID":" ","NAME":"Homewood Campus","NAME_LONG":null,"SHAPE_Length":11702.231340125676,"SHAPE_Area":6277854.415123444,"CREATED_USER":"JPFISTER","CREATED_DATE":1712337220000,"LAST_EDITED_USER":"JPFISTER","LAST_EDITED_DATE":1712337220000,"GlobalID":"{FA43BBBB-B933-4927-806F-C4DDB5E0F318}","VALIDATIONSTATUS":2}}]}